SCHOOL NAME,ADDRESS,CITY,COUNTY,ZIP,SCHOOL NURSE,SCHOOL NURSE TYPE,SCHOOLTYPE,ENROLLEDCOUNT,PCT_IMMUNE_DTAP,PCT_EXEMPT_DTAP,PCT_COMPLIANCE_DTAP,PCT_IMMUNE_TDAP,PCT_EXEMPT_TDAP,PCT_COMPLIANCE_TDAP,PCT_IMMUNE_MCMVC,PCT_EXEMPT_MCMVC,PCT_COMPLIANCE_MCMVC,PCT_IMMUNE_POLIO,PCT_EXEMPT_POLIO,PCT_COMPLIANCE_POLIO,PCT_IMMUNE_MMR,PCT_EXEMPT_MMR,PCT_COMPLIANCE_MMR,PCT_IMMUNE_HEPB,PCT_EXEMPT_HEPB,PCT_COMPLIANCE_HEPB,PCT_IMMUNE_VAR,PCT_EXEMPT_VAR,PCT_COMPLIANCE_VAR,PCT_PBE,PCT_MEDICAL_EXEMPT,PCT_PBE_EXEMPT_ALL
91ST PSALM CHRISTIAN SCHOOL,2020 E BASELINE RD,PHOENIX,MARICOPA,85042,NO,,PRIVATE,< 20 ,N/A,N/A,N/A,N/A,N/A,N/A,N/A,N/A,N/A,N/A,N/A,N/A,N/A,N/A,N/A,N/A,N/A,N/A,N/A,N/A,N/A,N/A,N/A,N/A
ABRAHAM LINCOLN TRADITIONAL SCHOOL,10444 N 39TH AVE,PHOENIX,MARICOPA,85051,NO,,PUBLIC,59,98%,2%,100%,97%,3%,100%,95%,5%,100%,98%,2%,100%,98%,2%,100%,98%,2%,100%,97%,3%,100%,8%,3%,8%
ACACIA ELEMENTARY SCHOOL,3021 W EVANS DR,PHOENIX,MARICOPA,85053,YES,RN,PUBLIC,134,98%,2%,100%,99%,1%,100%,97%,1%,99%,100%,0%,100%,100%,0%,100%,99%,1%,100%,100%,0%,100%,1%,0%,0%
ACADEMY DEL SOL - HOPE,7102 W VALLEY CREST PL,TUCSON,PIMA,85757,NO,,CHARTER,53,98%,2%,100%,98%,2%,100%,98%,2%,100%,98%,2%,100%,98%,2%,100%,98%,2%,100%,98%,2%,100%,2%,0%,2%
ACADEMY OF MATH AND SCIENCE,1557 W PRINCE RD,TUCSON,PIMA,85705,NO,,CHARTER,42,95%,5%,100%,83%,17%,100%,83%,17%,100%,95%,5%,100%,95%,5%,100%,95%,5%,100%,100%,0%,100%,0%,17%,0%
ACADEMY OF MATH AND SCIENCE CAMELBACK,6633 W CAMELBACK RD,PHOENIX,MARICOPA,85033,NO,,CHARTER,113,100%,0%,100%,87%,3%,91%,87%,3%,91%,100%,0%,100%,100%,0%,100%,99%,1%,100%,100%,0%,100%,3%,0%,0%
ACADEMY OF MATHEMATICS AND SCIENCE SOUTH,3335 W FLOWER ST,PHOENIX,MARICOPA,85017,NO,,CHARTER,56,100%,0%,100%,100%,0%,100%,80%,11%,100%,100%,0%,100%,98%,2%,100%,98%,2%,100%,100%,0%,100%,11%,11%,0%
ACADEMY OF TUCSON MIDDLE SCHOOL,2300 N TANQUE VERDE LOOP RD,TUCSON,PIMA,,NO,,CHARTER,75,99%,1%,100%,85%,5%,100%,80%,5%,99%,99%,1%,100%,97%,3%,100%,99%,1%,100%,97%,3%,100%,5%,0%,1%
ACCEL - METRO CAMPUS (LATCH SCHOOL),10251 N 35TH AVE,PHOENIX,MARICOPA,85051,YES,LPN,PRIVATE,< 20 ,N/A,N/A,N/A,N/A,N/A,N/A,N/A,N/A,N/A,N/A,N/A,N/A,N/A,N/A,N/A,N/A,N/A,N/A,N/A,N/A,N/A,N/A,N/A,N/A
ACCELERATED LEARNING LABORATORY,5245 N CAMINO DE OESTE,TUCSON,PIMA,85745,NO,,CHARTER,< 20 ,N/A,N/A,N/A,N/A,N/A,N/A,N/A,N/A,N/A,N/A,N/A,N/A,N/A,N/A,N/A,N/A,N/A,N/A,N/A,N/A,N/A,N/A,N/A,N/A
ACCLAIM ACADEMY,7624 W INDIAN SCHOOL RD,PHOENIX,MARICOPA,85033,NO,,CHARTER,44,86%,0%,100%,86%,7%,93%,98%,0%,98%,86%,0%,93%,89%,0%,100%,77%,0%,89%,95%,0%,95%,0%,0%,0%
ACORN MONTESSORI MIDDLE SCHOOL,8456 E LOOS DR,PRESCOTT VALLEY,YAVAPAI,,NO,,CHARTER,45,98%,2%,100%,51%,49%,100%,49%,51%,100%,98%,2%,100%,98%,2%,100%,96%,4%,100%,100%,0%,100%,51%,0%,4%
ADAMS ELEMENTARY SCHOOL,738 S LONGMORE,MESA,MARICOPA,85202,YES,RN,PUBLIC,106,99%,1%,100%,96%,4%,100%,96%,4%,100%,99%,1%,100%,99%,1%,100%,99%,1%,100%,99%,1%,100%,4%,0%,1%
ADAMS TRADITIONAL ACADEMY,2323 W PARKSIDE LN,PHOENIX,MARICOPA,85027,NO,,CHARTER,53,89%,11%,100%,66%,17%,85%,66%,17%,85%,85%,15%,100%,87%,13%,100%,89%,11%,100%,89%,11%,100%,17%,2%,19%
AGUA CALIENTE SCHOOL,11420 E LIMBERLOST RD,TUCSON,PIMA,85749,YES,RN,PUBLIC,87,98%,2%,100%,95%,3%,100%,95%,3%,100%,97%,3%,100%,97%,3%,100%,97%,3%,100%,97%,3%,100%,3%,0%,3%
AGUILA ELEMENTARY SCHOOL,50023 N 51ST AVE,AGUILA,MARICOPA,85320,NO,,PUBLIC,< 20 ,N/A,N/A,N/A,N/A,N/A,N/A,N/A,N/A,N/A,N/A,N/A,N/A,N/A,N/A,N/A,N/A,N/A,N/A,N/A,N/A,N/A,N/A,N/A,N/A
AIRE LIBRE ELEMENTARY SCHOOL,16428 N 21ST ST,PHOENIX,MARICOPA,85022,YES,RN,PUBLIC,54,98%,2%,100%,96%,2%,100%,96%,2%,100%,100%,0%,100%,100%,0%,100%,100%,0%,100%,100%,0%,100%,2%,0%,0%
AJO ELEMENTARY SCHOOL,111 WELL RD,AJO,PIMA,85321,NO,,PUBLIC,31,97%,0%,97%,55%,0%,58%,55%,0%,58%,97%,0%,97%,97%,0%,97%,100%,0%,100%,97%,0%,97%,3%,3%,0%
ALFRED F GARCIA SCHOOL,1441 S 27TH AVE,PHOENIX,MARICOPA,85009,YES,LPN,PUBLIC,39,100%,0%,100%,100%,0%,100%,100%,0%,100%,100%,0%,100%,100%,0%,100%,100%,0%,100%,100%,0%,100%,0%,0%,0%
ALHAMBRA TRADITIONAL SCHOOL,3736 W OSBORN RD,PHOENIX,MARICOPA,85019,NO,,PUBLIC,77,97%,3%,100%,94%,4%,100%,94%,4%,100%,97%,3%,100%,97%,3%,100%,96%,3%,99%,96%,4%,100%,5%,0%,3%
ALL SAINTS EPISCOPAL DAY SCHOOL,6300 N CENTRAL AVE,PHOENIX,MARICOPA,85012,YES,RN,PRIVATE,65,98%,2%,100%,89%,3%,94%,89%,3%,94%,95%,3%,98%,97%,3%,100%,98%,2%,100%,98%,2%,100%,5%,0%,3%
ALTA LOMA SCHOOL,9750 N 87TH AVE,PEORIA,MARICOPA,85345,YES,RN,PUBLIC,94,98%,2%,100%,81%,2%,84%,81%,2%,84%,98%,2%,100%,98%,2%,100%,98%,2%,100%,98%,2%,100%,0%,0%,2%
ALTA VISTA ELEMENTARY SCHOOL,8710 N 31ST AVE,PHOENIX,MARICOPA,85051,YES,RN,PUBLIC,128,96%,1%,100%,99%,1%,100%,99%,1%,100%,97%,1%,100%,99%,1%,100%,97%,1%,100%,99%,1%,100%,1%,0%,1%
ALTAR VALLEY MIDDLE SCHOOL,16350 W AJO RD,TUCSON,PIMA,85735,NO,,PUBLIC,84,100%,0%,100%,100%,0%,100%,100%,0%,100%,100%,0%,100%,100%,0%,100%,100%,0%,100%,100%,0%,100%,0%,0%,0%
AMBERLEA ELEMENTARY SCHOOL,8455 W VIRGINIA AVE,PHOENIX,MARICOPA,85037,NO,,PUBLIC,64,100%,0%,100%,98%,0%,100%,98%,0%,100%,100%,0%,100%,100%,0%,100%,100%,0%,100%,100%,0%,100%,0%,0%,0%
AMERICAN HERITAGE ACADEMY - CAMP VERDE,123 GENERAL CROOK TRAIL,CAMP VERDE,YAVAPAI,86332,NO,,CHARTER,< 20 ,N/A,N/A,N/A,N/A,N/A,N/A,N/A,N/A,N/A,N/A,N/A,N/A,N/A,N/A,N/A,N/A,N/A,N/A,N/A,N/A,N/A,N/A,N/A,N/A
AMERICAN HERITAGE ACADEMY - COTTONWOOD,2030 E CHERRY ST,COTTONWOOD,YAVAPAI,86326,NO,,CHARTER,23,96%,4%,100%,30%,4%,35%,35%,4%,39%,96%,4%,100%,96%,4%,100%,96%,4%,100%,96%,4%,100%,4%,0%,4%
AMERICAN LEADERSHIP ACADEMY - GILBERT,3155 S SAN TAN VILLAGE PKWY,GILBERT,MARICOPA,85295,NO,,CHARTER,52,90%,10%,100%,67%,31%,100%,62%,37%,100%,90%,10%,100%,88%,12%,100%,92%,8%,100%,90%,10%,100%,40%,0%,8%
AMERICAN LEADERSHIP ACADEMY - IRONWOOD K-6,650 W COMBS RD,QUEEN CREEK,PINAL,85140,NO,,CHARTER,140,91%,7%,100%,85%,14%,100%,82%,16%,100%,89%,11%,100%,89%,11%,100%,93%,7%,100%,91%,9%,100%,19%,0%,4%
AMERICAN LEADERSHIP ACADEMY - MESA,4507 S MOUNTAIN RD,MESA,MARICOPA,85212,NO,,CHARTER,51,96%,4%,100%,92%,8%,100%,88%,12%,100%,96%,4%,100%,98%,2%,100%,96%,4%,100%,98%,2%,100%,12%,0%,2%
AMERICAN LEADERSHIP ACADEMY - SAN TAN,34969 N VILLAGE LN,QUEEN CREEK,MARICOPA,85142,NO,,CHARTER,84,93%,7%,100%,81%,19%,100%,81%,19%,100%,92%,8%,100%,93%,7%,100%,92%,8%,100%,94%,6%,100%,19%,0%,6%
AMERICAN LEADERSHIP ACADEMY ANTHEM SOUTH CAMPUS,4380 N HUNT HWY,FLORENCE,PINAL,85132,NO,,CHARTER,38,100%,0%,100%,84%,13%,100%,79%,16%,100%,100%,0%,100%,100%,0%,100%,97%,3%,100%,95%,5%,100%,21%,0%,0%
AMERICAN LEADERSHIP ACADEMY- GILBERT NORTH K-6 CAMPUS,1010 S HIGLEY ROAD,GILBERT,MARICOPA,85296,NO,,CHARTER,130,88%,11%,100%,77%,22%,100%,75%,24%,100%,88%,12%,100%,87%,13%,100%,89%,11%,100%,88%,12%,100%,24%,1%,9%
AMERICAN LEADERSHIP ACADEMY- GILBERT SOUTH K-6 CAMPUS,1750 E RIGGS ROAD,GILBERT,MARICOPA,85298,NO,,CHARTER,< 20 ,N/A,N/A,N/A,N/A,N/A,N/A,N/A,N/A,N/A,N/A,N/A,N/A,N/A,N/A,N/A,N/A,N/A,N/A,N/A,N/A,N/A,N/A,N/A,N/A
AMERICAN LEADERSHIP ACADEMY- SIGNAL BUTTE K-6 CAMPUS,22512 S SIGNAL BUTTE RD,QUEEN CREEK,MARICOPA,85142,NO,,CHARTER,< 20 ,N/A,N/A,N/A,N/A,N/A,N/A,N/A,N/A,N/A,N/A,N/A,N/A,N/A,N/A,N/A,N/A,N/A,N/A,N/A,N/A,N/A,N/A,N/A,N/A
AMERICAN LEADERSHIP ACADMEY - QUEEN CREEK ELEMENTARY,19843 E CHANDLER HEIGHTS RD,CHANDLER,MARICOPA,85142,NO,,CHARTER,150,97%,3%,100%,90%,8%,100%,87%,11%,100%,93%,7%,100%,95%,5%,100%,97%,3%,100%,94%,6%,100%,15%,0%,2%
AMERISCHOOLS ACADEMY - CAMELBACK,1333 W CAMELBACK RD,PHOENIX,MARICOPA,85013,NO,,CHARTER,30,93%,7%,100%,87%,13%,100%,90%,10%,100%,97%,3%,100%,90%,10%,100%,90%,10%,100%,93%,7%,100%,23%,10%,3%
AMERISCHOOLS ACADEMY - COUNTRY CLUB,1150 N COUNTRY CLUB RD,TUCSON,PIMA,85716,NO,,CHARTER,24,100%,0%,100%,83%,0%,83%,83%,0%,83%,96%,0%,96%,96%,0%,96%,100%,0%,100%,92%,0%,92%,0%,0%,0%
AMERISCHOOLS ACADEMY - YUMA NORTH CAMPUS,1220 S 4TH AVE,YUMA,YUMA,85364,NO,,CHARTER,37,100%,0%,100%,100%,0%,100%,100%,0%,100%,100%,0%,100%,100%,0%,100%,100%,0%,100%,100%,0%,100%,0%,0%,0%
AMERISCHOOLS ACADEMY - YUMA SOUTH CAMPUS,2098 S 3RD AVE,YUMA,YUMA,85364,NO,,CHARTER,< 20 ,N/A,N/A,N/A,N/A,N/A,N/A,N/A,N/A,N/A,N/A,N/A,N/A,N/A,N/A,N/A,N/A,N/A,N/A,N/A,N/A,N/A,N/A,N/A,N/A
AMPHITHEATER MIDDLE SCHOOL,315 E PRINCE RD,TUCSON,PIMA,85705,YES,RN,PUBLIC,295,100%,0%,100%,99%,1%,100%,99%,1%,100%,100%,0%,100%,100%,0%,100%,100%,0%,100%,100%,0%,100%,1%,0%,0%
AMY L. HOUSTON ACADEMY,7139 S 10TH ST,PHOENIX,MARICOPA,85042,YES,Both,PUBLIC,< 20 ,N/A,N/A,N/A,N/A,N/A,N/A,N/A,N/A,N/A,N/A,N/A,N/A,N/A,N/A,N/A,N/A,N/A,N/A,N/A,N/A,N/A,N/A,N/A,N/A
ANDALUCIA MIDDLE SCHOOL,4730 W CAMPBELL AVE,PHOENIX,MARICOPA,85031,NO,,PUBLIC,213,99%,1%,100%,94%,1%,97%,93%,1%,96%,99%,1%,100%,99%,1%,100%,99%,1%,100%,100%,0%,100%,1%,0%,1%
ANNA LAWRENCE INTERMEDIATE SCHOOL,4850 W JEFFERY RD,TUCSON,PIMA,85757,YES,RN,PUBLIC,60,100%,0%,100%,100%,0%,100%,100%,0%,100%,100%,0%,100%,100%,0%,100%,100%,0%,100%,100%,0%,100%,0%,0%,0%
ANNA MARIE JACOBSON  ELEMENTARY SCHOOL,1515 NW JACARANDA PKWY,CHANDLER,MARICOPA,85248,NO,,PUBLIC,151,97%,3%,100%,85%,7%,100%,87%,7%,100%,97%,3%,100%,96%,4%,100%,95%,5%,100%,97%,3%,100%,11%,0%,3%
ANNUNCIATION CATHOLIC SCHOOL,32648 N CAVE CREEK RD,CAVE CREEK,MARICOPA,85331,YES,RN,PRIVATE,27,100%,0%,100%,100%,0%,100%,100%,0%,100%,96%,0%,100%,96%,0%,100%,93%,0%,100%,100%,0%,100%,0%,0%,0%
ANTHEM K-8 SCHOOL,2700 N ANTHEM WAY,FLORENCE,PINAL,85232,NO,,PUBLIC,100,99%,1%,100%,92%,3%,95%,90%,5%,95%,98%,2%,100%,98%,2%,100%,97%,3%,100%,100%,0%,100%,4%,2%,3%
ANTHEM PREPARATORY ACADEMY,39808 N GAVILAN PEAK PKWY,ANTHEM,MARICOPA,85086,NO,,CHARTER,76,93%,5%,100%,83%,11%,97%,82%,9%,95%,99%,0%,99%,93%,5%,100%,92%,8%,100%,99%,1%,100%,12%,3%,4%
ANTHEM SCHOOL,41020 N FREEDOM WAY,ANTHEM,MARICOPA,85086,YES,LPN,PUBLIC,69,94%,6%,100%,93%,7%,100%,91%,9%,100%,96%,4%,100%,96%,4%,100%,96%,3%,99%,97%,3%,100%,6%,0%,3%
ANZA TRAIL ELEMENTARY,15490 S RANCHO SAHUARITA BLVD,SAHUARITA,PIMA,85629,NO,,PUBLIC,199,97%,2%,100%,87%,2%,90%,86%,2%,90%,97%,2%,100%,98%,2%,100%,97%,2%,99%,98%,2%,100%,2%,0%,2%
APACHE ELEMENTARY SCHOOL,8633 W JOHN CABOT RD,PEORIA,MARICOPA,85382,YES,RN,PUBLIC,80,95%,5%,100%,94%,6%,100%,94%,6%,100%,95%,5%,100%,94%,6%,100%,94%,6%,100%,94%,6%,100%,9%,0%,5%
ARCADIA NEIGHBORHOOD LEARNING CENTER,4330 NORTH 62ND STREET,SCOTTSDALE,MARICOPA,85251,YES,RN,PUBLIC,52,92%,8%,100%,88%,10%,100%,83%,15%,100%,94%,6%,100%,94%,6%,100%,96%,4%,100%,100%,0%,100%,15%,0%,4%
ARCHWAY CLASSICAL ACADEMY - NORTH PHOENIX,"13613 N CAVE CREEK RD, BUILDING C",PHOENIX,MARICOPA,85018,NO,,CHARTER,117,96%,4%,100%,91%,9%,100%,91%,9%,100%,93%,7%,100%,93%,7%,100%,95%,5%,100%,95%,5%,100%,14%,1%,3%
ARIZONA AUTISM CHARTER SCHOOL,4433 N 7TH ST,PHOENIX,MARICOPA,85014,NO,,CHARTER,< 20 ,N/A,N/A,N/A,N/A,N/A,N/A,N/A,N/A,N/A,N/A,N/A,N/A,N/A,N/A,N/A,N/A,N/A,N/A,N/A,N/A,N/A,N/A,N/A,N/A
ARIZONA CHARTER ACADEMY,16011 N DYSART RD,SURPRISE,MARICOPA,85374,NO,,CHARTER,95,98%,2%,100%,100%,0%,100%,91%,3%,97%,98%,2%,100%,98%,2%,100%,98%,2%,100%,99%,1%,100%,3%,0%,1%
ARIZONA CONNECTIONS ACADEMY,335 E GERMANN RD,GILBERT,MARICOPA,85297,NO,,CHARTER,201,87%,13%,100%,74%,18%,97%,74%,18%,97%,86%,14%,100%,86%,14%,100%,86%,14%,100%,86%,14%,100%,18%,1%,14%
ARIZONA CULTURAL ACADEMY,7810 S 42ND PL,PHOENIX,MARICOPA,85042,YES,RN,PRIVATE,22,95%,5%,100%,77%,5%,100%,82%,5%,100%,95%,5%,100%,95%,5%,100%,95%,5%,100%,95%,5%,100%,5%,5%,5%
ARIZONA DESERT ELEMENTARY SCHOOL,1245 N MAIN ST,SAN LUIS,YUMA,85349,NO,,PUBLIC,129,100%,0%,100%,95%,0%,100%,94%,0%,100%,99%,0%,100%,100%,0%,100%,99%,0%,100%,100%,0%,100%,0%,0%,0%
ARIZONA DESERT ELEMENTARY SCHOOL,8803 W VAN BUREN ST,TOLLESON,MARICOPA,85353,NO,,PUBLIC,68,96%,1%,100%,78%,1%,79%,78%,1%,79%,97%,1%,100%,99%,1%,100%,97%,1%,100%,99%,1%,100%,1%,0%,1%
ARIZONA SCHOOL FOR THE ARTS,1410 N 3RD ST,PHOENIX,MARICOPA,85004,NO,,CHARTER,112,99%,0%,99%,100%,0%,100%,90%,0%,100%,99%,0%,99%,100%,0%,100%,100%,0%,100%,100%,0%,100%,0%,0%,0%
ARLINGTON ELEMENTARY SCHOOL,9410 S 355TH AVE,ARLINGTON,MARICOPA,85322,NO,,PUBLIC,29,100%,0%,100%,100%,0%,100%,100%,0%,100%,100%,0%,100%,100%,0%,100%,100%,0%,100%,100%,0%,100%,0%,0%,0%
ARROWHEAD CHRISTIAN ACADEMY,4030 W YORKSHIRE DR,GLENDALE,MARICOPA,85308,NO,,PRIVATE,< 20 ,N/A,N/A,N/A,N/A,N/A,N/A,N/A,N/A,N/A,N/A,N/A,N/A,N/A,N/A,N/A,N/A,N/A,N/A,N/A,N/A,N/A,N/A,N/A,N/A
ARROWHEAD ELEMENTARY SCHOOL,7490 W UNION HILLS DR,GLENDALE,MARICOPA,85308,YES,LPN,PUBLIC,84,95%,5%,100%,92%,7%,100%,92%,8%,100%,95%,5%,100%,95%,5%,100%,96%,4%,100%,98%,2%,100%,7%,0%,4%
ARROYO SCHOOL,4535 W CHOLLA ST,GLENDALE,MARICOPA,85304,NO,,PUBLIC,89,99%,1%,100%,99%,1%,100%,98%,2%,100%,99%,1%,100%,99%,1%,100%,99%,1%,100%,99%,1%,100%,2%,1%,0%
ARTHUR M HAMILTON SCHOOL,2020 W DURANGO,PHOENIX,MARICOPA,85009,NO,,PUBLIC,< 20 ,N/A,N/A,N/A,N/A,N/A,N/A,N/A,N/A,N/A,N/A,N/A,N/A,N/A,N/A,N/A,N/A,N/A,N/A,N/A,N/A,N/A,N/A,N/A,N/A
ARTS ACADEMY AT ESTRELLA MOUNTAIN,2504 S 91ST AVE,PHOENIX,MARICOPA,85353,NO,,CHARTER,117,100%,0%,100%,94%,6%,100%,93%,7%,100%,100%,0%,100%,100%,0%,100%,100%,0%,100%,100%,0%,100%,8%,0%,0%
ASH FORK MIDDLE SCHOOL,46999 N 5TH ST,ASH FORK,YAVAPAI,86320,YES,RN,PUBLIC,< 20 ,N/A,N/A,N/A,N/A,N/A,N/A,N/A,N/A,N/A,N/A,N/A,N/A,N/A,N/A,N/A,N/A,N/A,N/A,N/A,N/A,N/A,N/A,N/A,N/A
ASU PREPARATORY ACADEMY - PHOENIX ELEMENTARY,735 E FILLMORE ST,PHOENIX,MARICOPA,85006,YES,RN,PUBLIC,91,98%,2%,100%,92%,4%,99%,92%,4%,99%,98%,2%,100%,98%,2%,100%,98%,2%,100%,98%,2%,100%,4%,0%,2%
ATHOS TRADITIONAL ACADEMY,3201 S GILBERT RD,CHANDLER,MARICOPA,85286,YES,RN,CHARTER,111,90%,10%,100%,87%,11%,100%,87%,11%,100%,90%,10%,100%,89%,11%,100%,90%,10%,100%,91%,9%,100%,12%,1%,9%
AUDREY & ROBERT RYAN ELEMENTARY,4600 S BRIGHT ANGEL WAY,CHANDLER,MARICOPA,85249,NO,,PUBLIC,130,98%,2%,100%,86%,0%,100%,85%,7%,100%,98%,2%,100%,98%,2%,100%,97%,3%,100%,97%,3%,100%,2%,0%,0%
AUGUSTA RANCH ELEMENTARY,9430 E NEVILLE AVE,MESA,MARICOPA,85209,YES,RN,PUBLIC,172,98%,2%,100%,94%,2%,99%,92%,3%,98%,98%,2%,100%,97%,3%,100%,96%,4%,100%,98%,2%,100%,8%,1%,1%
AVALON ELEMENTARY,1045 S SAN MARCOS DR,APACHE JUNCTION,PINAL,85220,NO,,CHARTER,36,100%,0%,100%,89%,6%,100%,83%,6%,92%,100%,0%,100%,100%,0%,100%,100%,0%,100%,100%,0%,100%,6%,0%,0%
AVONDALE MIDDLE SCHOOL,1406 N CENTRAL AVE,AVONDALE,MARICOPA,85323,YES,RN,PUBLIC,131,100%,0%,100%,92%,0%,92%,90%,0%,91%,99%,0%,99%,100%,0%,100%,100%,0%,100%,100%,0%,100%,0%,0%,0%
B.U.S.D. #20 - BAGDAD SPECIAL NEEDS PRESCHOOL,6 SOUTH LINDAHL,BAGDAD,YAVAPAI,86321,NO,,PUBLIC,31,100%,0%,100%,97%,3%,100%,97%,3%,100%,100%,0%,100%,97%,3%,100%,100%,0%,100%,100%,0%,100%,3%,0%,0%
BALES ELEMENTARY SCHOOL,25400 W MARICOPA RD,BUCKEYE,MARICOPA,85326,NO,,PUBLIC,97,96%,3%,100%,96%,1%,97%,96%,1%,97%,96%,3%,100%,96%,3%,100%,96%,3%,100%,95%,5%,100%,7%,0%,0%
BALSZ SCHOOL,4309 E BELLEVIEW ST,PHOENIX,MARICOPA,85008,YES,RN,PUBLIC,76,99%,1%,100%,99%,1%,100%,99%,1%,100%,99%,1%,100%,99%,1%,100%,99%,1%,100%,99%,1%,100%,0%,0%,1%
BARBARA BUSH ELEMENTARY SCHOOL,4925 E INGRAM ST,MESA,MARICOPA,85205,YES,RN,PUBLIC,81,99%,1%,100%,93%,5%,100%,93%,5%,100%,99%,1%,100%,99%,1%,100%,99%,1%,100%,100%,0%,100%,5%,0%,1%
BARCELONA MIDDLE SCHOOL,6530 N 44TH AVE,GLENDALE,MARICOPA,85301,YES,RN,PUBLIC,135,100%,0%,100%,99%,1%,100%,99%,1%,100%,100%,0%,100%,100%,0%,100%,100%,0%,100%,100%,0%,100%,1%,1%,0%
BASHA ELEMENTARY,3535 S BASHA RD,CHANDLER,MARICOPA,85248,NO,,PUBLIC,121,96%,4%,100%,94%,2%,100%,93%,4%,98%,96%,4%,100%,94%,6%,100%,94%,6%,100%,95%,5%,100%,9%,0%,3%
BASHA HIGH SCHOOL,5990 S VAL VISTA,CHANDLER,MARICOPA,85249,YES,RN,PUBLIC,72,99%,1%,100%,96%,1%,100%,96%,1%,100%,99%,1%,100%,99%,1%,100%,99%,1%,100%,99%,1%,100%,1%,0%,1%
BASIS - AHWATUKEE,10210 S 50TH PL,PHOENIX,MARICOPA,85044,NO,,CHARTER,133,92%,8%,100%,92%,8%,100%,87%,8%,100%,92%,8%,100%,92%,8%,100%,92%,8%,100%,92%,8%,100%,8%,0%,8%
BASIS - CHANDLER,4825 S. ARIZONA AVE,CHANDLER,MARICOPA,85248,NO,,CHARTER,175,98%,2%,100%,88%,4%,100%,86%,6%,100%,98%,2%,100%,98%,2%,100%,98%,2%,100%,97%,3%,100%,7%,0%,1%
BASIS - FLAGSTAFF,1700 N GEMINI DR,FLAGSTAFF,COCONINO,86001,NO,,CHARTER,95,91%,9%,100%,86%,12%,100%,84%,14%,100%,88%,12%,100%,93%,7%,100%,92%,8%,100%,92%,8%,100%,16%,0%,6%
BASIS - MESA,5010 S EASTMARK PKWY,MESA,MARICOPA,85212,NO,,CHARTER,104,95%,5%,100%,81%,8%,100%,80%,9%,100%,100%,0%,100%,100%,0%,100%,100%,0%,100%,100%,0%,100%,14%,0%,0%
BASIS - ORO VALLEY,11155 N ORACLE RD,ORO VALLEY,PIMA,,NO,,CHARTER,124,98%,2%,100%,94%,3%,100%,92%,5%,100%,97%,3%,100%,98%,2%,100%,95%,5%,100%,98%,2%,100%,6%,3%,2%
BASIS - PEORIA,9902 W YEARLING ROAD,PEORIA,MARICOPA,,NO,,CHARTER,162,94%,6%,100%,72%,20%,100%,71%,20%,100%,95%,5%,100%,94%,6%,100%,94%,6%,100%,92%,8%,100%,22%,1%,3%
BASIS - PHOENIX,11850 N 32ND ST,PHOENIX,MARICOPA,85028,NO,,CHARTER,122,98%,2%,100%,86%,8%,100%,84%,10%,100%,97%,3%,100%,96%,4%,100%,98%,2%,100%,97%,3%,100%,13%,0%,2%
BASIS - SCOTTSDALE,10400 N. 128TH ST,SCOTTSDALE,MARICOPA,85259,NO,,CHARTER,186,99%,1%,100%,94%,3%,100%,91%,4%,100%,99%,1%,100%,99%,1%,100%,99%,1%,100%,99%,1%,100%,5%,1%,1%
BASIS - TUCSON NORTH,5740 E RIVER RD,TUCSON,PIMA,85750,NO,,CHARTER,154,100%,0%,100%,98%,0%,100%,97%,1%,100%,100%,0%,100%,100%,0%,100%,100%,0%,100%,100%,0%,100%,1%,1%,0%
BASIS GOODYEAR,15800 W SHERMAN ST,GOODYEAR,MARICOPA,85338,NO,,CHARTER,90,96%,4%,100%,89%,4%,100%,88%,6%,100%,96%,4%,100%,96%,4%,100%,96%,4%,100%,96%,4%,100%,8%,0%,4%
BASIS PHOENIX CENTRAL PRIMARY,201 E INDIANOLA AVE,PHOENIX,MARICOPA,85012,NO,,CHARTER,58,98%,2%,100%,91%,5%,100%,91%,5%,100%,98%,2%,100%,98%,2%,100%,98%,2%,100%,98%,2%,100%,5%,0%,2%
BASIS PRESCOTT,1901 PRESCOTT LAKES PKWY,PRESCOTT,YAVAPAI,86301,YES,RN,PUBLIC,91,90%,10%,100%,75%,25%,100%,71%,29%,100%,87%,13%,100%,86%,14%,100%,88%,12%,100%,90%,10%,100%,36%,36%,8%
BEAVER CREEK SCHOOL,4810 E BEAVER CREEK RD,RIMROCK,YAVAPAI,86335,NO,,PUBLIC,34,100%,0%,100%,85%,3%,88%,82%,6%,88%,97%,3%,100%,97%,3%,100%,97%,3%,100%,97%,3%,100%,6%,0%,0%
BEAVER DAM ELEMENTARY,3436 EAST RIO VIRGIN ROAD,BEAVER DAM,MOHAVE,86432,NO,,PUBLIC,< 20 ,N/A,N/A,N/A,N/A,N/A,N/A,N/A,N/A,N/A,N/A,N/A,N/A,N/A,N/A,N/A,N/A,N/A,N/A,N/A,N/A,N/A,N/A,N/A,N/A
BELLA VISTA ELEMENTARY SCHOOL,801 N LENZNER AVE,SIERRA VISTA,COCHISE,85635,YES,RN,PUBLIC,59,98%,2%,100%,97%,2%,98%,98%,0%,98%,100%,0%,100%,100%,0%,100%,100%,0%,100%,100%,0%,100%,0%,2%,0%
BELLAIR ELEMENTARY SCHOOL,4701 W GROVERS AVE,GLENDALE,MARICOPA,85308,YES,LPN,PUBLIC,70,97%,3%,100%,93%,7%,100%,91%,9%,100%,99%,1%,100%,96%,4%,100%,96%,4%,100%,97%,3%,100%,10%,0%,6%
BENCHMARK SCHOOL,4120 E ACOMA DR,PHOENIX,MARICOPA,85032,NO,,CHARTER,55,100%,0%,100%,20%,0%,20%,20%,0%,20%,100%,0%,100%,85%,0%,85%,96%,0%,96%,96%,0%,96%,0%,0%,0%
BENJAMIN FRANKLIN CHARTER SCHOOL - CRIMSON,22120 E. QUEEN CREEK RD,QUEEN CREEK,MARICOPA,85142,YES,RN,CHARTER,77,90%,10%,100%,68%,32%,100%,68%,32%,100%,92%,8%,100%,92%,8%,100%,94%,6%,100%,94%,6%,100%,35%,0%,4%
BENJAMIN FRANKLIN CHARTER SCHOOL - GILBERT,320 E WARNER RD,GILBERT,MARICOPA,85296,YES,RN,CHARTER,78,95%,5%,100%,74%,24%,100%,74%,24%,100%,94%,6%,100%,92%,8%,100%,95%,5%,100%,96%,4%,100%,28%,0%,4%
BENJAMIN FRANKLIN CHARTER SCHOOL - POWER RD,22951 S POWER RD,GILBERT,MARICOPA,85298,YES,RN,CHARTER,98,82%,18%,100%,73%,23%,100%,73%,23%,100%,80%,20%,100%,81%,19%,100%,82%,18%,100%,86%,14%,100%,30%,0%,15%
BENNETT ACADEMY,2930 W BETHANY HOME RD,PHOENIX,MARICOPA,85017,NO,,CHARTER,46,98%,2%,100%,85%,7%,96%,87%,7%,98%,98%,2%,100%,98%,2%,100%,98%,2%,100%,98%,2%,100%,7%,0%,2%
BENSON PRIMARY SCHOOL,360 S PATAGONIA ST,BENSON,COCHISE,85602,NO,,PUBLIC,109,95%,5%,100%,91%,6%,100%,77%,6%,86%,95%,5%,100%,94%,5%,100%,95%,5%,100%,95%,5%,100%,5%,0%,5%
BERNARD BLACK ELEMENTARY,6550 S 27TH AVE,PHOENIX,MARICOPA,85041,YES,RN,PUBLIC,87,94%,3%,100%,93%,3%,97%,93%,3%,97%,95%,3%,100%,95%,3%,100%,95%,3%,100%,95%,3%,99%,3%,0%,3%
BETHANY CHRISTIAN SCHOOL,6304 S PRICE RD,TEMPE,MARICOPA,85283,YES,RN,PRIVATE,< 20 ,N/A,N/A,N/A,N/A,N/A,N/A,N/A,N/A,N/A,N/A,N/A,N/A,N/A,N/A,N/A,N/A,N/A,N/A,N/A,N/A,N/A,N/A,N/A,N/A
BICENTENNIAL NORTH SCHOOL,7237 W MISSOURI AVE,GLENDALE,MARICOPA,85303,YES,RN,PUBLIC,174,98%,1%,98%,98%,1%,100%,95%,1%,100%,99%,1%,100%,99%,1%,100%,99%,1%,100%,99%,1%,100%,1%,0%,1%
BIG PARK COMMUNITY SCHOOL,25 W SADDLEHORN CT,SEDONA,YAVAPAI,86351,NO,,PUBLIC,34,68%,18%,85%,68%,18%,85%,68%,18%,85%,76%,15%,91%,79%,15%,94%,76%,15%,91%,79%,15%,94%,18%,0%,15%
BILTMORE PREPARATORY ACADEMY,4601 N 34TH ST,PHOENIX,MARICOPA,85018,NO,,PUBLIC,55,96%,0%,100%,96%,4%,100%,91%,4%,95%,96%,4%,100%,96%,4%,100%,100%,0%,100%,96%,4%,100%,4%,0%,13%
BISBEE MIDDLE SCHOOL,519 MELODY LN,BISBEE,COCHISE,,NO,,CHARTER,40,95%,5%,100%,93%,3%,98%,88%,8%,98%,95%,5%,100%,95%,5%,100%,95%,5%,100%,95%,5%,100%,10%,5%,5%
BLACK MOUNTAIN ELEMENTARY SCHOOL,3404 N SANTA MARIA RD,GOLDEN VALLEY,MOHAVE,86413,YES,LPN,PUBLIC,63,95%,5%,100%,92%,8%,100%,92%,8%,100%,95%,5%,100%,95%,5%,100%,95%,5%,100%,95%,5%,100%,8%,0%,0%
BLACK MOUNTAIN ELEMENTARY SCHOOL,33016 N 60TH ST,CAVE CREEK,MARICOPA,85327,YES,RN,PUBLIC,75,99%,1%,100%,81%,15%,99%,81%,16%,99%,99%,1%,100%,99%,1%,100%,99%,1%,100%,97%,3%,100%,17%,0%,0%
BLUE RIDGE ELEMENTARY SCHOOL,1200 W WHITE MOUNTAIN BLVD,LAKESIDE,NAVAJO,85929,NO,,PUBLIC,169,98%,2%,100%,69%,2%,71%,68%,2%,70%,98%,2%,100%,98%,2%,100%,98%,2%,100%,98%,2%,100%,2%,0%,2%
BOOTH-FICKETT MATH/SCIENCE MAGNET SCHOOL,450 S MONTEGO DR,TUCSON,PIMA,85710,YES,RN,PUBLIC,161,100%,0%,100%,99%,1%,99%,98%,1%,99%,100%,0%,100%,99%,0%,99%,99%,0%,99%,100%,0%,100%,1%,1%,0%
BORMAN ELEMENTARY SCHOOL,6630 LIGHTNING DR (DMAFB),TUCSON,PIMA,85708,YES,RN,PUBLIC,40,100%,0%,100%,100%,0%,100%,100%,0%,100%,100%,0%,100%,100%,0%,100%,100%,0%,100%,100%,0%,100%,0%,0%,0%
BOULDER CREEK ELEMENTARY,8045 E PORTOBELLO AVE,MESA,MARICOPA,85212,YES,RN,PUBLIC,93,97%,3%,100%,92%,5%,100%,92%,5%,100%,97%,3%,100%,97%,3%,100%,96%,3%,100%,98%,2%,100%,6%,0%,2%
BOULDER CREEK ELEMENTARY SCHOOL,22801 N 22ND ST,PHOENIX,MARICOPA,85024,YES,RN,PUBLIC,110,98%,1%,100%,99%,1%,100%,99%,1%,100%,97%,2%,100%,98%,2%,100%,99%,1%,100%,99%,1%,100%,6%,0%,0%
BRIDGES ELEMENTARY SCHOOL,5205 S SOBOBA ST,GILBERT,MARICOPA,85298,YES,LPN,PUBLIC,85,99%,1%,100%,94%,1%,100%,91%,5%,100%,99%,1%,100%,99%,1%,100%,99%,1%,100%,99%,1%,100%,2%,2%,1%
BRIGHT BEGINNINGS SCHOOL #1,400 N ANDERSEN BLVD,CHANDLER,MARICOPA,85224,NO,,CHARTER,< 20 ,N/A,N/A,N/A,N/A,N/A,N/A,N/A,N/A,N/A,N/A,N/A,N/A,N/A,N/A,N/A,N/A,N/A,N/A,N/A,N/A,N/A,N/A,N/A,N/A
BRUNSON-LEE ELEMENTARY SCHOOL,1350 N 48TH ST,PHOENIX,MARICOPA,85008,NO,,PUBLIC,36,97%,3%,100%,97%,3%,100%,97%,3%,100%,97%,3%,100%,97%,3%,100%,97%,3%,100%,97%,3%,100%,0%,0%,3%
BUCKEYE PRIMARY SCHOOL,210 S 6TH ST,BUCKEYE,MARICOPA,85326,YES,LPN,PUBLIC,82,99%,1%,100%,96%,4%,100%,96%,4%,100%,99%,1%,100%,99%,1%,100%,99%,1%,100%,99%,1%,100%,4%,0%,1%
BULLHEAD CITY JR HIGH SCHOOL,1062 HANCOCK RD,BULLHEAD CITY,MOHAVE,86442,YES,LPN,PUBLIC,136,96%,3%,99%,96%,3%,99%,96%,3%,99%,99%,1%,100%,99%,1%,100%,99%,1%,100%,99%,1%,100%,3%,0%,1%
BURK ELEMENTARY SCHOOL,545 N BURK ST,GILBERT,MARICOPA,85234,YES,RN,PUBLIC,55,98%,2%,100%,95%,4%,100%,96%,2%,100%,98%,2%,100%,98%,2%,100%,98%,2%,100%,100%,0%,100%,4%,0%,0%
BURKE BASIC SCHOOL,131 E SOUTHERN AVE,MESA,MARICOPA,85210,YES,LPN,CHARTER,81,100%,0%,100%,86%,0%,96%,86%,0%,96%,99%,0%,100%,100%,0%,100%,100%,0%,100%,100%,0%,100%,0%,1%,0%
BUTTERFIELD ELEMENTARY SCHOOL,3400 W MASSINGALE RD,TUCSON,PIMA,85741,NO,,PUBLIC,81,98%,2%,100%,88%,5%,95%,83%,7%,93%,98%,2%,100%,98%,2%,100%,96%,4%,100%,98%,2%,100%,5%,4%,4%
C E ROSE ELEMENTARY SCHOOL,710 W MICHIGAN DR,TUCSON,PIMA,85714,YES,RN,PUBLIC,86,100%,0%,100%,100%,0%,100%,84%,0%,84%,100%,0%,100%,100%,0%,100%,100%,0%,100%,100%,0%,100%,0%,0%,0%
C J JORGENSEN SCHOOL,1701 W ROESER RD,PHOENIX,MARICOPA,85041,YES,LPN,PUBLIC,56,100%,0%,100%,100%,0%,100%,100%,0%,100%,100%,0%,100%,100%,0%,100%,100%,0%,100%,100%,0%,100%,18%,0%,0%
C O GREENFIELD SCHOOL,7009 S 10TH ST,PHOENIX,MARICOPA,85042,NO,,PUBLIC,145,100%,0%,100%,99%,0%,99%,99%,0%,100%,98%,0%,98%,99%,0%,99%,98%,0%,98%,100%,0%,100%,3%,3%,3%
C.C.U.S.D.#93 - HORSESHOE TRAILS ELEMENTARY,5405 EAST PINNACLE VISTA DR,PHOENIX,MARICOPA,85085,NO,,PUBLIC,125,94%,6%,100%,76%,10%,89%,74%,10%,86%,91%,9%,100%,88%,12%,100%,92%,8%,100%,88%,12%,100%,17%,0%,6%
C.U.S.D.#80 - RIGGS ELEMENTARY - SCHOOL-AGE/PRESCHOOL,6930 SOUTH SEVILLE BOULEVARD WEST,GILBERT,MARICOPA,85298,NO,,PUBLIC,146,96%,4%,100%,86%,12%,100%,84%,13%,100%,95%,5%,100%,97%,3%,100%,97%,3%,100%,97%,3%,100%,14%,0%,3%
CACTUS MIDDLE SCHOOL,1220 E KORTSEN RD,CASA GRANDE,PINAL,85222,YES,RN,PUBLIC,286,98%,2%,100%,97%,2%,100%,97%,2%,100%,98%,2%,100%,98%,2%,100%,98%,2%,100%,98%,2%,100%,3%,0%,2%
CACTUS VIEW ELEMENTARY SCHOOL,17602 N CENTRAL AVE,PHOENIX,MARICOPA,85022,YES,RN,PUBLIC,103,94%,4%,100%,96%,4%,100%,97%,3%,100%,95%,5%,100%,97%,3%,100%,98%,2%,100%,97%,3%,100%,4%,0%,1%
CACTUS WREN ELEMENTARY SCHOOL,9650 N 39TH AVE,PHOENIX,MARICOPA,85051,NO,,PUBLIC,78,99%,1%,100%,95%,4%,100%,95%,4%,100%,99%,1%,100%,99%,1%,100%,99%,1%,100%,99%,1%,100%,4%,1%,1%
CALABASAS SCHOOL,131 CAMINO MARICOPA,RIO RICO,SANTA CRUZ,85648,YES,LPN,PUBLIC,115,98%,1%,100%,97%,1%,100%,96%,1%,100%,98%,1%,100%,99%,1%,100%,98%,1%,100%,98%,1%,99%,1%,0%,1%
CALIBRE ACADEMY SURPRISE,15688 W ACOMA DR,SURPRISE,MARICOPA,85379,NO,,CHARTER,55,98%,2%,100%,93%,2%,98%,91%,2%,98%,98%,2%,100%,98%,2%,100%,98%,2%,100%,98%,2%,100%,0%,0%,2%
CALVARY CHAPEL CHRISTIAN SCHOOL,8725 E SPEEDWAY BLVD,TUCSON,PIMA,85710,NO,,PRIVATE,< 20 ,N/A,N/A,N/A,N/A,N/A,N/A,N/A,N/A,N/A,N/A,N/A,N/A,N/A,N/A,N/A,N/A,N/A,N/A,N/A,N/A,N/A,N/A,N/A,N/A
CAMBRIDGE ACADEMY - MESA CAMPUS,9412 E BROWN RD,MESA,MARICOPA,85207,NO,,CHARTER,< 20 ,N/A,N/A,N/A,N/A,N/A,N/A,N/A,N/A,N/A,N/A,N/A,N/A,N/A,N/A,N/A,N/A,N/A,N/A,N/A,N/A,N/A,N/A,N/A,N/A
CAMBRIDGE ACADEMY - QUEEN CREEK,20365 E OCOTILLO RD,MESA,MARICOPA,85207,NO,,CHARTER,< 20 ,N/A,N/A,N/A,N/A,N/A,N/A,N/A,N/A,N/A,N/A,N/A,N/A,N/A,N/A,N/A,N/A,N/A,N/A,N/A,N/A,N/A,N/A,N/A,N/A
CAMELBACK ACADEMY,7634 W CAMELBACK RD,GLENDALE,MARICOPA,85303,NO,,CHARTER,59,100%,0%,100%,95%,0%,95%,93%,0%,93%,100%,0%,100%,98%,0%,98%,100%,0%,100%,100%,0%,100%,0%,0%,0%
CAMP VERDE MIDDLE SCHOOL,370 CAMP LINCOLN RD,CAMP VERDE,YAVAPAI,86322,YES,RN,PUBLIC,107,93%,6%,100%,68%,11%,80%,65%,11%,78%,95%,5%,100%,95%,5%,100%,96%,4%,100%,93%,7%,100%,11%,0%,4%
CAMPO BELLO ELEMENTARY SCHOOL,2650 E CONTENTION MINE RD,PHOENIX,MARICOPA,85032,YES,RN,PUBLIC,67,99%,0%,100%,94%,1%,99%,93%,1%,97%,99%,0%,100%,100%,0%,100%,99%,0%,100%,100%,0%,100%,1%,0%,0%
CANDEO SCHOOLS,9965 W CALLE LEJOS,PEORIA,MARICOPA,85383,NO,,CHARTER,57,98%,2%,100%,93%,4%,96%,93%,4%,96%,98%,2%,100%,96%,4%,100%,93%,5%,100%,96%,4%,100%,4%,0%,2%
CANON SCHOOL,18800 E SCHOOL HOUSE RD,BLACK CANYON CITY,YAVAPAI,85324,NO,,PUBLIC,< 20 ,N/A,N/A,N/A,N/A,N/A,N/A,N/A,N/A,N/A,N/A,N/A,N/A,N/A,N/A,N/A,N/A,N/A,N/A,N/A,N/A,N/A,N/A,N/A,N/A
CANYON BREEZE ELEMENTARY,11675 W ENCANTO BLVD,AVONDALE,MARICOPA,85392,NO,,PUBLIC,93,98%,2%,100%,100%,0%,100%,91%,0%,100%,99%,0%,99%,98%,0%,98%,98%,0%,98%,100%,0%,100%,2%,0%,0%
CANYON DE CHELLY ELEMENTARY SCHOOL,HWY 191,CHINLE,APACHE,86503,NO,,PUBLIC,36,100%,0%,100%,97%,0%,100%,97%,0%,100%,100%,0%,100%,100%,0%,100%,100%,0%,100%,100%,0%,100%,0%,0%,0%
CANYON ELEMENTARY SCHOOL,5490 W PARADISE LN,GLENDALE,MARICOPA,85306,YES,RN,PUBLIC,47,94%,6%,100%,79%,6%,85%,74%,9%,83%,87%,11%,98%,94%,6%,100%,94%,6%,100%,98%,2%,100%,11%,0%,2%
CANYON POINTE ACADEMY,4941 W UNION HILLS DR,GLENDALE,MARICOPA,85308,NO,,CHARTER,31,100%,0%,100%,84%,6%,100%,81%,10%,100%,100%,0%,100%,97%,3%,100%,100%,0%,100%,100%,0%,100%,10%,0%,0%
CANYON RIDGE ELEMENTARY,17359 WEST SURPRISE FARMS LOOP NORTH,SURPRISE,MARICOPA,85388,YES,RN,PUBLIC,96,97%,3%,100%,89%,9%,100%,88%,10%,100%,95%,5%,100%,94%,6%,100%,97%,3%,100%,96%,4%,100%,10%,1%,5%
CANYON RIM ELEMENTARY,3045 S CANYON RIM,MESA,MARICOPA,85212,YES,RN,PUBLIC,126,96%,4%,100%,88%,10%,99%,88%,11%,99%,96%,4%,100%,97%,3%,100%,95%,5%,100%,96%,4%,100%,13%,0%,2%
CANYON SPRINGS,42901 N 45TH AVE,ANTHEM,MARICOPA,85087,YES,RN,PUBLIC,94,96%,2%,98%,93%,3%,97%,94%,3%,98%,97%,1%,98%,98%,1%,99%,96%,1%,97%,98%,1%,99%,2%,1%,1%
CAPITOL ELEMENTARY SCHOOL,330 N 16TH AVE,PHOENIX,MARICOPA,85007,YES,RN,PUBLIC,64,100%,0%,100%,98%,0%,98%,98%,0%,98%,98%,0%,100%,100%,0%,100%,100%,0%,100%,100%,0%,100%,0%,0%,0%
CAPPS ELEMENTARY SCHOOL,3375 BUCKSKIN CANYON RD,HEBER,NAVAJO,85928,YES,RN,PUBLIC,40,90%,10%,100%,63%,10%,75%,60%,10%,73%,93%,8%,100%,90%,8%,98%,93%,8%,100%,93%,8%,100%,10%,0%,8%
CAREER SUCCESS SCHOOL - SAGE CAMPUS,3120 N 32ND ST,PHOENIX,MARICOPA,85018,NO,,CHARTER,23,100%,0%,100%,100%,0%,100%,100%,0%,100%,100%,0%,100%,100%,0%,100%,100%,0%,100%,100%,0%,100%,0%,0%,0%
CARMICHAEL ELEMENTARY SCHOOL,701 NE CARMICHAEL AVE,SIERRA VISTA,COCHISE,85635,YES,RN,PUBLIC,59,97%,3%,100%,97%,3%,100%,93%,3%,97%,95%,3%,98%,97%,3%,100%,98%,2%,100%,98%,2%,100%,3%,0%,3%
CAROL RAE RANCH ELEMENTARY,3777 E HOUSTON AVE,GILBERT,MARICOPA,85234,YES,RN,PUBLIC,89,98%,2%,100%,99%,1%,100%,97%,2%,99%,99%,1%,100%,99%,1%,100%,98%,2%,100%,98%,2%,100%,4%,0%,1%
CARPE DIEM COLLEGIATE E-LEARNING COMMUNITY,3777 W 22ND LN,YUMA,YUMA,85364,NO,,CHARTER,46,100%,0%,100%,98%,0%,98%,98%,0%,98%,100%,0%,100%,100%,0%,100%,100%,0%,100%,100%,0%,100%,0%,0%,0%
CARTWRIGHT ELEMENTARY SCHOOL,5833 W THOMAS RD,PHOENIX,MARICOPA,85031,YES,LPN,PUBLIC,114,99%,1%,100%,95%,1%,100%,94%,1%,99%,99%,1%,100%,99%,1%,100%,99%,1%,100%,99%,1%,100%,1%,0%,1%
CASA GRANDE MIDDLE SCHOOL,300 W MC MURRAY BLVD,CASA GRANDE,PINAL,85222,YES,RN,PUBLIC,230,100%,0%,100%,98%,0%,100%,98%,0%,100%,100%,0%,100%,100%,0%,100%,100%,0%,100%,100%,0%,100%,0%,0%,0%
CASAS CHRISTIAN SCHOOL,10801 N LA CHOLLA BLVD,TUCSON,PIMA,85742,NO,,PRIVATE,24,88%,13%,100%,83%,13%,96%,88%,13%,100%,92%,8%,100%,92%,8%,100%,92%,8%,100%,92%,8%,100%,13%,0%,13%
CASTLE DOME MIDDLE SCHOOL,2353 S OTONDO DR,YUMA,YUMA,85365,NO,,PUBLIC,286,98%,1%,100%,97%,2%,100%,97%,2%,100%,98%,1%,100%,99%,1%,100%,98%,1%,100%,99%,1%,100%,3%,0%,1%
CATALINA VENTURA SCHOOL,6331 N 39TH AVE,PHOENIX,MARICOPA,85019,YES,RN,PUBLIC,154,99%,1%,100%,90%,3%,95%,90%,3%,95%,98%,1%,99%,99%,1%,100%,99%,1%,100%,99%,1%,100%,3%,1%,1%
CAURUS ACADEMY,41900 S 42ND AVE,PHOENIX,MARICOPA,85086,NO,,CHARTER,37,86%,14%,100%,76%,16%,92%,70%,16%,86%,86%,14%,100%,86%,14%,100%,86%,14%,100%,86%,14%,100%,16%,0%,14%
CENTENNIAL ELEMENTARY SCHOOL,3507 S RANCH HOUSE PKWY,GILBERT,MARICOPA,85297,NO,,PUBLIC,142,97%,3%,100%,92%,6%,100%,92%,6%,100%,98%,2%,100%,99%,1%,100%,96%,4%,100%,98%,2%,100%,6%,0%,1%
CENTENNIAL ELEMENTARY SCHOOL,2200 W WETMORE RD,TUCSON,PIMA,85705,NO,,PUBLIC,78,97%,3%,100%,96%,4%,100%,95%,5%,100%,97%,3%,100%,97%,3%,100%,97%,3%,100%,97%,3%,100%,3%,0%,1%
CENTER FOR ACADEMIC SUCCESS #3,919 3RD ST,DOUGLAS,COCHISE,85607,NO,,CHARTER,59,97%,0%,97%,88%,0%,97%,75%,0%,81%,95%,0%,95%,95%,0%,95%,95%,0%,95%,98%,0%,98%,0%,0%,0%
CENTER FOR ACADEMIC SUCCESS #5,900 CARMELITA DR,SIERRA VISTA,COCHISE,85635,NO,,CHARTER,36,94%,6%,100%,92%,6%,97%,92%,6%,97%,94%,6%,100%,94%,6%,100%,94%,6%,100%,94%,6%,100%,6%,0%,6%
CENTER FOR EDUCATIONAL EXCELLENCE,1700 E ELLIOT RD,TEMPE,MARICOPA,85284,NO,,CHARTER,39,95%,5%,100%,95%,5%,100%,95%,5%,100%,95%,5%,100%,95%,5%,100%,95%,5%,100%,95%,5%,100%,0%,0%,5%
CENTERRA MIRAGE ELEMENTARY,15151 WEST CENTERRA DRIVE SOUTH,GOODYEAR,MARICOPA,85338,YES,LPN,PUBLIC,70,97%,1%,100%,96%,1%,100%,94%,3%,100%,97%,1%,100%,99%,0%,100%,99%,0%,100%,99%,1%,100%,4%,1%,1%
CESAR CHAVEZ ELEMENTARY,1130 N 10TH AVE,SAN LUIS,YUMA,85349,YES,LPN,PUBLIC,112,100%,0%,100%,99%,0%,100%,99%,0%,100%,100%,0%,100%,100%,0%,100%,100%,0%,100%,100%,0%,100%,0%,0%,0%
CESAR E CHAVEZ COMMUNITY SCHOOL,4001 S 3RD ST,PHOENIX,MARICOPA,85040,NO,,PUBLIC,63,100%,0%,100%,98%,0%,100%,98%,0%,100%,100%,0%,100%,100%,0%,100%,100%,0%,100%,100%,0%,100%,0%,0%,0%
CHALLENGE CHARTER SCHOOL,5801 W GREENBRIAR DR,GLENDALE,MARICOPA,85308,NO,,CHARTER,42,100%,0%,100%,88%,10%,100%,88%,10%,100%,100%,0%,100%,100%,0%,100%,100%,0%,100%,100%,0%,100%,10%,0%,0%
CHALLENGER BASIC SCHOOL,1315 N GREENFIELD RD,GILBERT,MARICOPA,85234,NO,,CHARTER,< 20 ,N/A,N/A,N/A,N/A,N/A,N/A,N/A,N/A,N/A,N/A,N/A,N/A,N/A,N/A,N/A,N/A,N/A,N/A,N/A,N/A,N/A,N/A,N/A,N/A
CHALLENGER MIDDLE SCHOOL,6905 W MARYLAND AVE,GLENDALE,MARICOPA,85303,YES,LPN,PUBLIC,130,85%,0%,85%,100%,0%,100%,95%,4%,100%,96%,4%,100%,98%,0%,100%,98%,0%,98%,100%,0%,100%,4%,0%,4%
CHAMPION CHANDLER,250 S MCQUEEN RD,CHANDLER,MARICOPA,85225,NO,,CHARTER,64,98%,0%,98%,92%,3%,98%,92%,3%,98%,92%,3%,95%,95%,3%,98%,97%,0%,98%,100%,0%,100%,3%,0%,0%
CHAMPION SCHOOLS,7900 S JESSE OWENS PKWY,PHOENIX,MARICOPA,85042,NO,,CHARTER,67,78%,0%,78%,79%,0%,84%,78%,0%,82%,96%,0%,96%,100%,0%,100%,99%,0%,99%,100%,0%,100%,0%,0%,0%
CHANDLER PREPARATORY ACADEMY,1951 N ALMA SCHOOL RD,CHANDLER,MARICOPA,85224,YES,RN,CHARTER,135,96%,4%,100%,94%,4%,100%,94%,4%,100%,96%,4%,100%,96%,4%,100%,95%,5%,100%,96%,4%,100%,7%,0%,3%
CHANDLER TRADITIONAL ACADEMY - FREEDOM,6040 SOUTH JOSLYN LANE,GILBERT,MARICOPA,85298,NO,,PUBLIC,104,94%,6%,100%,88%,7%,100%,88%,8%,100%,93%,7%,100%,91%,9%,100%,90%,10%,100%,94%,6%,100%,12%,0%,5%
CHANDLER TRADITIONAL ACADEMY - GOODMAN CAMPUS,2600 W KNOX RD,CHANDLER,MARICOPA,85224,NO,,PUBLIC,77,100%,0%,100%,91%,4%,100%,91%,4%,100%,100%,0%,100%,100%,0%,100%,100%,0%,100%,100%,0%,100%,5%,0%,0%
CHANDLER TRADITIONAL ACADEMY - INDEPENDENCE,1405 W LAKE DR,CHANDLER,MARICOPA,85248,NO,,PUBLIC,74,99%,1%,100%,91%,8%,100%,91%,8%,100%,99%,1%,100%,97%,3%,100%,97%,3%,100%,96%,4%,100%,12%,0%,0%
CHANDLER TRADITIONAL ACADEMY - LIBERTY CAMPUS,550 N EMMETT DR,CHANDLER,MARICOPA,85225,NO,,PUBLIC,66,98%,2%,100%,82%,17%,100%,82%,17%,100%,98%,2%,100%,98%,2%,100%,98%,2%,100%,98%,2%,100%,23%,0%,2%
CHANDLER TRADITIONAL JUNIOR HIGH SCHOOL,191 W OAKLAND ST,CHANDLER,MARICOPA,85225,NO,,PUBLIC,137,99%,1%,100%,92%,4%,100%,92%,4%,100%,99%,1%,100%,99%,1%,100%,99%,1%,100%,99%,1%,100%,1%,0%,1%
CHAPARRAL ELEMENTARY SCHOOL,3808 W JOAN DE ARC,PHOENIX,MARICOPA,85029,NO,,PUBLIC,71,97%,3%,100%,96%,4%,100%,94%,6%,100%,96%,4%,100%,97%,3%,100%,99%,1%,100%,97%,3%,100%,8%,8%,1%
CHAPARRAL MIDDLE SCHOOL,3700 E ALVORD RD,TUCSON,PIMA,,YES,RN,PUBLIC,182,99%,0%,99%,99%,0%,99%,98%,0%,98%,100%,0%,100%,100%,0%,100%,99%,0%,99%,99%,0%,99%,0%,0%,0%
CHARLOTTE PATTERSON ELEMENTARY,7520 S ADORA BLVD,GILBERT,MARICOPA,85298,NO,,PUBLIC,149,96%,4%,100%,91%,6%,100%,90%,7%,100%,96%,4%,100%,95%,5%,100%,96%,4%,100%,96%,4%,100%,10%,0%,4%
CHEATHAM ELEMENTARY SCHOOL,4725 W SOUTH MOUNTAIN AVE,LAVEEN,MARICOPA,85339,NO,,PUBLIC,91,98%,2%,100%,93%,2%,100%,93%,2%,100%,98%,2%,100%,98%,2%,100%,99%,1%,100%,99%,1%,100%,2%,0%,1%
CHEYENNE ELEMENTARY SCHOOL,11806 N 87TH AVE,PEORIA,MARICOPA,85345,YES,RN,PUBLIC,85,99%,0%,100%,95%,4%,99%,95%,4%,99%,100%,0%,100%,100%,0%,100%,100%,0%,100%,99%,1%,100%,5%,0%,0%
CHEYENNE TRADITIONAL ELEMENTARY SCHOOL,11130 E CHOLLA ST,SCOTTSDALE,MARICOPA,85260,YES,RN,PUBLIC,107,97%,3%,100%,97%,3%,100%,97%,3%,100%,97%,3%,100%,96%,4%,100%,97%,3%,100%,97%,3%,100%,4%,1%,3%
CHILDREN FIRST ACADEMY - PHOENIX,1648 S 16TH ST,PHOENIX,MARICOPA,85034,NO,,CHARTER,36,100%,0%,100%,97%,0%,97%,97%,0%,97%,100%,0%,100%,100%,0%,100%,100%,0%,100%,100%,0%,100%,0%,0%,0%
CHILDREN REACHING FOR THE SKY PREPARATORY,1844 S ALVERNON WAY,TUCSON,PIMA,85711,NO,,CHARTER,< 20 ,N/A,N/A,N/A,N/A,N/A,N/A,N/A,N/A,N/A,N/A,N/A,N/A,N/A,N/A,N/A,N/A,N/A,N/A,N/A,N/A,N/A,N/A,N/A,N/A
CHRIST LUTHERAN PRESCHOOL,3901 EAST INDIAN SCHOOL ROAD,PHOENIX,MARICOPA,85018,YES,RN,PRIVATE,53,96%,4%,100%,98%,2%,100%,91%,9%,100%,98%,2%,100%,98%,2%,100%,94%,6%,100%,98%,2%,100%,9%,2%,2%
CHRIST LUTHERAN SCHOOL,3901 E INDIAN SCHOOL RD,PHOENIX,MARICOPA,85018,YES,RN,PRIVATE,53,96%,4%,100%,98%,2%,100%,91%,9%,100%,98%,2%,100%,98%,2%,100%,94%,6%,100%,98%,2%,100%,9%,2%,2%
CHRIST THE KING CATHOLIC SCHOOL,1551 E DANA AVE,MESA,MARICOPA,85204,YES,RN,PRIVATE,26,100%,0%,100%,96%,4%,100%,96%,4%,100%,100%,0%,100%,100%,0%,100%,100%,0%,100%,100%,0%,100%,8%,0%,4%
CHRIST'S GREENFIELD LUTHERAN SCHOOL,425 N GREENFIELD RD,GILBERT,MARICOPA,85234,NO,,PRIVATE,27,85%,15%,100%,78%,15%,100%,78%,15%,100%,85%,15%,100%,85%,15%,100%,85%,15%,100%,85%,15%,100%,15%,0%,15%
CIMARRON SPRINGS ELEMENTARY,17032 W SUPRISE FARMS LOOP S,SURPRISE,MARICOPA,85388,YES,LPN,PUBLIC,86,99%,1%,100%,95%,3%,99%,95%,3%,99%,99%,1%,100%,99%,1%,100%,97%,3%,100%,99%,1%,100%,5%,0%,1%
CIRCLE CROSS K-8 STEM ACADEMY,35900 N. CHARBRAY DR,SAN TAN VALLEY,PINAL,85143,NO,,PUBLIC,99,97%,3%,100%,52%,3%,55%,52%,3%,55%,100%,0%,100%,98%,1%,99%,100%,0%,100%,100%,0%,100%,2%,1%,0%
CLARENDON SCHOOL,1225 W CLARENDON AVE,PHOENIX,MARICOPA,85013,NO,,PUBLIC,140,99%,1%,100%,83%,1%,84%,81%,1%,81%,99%,1%,100%,99%,1%,99%,99%,1%,99%,99%,1%,99%,1%,1%,1%
CLOVES C CAMPBELL SR ELEMENTARY SCHOOL,2624 E S MOUNTAIN AVE,PHOENIX,MARICOPA,85042,YES,RN,PUBLIC,66,98%,2%,100%,98%,2%,100%,98%,2%,100%,98%,2%,100%,98%,2%,100%,98%,2%,100%,98%,2%,100%,2%,0%,2%
COATIMUNDI MIDDLE SCHOOL,450 AVENIDA COATIMUNDI,RIO RICO,SANTA CRUZ,85648,YES,RN,PUBLIC,134,100%,0%,100%,96%,0%,96%,96%,0%,96%,100%,0%,100%,100%,0%,100%,100%,0%,100%,100%,0%,100%,4%,4%,1%
COCOPAH MIDDLE SCHOOL,6615 E CHOLLA ST,SCOTTSDALE,MARICOPA,85254,YES,RN,PUBLIC,255,96%,4%,100%,91%,9%,100%,89%,11%,100%,96%,4%,100%,96%,4%,100%,97%,3%,100%,96%,4%,100%,9%,0%,4%
COLLIER ELEMENTARY SCHOOL,350 S 118TH AVE,AVONDALE,MARICOPA,85323,YES,RN,PUBLIC,110,99%,1%,100%,95%,4%,100%,95%,4%,100%,99%,1%,100%,99%,1%,100%,99%,1%,100%,99%,1%,100%,4%,1%,1%
COLONEL SMITH MIDDLE SCHOOL,5651 E SMITH AVE,FORT HUACHUCA,COCHISE,85613,YES,RN,PUBLIC,99,99%,1%,100%,99%,1%,100%,99%,1%,100%,99%,1%,100%,99%,1%,100%,99%,1%,100%,99%,1%,100%,1%,0%,1%
COMBS TRADITIONAL SCHOOL,37327 N GANTZEL RD,SAN TAN VALLEY,PINAL,85240,YES,RN,PUBLIC,34,91%,9%,100%,88%,9%,97%,88%,9%,97%,91%,9%,100%,91%,9%,100%,91%,9%,100%,91%,9%,100%,9%,0%,9%
CONCHO ELEMENTARY SCHOOL,HWY 61 AND CINDER RD,CONCHO,APACHE,85924,NO,,PUBLIC,< 20 ,N/A,N/A,N/A,N/A,N/A,N/A,N/A,N/A,N/A,N/A,N/A,N/A,N/A,N/A,N/A,N/A,N/A,N/A,N/A,N/A,N/A,N/A,N/A,N/A
CONGRESS ELEMENTARY SCHOOL,26400 S TENDERFOOT HILL RD,CONGRESS,YAVAPAI,85332,NO,,PUBLIC,< 20 ,N/A,N/A,N/A,N/A,N/A,N/A,N/A,N/A,N/A,N/A,N/A,N/A,N/A,N/A,N/A,N/A,N/A,N/A,N/A,N/A,N/A,N/A,N/A,N/A
CONSTITUTION ELEMENTARY SCHOOL,18440 N 15TH AVE,PHOENIX,MARICOPA,85023,YES,RN,PUBLIC,66,91%,3%,100%,97%,3%,100%,95%,3%,98%,98%,0%,98%,98%,2%,100%,98%,2%,100%,98%,2%,100%,3%,0%,2%
CONTINENTAL ELEMENTARY SCHOOL,1991 E WHITE HOUSE CANYON RD,GREEN VALLEY,PIMA,85614,YES,RN,PUBLIC,70,99%,1%,100%,96%,0%,100%,94%,1%,100%,99%,1%,100%,99%,1%,100%,99%,1%,100%,100%,0%,100%,3%,0%,0%
COPPER BASIN K-8,28682 N MAIN ST,QUEEN CREEK,PINAL,85143,YES,RN,PUBLIC,76,95%,5%,100%,89%,7%,100%,91%,7%,100%,95%,5%,100%,95%,5%,100%,97%,3%,100%,95%,5%,100%,8%,0%,5%
COPPER CANYON ACADEMY,7785 W PEORIA AVE,PEORIA,MARICOPA,85345,NO,,CHARTER,< 20 ,N/A,N/A,N/A,N/A,N/A,N/A,N/A,N/A,N/A,N/A,N/A,N/A,N/A,N/A,N/A,N/A,N/A,N/A,N/A,N/A,N/A,N/A,N/A,N/A
COPPER CANYON ELEMENTARY SCHOOL,17650 N 54TH ST,SCOTTSDALE,MARICOPA,85254,YES,RN,PUBLIC,85,96%,4%,100%,98%,2%,100%,95%,5%,100%,96%,4%,100%,99%,1%,100%,98%,2%,100%,96%,4%,100%,6%,0%,0%
COPPER CREEK ELEMENTARY,7071 W HILLCREST BLVD,GLENDALE,MARICOPA,85310,YES,RN,PUBLIC,120,96%,4%,100%,91%,9%,100%,91%,9%,100%,96%,4%,100%,96%,4%,100%,97%,3%,100%,97%,3%,100%,9%,0%,3%
COPPER KING ELEMENTARY,10730 W CAMPBELL AVE,PHOENIX,MARICOPA,85037,NO,,PUBLIC,93,99%,1%,100%,96%,3%,100%,97%,2%,100%,99%,1%,100%,99%,1%,100%,99%,1%,100%,99%,1%,100%,3%,0%,1%
COPPER RIDGE ELEMENTARY SCHOOL,10101 E THOMPSON PEAK PKWY,SCOTTSDALE,MARICOPA,85255,YES,RN,PUBLIC,114,98%,2%,100%,93%,7%,100%,92%,8%,100%,95%,5%,100%,96%,4%,100%,98%,2%,100%,98%,2%,100%,6%,2%,2%
COPPER RIM ELEMENTARY SCHOOL,1600 MESQUITE,GLOBE,GILA,85501,YES,RN,PUBLIC,105,96%,4%,100%,96%,4%,100%,97%,3%,100%,97%,3%,100%,97%,3%,100%,97%,3%,100%,97%,3%,100%,4%,0%,3%
COPPER TRAILS ELEMENTARY,16875 WEST CANYON TRAILS BLVD,GOODYEAR,MARICOPA,85338,YES,LPN,PUBLIC,137,99%,1%,100%,91%,5%,99%,88%,9%,97%,99%,1%,100%,99%,1%,100%,100%,0%,100%,100%,0%,100%,8%,1%,0%
COPPERWOOD SCHOOL,11232 N 65TH AVE,GLENDALE,MARICOPA,85304,YES,LPN,PUBLIC,98,100%,0%,100%,80%,0%,80%,80%,0%,80%,100%,0%,100%,100%,0%,100%,100%,0%,100%,100%,0%,100%,0%,0%,0%
CORDOVA ELEMENTARY SCHOOL,5631 N 35TH AVE,PHOENIX,MARICOPA,85017,NO,,PUBLIC,104,100%,0%,100%,96%,2%,100%,96%,2%,100%,100%,0%,100%,100%,0%,100%,100%,0%,100%,100%,0%,100%,2%,0%,0%
CORONA FOOTHILLS MIDDLE SCHOOL,16705 S HOUGHTON RD,VAIL,PIMA,85641,NO,,PUBLIC,185,97%,3%,100%,91%,6%,100%,91%,6%,100%,97%,3%,100%,97%,3%,100%,97%,3%,100%,97%,3%,100%,5%,1%,3%
CORONADO ELEMENTARY SCHOOL,4333 S DE ANZA BLVD,GILBERT,MARICOPA,85297,YES,RN,PUBLIC,110,97%,3%,100%,94%,4%,98%,93%,5%,98%,97%,3%,100%,97%,3%,100%,97%,3%,100%,100%,0%,100%,5%,0%,5%
CORONADO ELEMENTARY SCHOOL,5148 CORONADO SCHOOL DR,SIERRA VISTA,COCHISE,85650,YES,RN,PUBLIC,54,98%,2%,100%,100%,0%,100%,98%,2%,100%,98%,2%,100%,98%,2%,100%,98%,2%,100%,98%,2%,100%,2%,0%,2%
COTTON BOLL SCHOOL,8540 W BUTLER DR,PEORIA,MARICOPA,85345,YES,Both,PUBLIC,107,97%,3%,100%,93%,7%,99%,93%,7%,99%,98%,2%,100%,99%,1%,100%,100%,0%,100%,98%,2%,100%,8%,0%,1%
COTTONWOOD MIDDLE SCHOOL,500 E MINGUS AVE,COTTONWOOD,YAVAPAI,86326,NO,,PUBLIC,131,96%,3%,100%,78%,15%,94%,78%,15%,94%,96%,3%,100%,96%,3%,100%,95%,4%,100%,97%,3%,100%,13%,0%,2%
COUNTRY GARDENS CHARTER SCHOOL,6313 W SOUTHERN AVE,LAVEEN,MARICOPA,85339,NO,,CHARTER,38,97%,3%,100%,92%,3%,97%,92%,3%,97%,97%,3%,100%,97%,3%,100%,97%,3%,100%,97%,3%,100%,3%,0%,3%
COUNTRY MEADOWS ELEMENTARY SCHOOL,8409 N 111 TH AVE,PEORIA,MARICOPA,85345,YES,RN,PUBLIC,145,96%,1%,97%,96%,1%,99%,96%,1%,99%,96%,1%,97%,98%,1%,99%,97%,1%,99%,99%,1%,100%,1%,0%,1%
COUNTRY PLACE ELEMENTARY,10207 W COUNTRY PLACE BLVD,TOLLESON,MARICOPA,85353,YES,RN,PUBLIC,115,100%,0%,100%,100%,0%,100%,98%,0%,100%,100%,0%,100%,100%,0%,100%,100%,0%,100%,100%,0%,100%,1%,0%,1%
COUNTRYSIDE ELEMENTARY,15034 N PARKVIEW PL,SURPRISE,MARICOPA,85379,YES,LPN,PUBLIC,64,100%,0%,100%,97%,0%,100%,97%,0%,100%,100%,0%,100%,100%,0%,100%,100%,0%,100%,100%,0%,100%,0%,0%,0%
COYOTE HILLS ELEMENTARY SCHOOL,21180 N 87TH AVE,PEORIA,MARICOPA,85382,YES,RN,PUBLIC,105,96%,4%,100%,93%,3%,96%,94%,3%,97%,97%,3%,100%,98%,2%,100%,100%,0%,100%,100%,0%,100%,3%,1%,2%
COYOTE RIDGE,7677 W BETHANY HOME RD,GLENDALE,MARICOPA,85303,YES,LPN,PUBLIC,92,100%,0%,100%,96%,0%,96%,96%,0%,96%,100%,0%,100%,100%,0%,100%,100%,0%,100%,100%,0%,100%,0%,0%,0%
COYOTE SPRINGS ELEMENTARY SCHOOL,8101 E HWY 89A,PRESCOTT VALLEY,YAVAPAI,86314,YES,RN,PUBLIC,93,100%,0%,100%,100%,0%,100%,96%,4%,100%,98%,2%,100%,100%,0%,100%,99%,1%,100%,99%,1%,100%,4%,4%,4%
COYOTE TRAIL ELEMENTARY SCHOOL,8000 N SILVERBELL RD,TUCSON,PIMA,85743,NO,,PUBLIC,82,99%,1%,100%,96%,2%,99%,96%,2%,99%,99%,1%,100%,98%,2%,100%,96%,4%,100%,99%,1%,100%,5%,1%,1%
CREIGHTON ELEMENTARY SCHOOL,2802 E MCDOWELL RD,PHOENIX,MARICOPA,85008,YES,LPN,PUBLIC,81,100%,0%,100%,100%,0%,100%,100%,0%,100%,100%,0%,100%,100%,0%,100%,100%,0%,100%,100%,0%,100%,0%,0%,0%
CRISMON ELEMENTARY SCHOOL,825 W MEDINA AVE,MESA,MARICOPA,85210,YES,RN,PUBLIC,92,99%,1%,100%,91%,3%,96%,91%,3%,96%,99%,1%,100%,99%,1%,100%,97%,2%,99%,99%,1%,100%,4%,0%,1%
CROWN CHARTER SCHOOL,12450 W MARYLAND AVE,LITCHFIELD PARK,MARICOPA,85340,NO,,CHARTER,28,100%,0%,100%,100%,0%,100%,100%,0%,100%,100%,0%,100%,100%,0%,100%,100%,0%,100%,100%,0%,100%,0%,0%,0%
CURIEL SCHOOL,1000 N CURIEL ST,ELOY,PINAL,85131,YES,RN,PUBLIC,95,100%,0%,100%,99%,0%,100%,99%,0%,100%,100%,0%,100%,99%,1%,100%,100%,0%,100%,99%,1%,100%,0%,1%,0%
DAVID CROCKETT SCHOOL,501 N 36TH ST,PHOENIX,MARICOPA,85008,YES,LPN,PUBLIC,56,100%,0%,100%,95%,0%,95%,93%,0%,93%,100%,0%,100%,100%,0%,100%,100%,0%,100%,100%,0%,100%,0%,0%,0%
DEGRAZIA ELEMENTARY SCHOOL,5051 W OVERTON RD,TUCSON,PIMA,85742,NO,,PUBLIC,86,95%,2%,98%,85%,0%,85%,85%,0%,85%,95%,1%,97%,97%,1%,98%,98%,1%,99%,95%,2%,98%,2%,0%,0%
DENNEHOTSO BOARDING SCHOOL,EAST HWY. 160,DENNEHOTSO,APACHE,86535,NO,,PUBLIC,21,100%,0%,100%,100%,0%,100%,100%,0%,100%,100%,0%,100%,100%,0%,100%,100%,0%,100%,100%,0%,100%,100%,0%,0%
DESERT CANYON ELEMENTARY,10203 E MCDOWELL MOUNTAIN RANCH RD,SCOTTSDALE,MARICOPA,,YES,RN,CHARTER,177,94%,6%,100%,92%,7%,100%,92%,7%,100%,95%,5%,100%,95%,5%,100%,94%,5%,100%,96%,4%,100%,10%,0%,10%
DESERT CANYON MIDDLE SCHOOL,10203 E MCDOWELL MOUNTAIN RANCH RD,SCOTTSDALE,MARICOPA,85255,YES,RN,PUBLIC,177,94%,6%,100%,92%,7%,100%,92%,7%,100%,95%,5%,100%,95%,5%,100%,94%,5%,100%,96%,4%,100%,10%,0%,10%
DESERT CHRISTIAN PRE-SCHOOL,9415 E WRIGHTSTOWN ROAD,TUCSON,PIMA,85715,NO,,PRIVATE,37,100%,0%,100%,95%,5%,100%,95%,5%,100%,97%,3%,100%,100%,0%,100%,97%,3%,100%,100%,0%,100%,5%,0%,0%
DESERT COVE ELEMENTARY SCHOOL,11020 N 28TH ST,PHOENIX,MARICOPA,85028,NO,,CHARTER,77,97%,3%,100%,92%,3%,96%,91%,3%,95%,97%,3%,100%,97%,3%,100%,97%,3%,100%,97%,3%,100%,3%,3%,3%
DESERT HEIGHTS PREPARATORY ACADEMY,16635 N 51ST AVE,GLENDALE,MARICOPA,85308,NO,,CHARTER,57,91%,9%,100%,91%,9%,100%,91%,9%,100%,91%,9%,100%,91%,9%,100%,91%,9%,100%,91%,9%,100%,9%,0%,9%
DESERT HORIZON ELEMENTARY SCHOOL,8525 W OSBORN RD,PHOENIX,MARICOPA,85037,NO,,PUBLIC,110,99%,1%,100%,99%,1%,100%,99%,1%,100%,99%,1%,100%,99%,1%,100%,99%,1%,100%,99%,1%,100%,1%,0%,1%
DESERT MARIGOLD SCHOOL,6210 S 28TH ST,PHOENIX,MARICOPA,85042,NO,,CHARTER,28,71%,29%,100%,25%,61%,89%,36%,50%,89%,61%,39%,100%,64%,36%,100%,64%,36%,100%,68%,32%,100%,61%,0%,25%
DESERT MEADOWS ELEMENTARY SCHOOL,6855 W MEADOWS LOOP E,LAVEEN,MARICOPA,85339,NO,,PUBLIC,96,97%,3%,100%,93%,3%,100%,97%,2%,100%,97%,3%,100%,97%,3%,100%,94%,3%,97%,98%,2%,100%,3%,0%,3%
DESERT MIRAGE ELEMENTARY SCHOOL,8605 W MARYLAND AVE,GLENDALE,MARICOPA,85305,NO,,PUBLIC,87,99%,1%,100%,98%,1%,99%,98%,1%,99%,99%,1%,100%,99%,1%,100%,99%,1%,100%,99%,1%,100%,1%,0%,0%
DESERT MOUNTAIN SCHOOL,35959 NORTH 7TH AVENUE,PHOENIX,MARICOPA,85086,YES,RN,PUBLIC,85,89%,11%,100%,86%,14%,100%,87%,13%,100%,93%,7%,100%,92%,8%,100%,93%,7%,100%,94%,6%,100%,16%,0%,6%
DESERT OASIS ELEMENTARY SCHOOL,17161 W BAJADA RD,SURPRISE,MARICOPA,85387,YES,RN,PUBLIC,50,96%,4%,100%,94%,4%,98%,94%,4%,98%,96%,4%,100%,96%,4%,100%,100%,0%,100%,100%,0%,100%,4%,0%,0%
DESERT OASIS ELEMENTARY SCHOOL,8802 W MCDOWELL RD,PHOENIX,MARICOPA,85037,NO,,PUBLIC,92,100%,0%,100%,98%,1%,99%,98%,1%,99%,100%,0%,100%,100%,0%,100%,100%,0%,100%,100%,0%,100%,1%,0%,1%
DESERT PALMS ELEMENTARY SCHOOL,11441 N 55TH AVE,GLENDALE,MARICOPA,85304,YES,LPN,PUBLIC,63,100%,0%,100%,76%,2%,78%,78%,2%,79%,98%,2%,100%,100%,0%,100%,100%,0%,100%,100%,0%,100%,2%,0%,0%
DESERT SAGE ELEMENTARY SCHOOL,4035 W ALAMEDA,GLENDALE,MARICOPA,85310,YES,RN,PUBLIC,74,95%,5%,100%,92%,8%,100%,92%,8%,100%,95%,5%,100%,93%,7%,100%,96%,4%,100%,97%,3%,100%,8%,0%,3%
DESERT SANDS MIDDLE SCHOOL,6308 W CAMPBELL AVE,PHOENIX,MARICOPA,85033,YES,RN,PUBLIC,338,99%,1%,100%,97%,0%,98%,97%,0%,98%,99%,1%,100%,99%,1%,100%,99%,1%,100%,99%,1%,100%,1%,1%,0%
DESERT SHADOWS ELEMENTARY SCHOOL,5902 E SWEETWATER AVE,SCOTTSDALE,MARICOPA,85254,NO,,PUBLIC,66,88%,8%,100%,91%,8%,98%,88%,8%,95%,92%,8%,100%,91%,8%,100%,92%,6%,100%,92%,8%,100%,8%,0%,8%
DESERT SHADOWS MIDDLE SCHOOL,340 BLVD DEL REY DAVID,NOGALES,SANTA CRUZ,85621,YES,RN,PUBLIC,243,100%,0%,100%,99%,0%,100%,99%,0%,100%,100%,0%,100%,100%,0%,100%,99%,1%,100%,100%,0%,100%,1%,0%,0%
DESERT SKY MIDDLE SCHOOL,9850 E RANKIN LOOP,TUCSON,PIMA,85747,NO,,PUBLIC,247,98%,2%,100%,96%,3%,100%,96%,3%,100%,98%,2%,100%,98%,2%,100%,98%,2%,100%,98%,2%,100%,2%,0%,2%
DESERT SPIRIT,7355 W ORANGEWOOD AVE,GLENDALE,MARICOPA,85303,YES,LPN,PUBLIC,107,98%,0%,100%,99%,1%,100%,95%,0%,100%,98%,0%,100%,100%,0%,100%,97%,1%,100%,100%,0%,100%,1%,0%,0%
DESERT SPRINGS PREPARATORY ELEMENTARY SCHOOL,6010 E ACOMA DR,SCOTTSDALE,MARICOPA,85254,YES,RN,PUBLIC,66,91%,9%,100%,83%,12%,98%,80%,14%,98%,89%,11%,100%,89%,11%,100%,92%,8%,100%,94%,6%,100%,14%,2%,12%
DESERT STAR COMMUNITY SCHOOL,1240 S RECYLER RD,CORNVILLE,YAVAPAI,,NO,,CHARTER,23,61%,39%,100%,61%,39%,100%,0%,39%,39%,61%,39%,100%,61%,39%,100%,57%,39%,96%,61%,39%,100%,39%,39%,39%
DESERT STAR SCHOOL,2131 S 157TH AVE,GOODYEAR,MARICOPA,85338,YES,RN,PUBLIC,91,98%,2%,100%,92%,4%,99%,93%,3%,99%,98%,2%,100%,98%,2%,100%,98%,2%,100%,98%,2%,100%,4%,0%,2%
DESERT SUN ELEMENTARY SCHOOL,27880 N 64TH ST,SCOTTSDALE,MARICOPA,85266,NO,,PUBLIC,55,98%,2%,100%,84%,5%,93%,87%,5%,93%,96%,4%,100%,95%,5%,100%,96%,4%,100%,95%,5%,100%,7%,0%,2%
DESERT THUNDER SCHOOL,16750 W GARFIELD ST,GOODYEAR,MARICOPA,85338,NO,,PUBLIC,84,99%,0%,100%,88%,7%,100%,88%,7%,100%,100%,0%,100%,100%,0%,100%,100%,0%,100%,100%,0%,100%,7%,0%,0%
DESERT TRAILS ELEMENTARY SCHOOL,4315 E CASHMAN DR,PHOENIX,MARICOPA,85050,YES,RN,PUBLIC,95,95%,5%,100%,88%,5%,100%,88%,5%,100%,95%,5%,100%,94%,6%,100%,98%,2%,100%,100%,0%,100%,6%,2%,5%
DESERT VALLEY ELEMENTARY SCHOOL,12901 N 63RD AVE,GLENDALE,MARICOPA,85304,YES,RN,PUBLIC,77,96%,4%,100%,82%,5%,87%,81%,6%,87%,95%,5%,100%,95%,5%,100%,96%,4%,100%,95%,5%,100%,5%,0%,4%
DESERT VIEW ELEMENTARY,1508 N 10TH AVE,SAN LUIS,YUMA,85349,YES,LPN,PUBLIC,115,100%,0%,100%,98%,2%,100%,98%,2%,100%,99%,1%,100%,99%,1%,100%,100%,0%,100%,100%,0%,100%,2%,0%,2%
DESERT VISTA ELEMENTARY SCHOOL,3701 E BROADWAY AVE,APACHE JUNCTION,PINAL,85119,YES,LPN,PUBLIC,102,98%,2%,100%,95%,5%,100%,95%,5%,100%,97%,2%,100%,97%,2%,100%,97%,2%,100%,98%,2%,100%,6%,0%,2%
DESERT WILLOW ELEMENTARY SCHOOL,4322 E DESERT WILLOW PKWY,CAVE CREEK,MARICOPA,85331,NO,,PUBLIC,117,96%,4%,100%,91%,6%,100%,91%,9%,100%,95%,5%,100%,95%,5%,100%,95%,5%,100%,95%,5%,100%,10%,1%,4%
DESTINY SCHOOL,22 PRICKLY PEAR DR,GLOBE,GILA,85501,NO,,CHARTER,29,100%,0%,100%,100%,0%,100%,100%,0%,100%,100%,0%,100%,100%,0%,100%,100%,0%,100%,100%,0%,100%,0%,0%,0%
DIETZ K-8 SCHOOL,7575 E PALMA ST,TUCSON,PIMA,85710,YES,RN,PUBLIC,50,100%,0%,100%,94%,2%,96%,94%,2%,96%,100%,0%,100%,100%,0%,100%,100%,0%,100%,100%,0%,100%,2%,0%,0%
DILCON COMMUNITY SCHOOL,,DILKON,NAVAJO,,NO,,PRIVATE,< 20 ,N/A,N/A,N/A,N/A,N/A,N/A,N/A,N/A,N/A,N/A,N/A,N/A,N/A,N/A,N/A,N/A,N/A,N/A,N/A,N/A,N/A,N/A,N/A,N/A
DILWORTH BRINTON ELEMENTARY,11455 E SUNLAND AVE,MESA,MARICOPA,85208,YES,RN,PUBLIC,84,100%,0%,100%,100%,0%,100%,99%,1%,100%,100%,0%,100%,100%,0%,100%,100%,0%,100%,100%,0%,100%,2%,0%,0%
DISCOVERY SCHOOL,7910 W MARYLAND AVE,GLENDALE,MARICOPA,85303,YES,RN,PUBLIC,93,99%,1%,100%,94%,5%,100%,95%,4%,100%,100%,0%,100%,100%,0%,100%,99%,1%,100%,100%,0%,100%,4%,1%,0%
DISHCHII'BIKOH COMMUNITY SCHOOL,PO BOX 80068,CIBECUE,NAVAJO,85911,YES,RN,PRIVATE,45,100%,0%,100%,100%,0%,100%,100%,0%,100%,100%,0%,100%,100%,0%,100%,100%,0%,100%,100%,0%,100%,0%,0%,0%
DOBSON ACADEMY A-BALL CHARTER SCHOOL,2207 N DOBSON RD,CHANDLER,MARICOPA,85224,NO,,CHARTER,40,98%,3%,100%,53%,30%,88%,50%,30%,85%,98%,3%,100%,90%,10%,100%,98%,3%,100%,93%,8%,100%,30%,0%,3%
DODGE TRADITIONAL MAGNET MIDDLE SCHOOL,5831 E PIMA ST,TUCSON,PIMA,85712,YES,RN,PUBLIC,147,99%,1%,100%,95%,1%,96%,94%,1%,96%,99%,1%,99%,99%,1%,99%,99%,1%,100%,99%,1%,100%,1%,0%,1%
DON MENSENDICK SCHOOL,5535 N. 67TH AVE,GLENDALE,MARICOPA,85301,YES,LPN,PUBLIC,182,99%,1%,100%,99%,1%,100%,99%,1%,100%,99%,1%,100%,100%,0%,100%,99%,1%,100%,100%,0%,100%,1%,0%,0%
DOOLEN MIDDLE SCHOOL,2400 N COUNTRY CLUB RD,TUCSON,PIMA,85716,YES,RN,PUBLIC,256,93%,2%,95%,91%,2%,95%,86%,2%,89%,98%,1%,99%,99%,1%,100%,98%,1%,100%,99%,1%,100%,3%,2%,1%
DOROTHY STINSON SCHOOL,2013 S 8TH AVE,SAFFORD,GRAHAM,85546,YES,RN,PUBLIC,77,99%,1%,100%,96%,4%,100%,96%,4%,100%,99%,1%,100%,99%,1%,100%,100%,0%,100%,100%,0%,100%,4%,0%,0%
DOS RIOS ELEMENTARY,2150 S 87TH AVE,TOLLESON,MARICOPA,85353,NO,,PUBLIC,93,99%,1%,100%,97%,2%,100%,97%,2%,100%,98%,2%,100%,99%,1%,100%,99%,1%,100%,100%,0%,100%,2%,0%,2%
DR. GARY AND ANNETTE AUXIER ELEMENTARY SCHOOL,22700 S POWER RD,QUEEN CREEK,MARICOPA,85142,NO,,PUBLIC,116,96%,4%,100%,82%,13%,100%,83%,14%,100%,95%,5%,100%,95%,5%,100%,96%,4%,100%,95%,5%,100%,10%,0%,3%
DRACHMAN PRIMARY MAGNET SCHOOL,1085 S 10TH AVE,TUCSON,PIMA,85701,YES,RN,PUBLIC,24,100%,0%,100%,100%,0%,100%,100%,0%,100%,100%,0%,100%,100%,0%,100%,100%,0%,100%,100%,0%,100%,0%,0%,0%
DREXEL ELEMENTARY SCHOOL,801 E DREXEL RD,TUCSON,PIMA,85706,YES,RN,PUBLIC,79,100%,0%,100%,100%,0%,100%,100%,0%,100%,100%,0%,100%,100%,0%,100%,100%,0%,100%,100%,0%,100%,0%,0%,0%
DUNCAN ELEMENTARY SCHOOL,MCGRATH AVE,DUNCAN,GREENLEE,85534,NO,,PUBLIC,< 20 ,N/A,N/A,N/A,N/A,N/A,N/A,N/A,N/A,N/A,N/A,N/A,N/A,N/A,N/A,N/A,N/A,N/A,N/A,N/A,N/A,N/A,N/A,N/A,N/A
DWIGHT PATTERSON ELEMENTARY,615 S CHESHIRE,MESA,MARICOPA,85208,YES,RN,PUBLIC,95,99%,1%,100%,97%,0%,100%,95%,0%,95%,99%,0%,99%,99%,0%,99%,99%,0%,99%,100%,0%,100%,1%,0%,1%
DYSART ELEMENTARY SCHOOL,12950 W VARNEY RD,EL MIRAGE,MARICOPA,85335,YES,LPN,PUBLIC,128,98%,2%,100%,93%,2%,100%,96%,2%,100%,98%,2%,100%,98%,2%,100%,98%,2%,100%,98%,2%,100%,2%,0%,2%
EAGLE COLLEGE PREP,2450 W SOUTH MOUNTAIN AVE,PHOENIX,MARICOPA,85041,NO,,CHARTER,79,86%,14%,100%,82%,14%,100%,38%,16%,57%,94%,6%,100%,90%,9%,99%,92%,8%,100%,91%,9%,100%,16%,0%,6%
EAGLE COLLEGE PREP - MARYVALE,3950 N 53RD AVE,PHOENIX,MARICOPA,85031,NO,,CHARTER,43,100%,0%,100%,98%,0%,100%,98%,0%,100%,100%,0%,100%,100%,0%,100%,100%,0%,100%,100%,0%,100%,0%,2%,0%
EAGLE COLLEGE PREP - MESA,1619 E MAIN ST,MESA,MARICOPA,85203,NO,,CHARTER,< 20 ,N/A,N/A,N/A,N/A,N/A,N/A,N/A,N/A,N/A,N/A,N/A,N/A,N/A,N/A,N/A,N/A,N/A,N/A,N/A,N/A,N/A,N/A,N/A,N/A
EAGLE COLLEGE PREP HARMONY,2435 E PECAN RD,PHOENIX,MARICOPA,85040,NO,,CHARTER,< 20 ,N/A,N/A,N/A,N/A,N/A,N/A,N/A,N/A,N/A,N/A,N/A,N/A,N/A,N/A,N/A,N/A,N/A,N/A,N/A,N/A,N/A,N/A,N/A,N/A
EAGLE RIDGE ELEMENTARY SCHOOL,19801 N 13TH ST,PHOENIX,MARICOPA,85024,YES,RN,PUBLIC,68,100%,0%,100%,99%,1%,100%,94%,4%,99%,100%,0%,100%,100%,0%,100%,100%,0%,100%,100%,0%,100%,4%,0%,0%
EAGLERIDGE ENRICHMENT PROGRAM,737 W GUADALUPE,MESA,MARICOPA,,YES,RN,PUBLIC,73,85%,15%,100%,67%,30%,100%,55%,45%,100%,82%,18%,100%,79%,21%,100%,85%,15%,100%,100%,0%,100%,40%,8%,15%
EAST FORK LUTHERAN GRADE SCHOOL,4325 FORT APACHE RD,WHITERIVER,NAVAJO,85941,NO,,PRIVATE,< 20 ,N/A,N/A,N/A,N/A,N/A,N/A,N/A,N/A,N/A,N/A,N/A,N/A,N/A,N/A,N/A,N/A,N/A,N/A,N/A,N/A,N/A,N/A,N/A,N/A
ECHO MOUNTAIN INTERMEDIATE SCHOOL,1811 E MICHIGAN AVE,PHOENIX,MARICOPA,85022,YES,RN,PUBLIC,145,99%,1%,100%,92%,7%,100%,91%,8%,100%,99%,1%,100%,99%,1%,100%,98%,2%,100%,99%,1%,100%,8%,0%,1%
ED & VERMA PASTOR ELEMENTARY SCHOOL,2101 W ALTA VISTA RD,PHOENIX,MARICOPA,85041,YES,LPN,PUBLIC,63,98%,2%,100%,98%,2%,100%,98%,2%,100%,98%,2%,100%,98%,2%,100%,98%,2%,100%,98%,2%,100%,2%,0%,2%
ED PASTOR ELEMENTARY 4,985 N 6TH AVE,SAN LUIS,YUMA,85349,YES,LPN,PUBLIC,73,100%,0%,100%,100%,0%,100%,100%,0%,100%,100%,0%,100%,100%,0%,100%,100%,0%,100%,100%,0%,100%,0%,0%,0%
EDISON ELEMENTARY SCHOOL,545 N HORNE,MESA,MARICOPA,85203,YES,RN,PUBLIC,95,99%,0%,100%,100%,0%,100%,96%,2%,100%,99%,1%,100%,98%,2%,100%,99%,1%,100%,100%,0%,100%,6%,2%,0%
EDUPRIZE SCHOOL,4567 W ROBERTS RD,QUEEN CREEK,PINAL,85142,YES,RN,CHARTER,210,99%,1%,100%,94%,6%,100%,93%,6%,100%,98%,2%,100%,98%,2%,100%,99%,1%,100%,99%,1%,100%,7%,0%,1%
EISENHOWER ELEMENTARY SCHOOL,848 N MESA DR,MESA,MARICOPA,85201,YES,RN,PUBLIC,78,99%,1%,100%,97%,0%,100%,97%,0%,100%,100%,0%,100%,100%,0%,100%,100%,0%,100%,100%,0%,100%,0%,0%,0%
EL MIRAGE ELEMENTARY SCHOOL,12308 W THUNDERBIRD RD,EL MIRAGE,MARICOPA,85335,YES,LPN,PUBLIC,81,100%,0%,100%,99%,1%,100%,98%,2%,100%,100%,0%,100%,100%,0%,100%,99%,1%,100%,100%,0%,100%,4%,0%,0%
ELFRIDA ELEMENTARY SCHOOL,4070 W JEFFERSON RD,ELFRIDA,COCHISE,85610,NO,,PUBLIC,< 20 ,N/A,N/A,N/A,N/A,N/A,N/A,N/A,N/A,N/A,N/A,N/A,N/A,N/A,N/A,N/A,N/A,N/A,N/A,N/A,N/A,N/A,N/A,N/A,N/A
ELGIN ELEMENTARY SCHOOL,293 UPPER ELGIN RD,ELGIN,SANTA CRUZ,85611,YES,RN,PUBLIC,< 20 ,N/A,N/A,N/A,N/A,N/A,N/A,N/A,N/A,N/A,N/A,N/A,N/A,N/A,N/A,N/A,N/A,N/A,N/A,N/A,N/A,N/A,N/A,N/A,N/A
ELLSWORTH ELEMENTARY,38454 N CAROLINA AVE,QUEEN CREEK,PINAL,85140,NO,,PUBLIC,110,95%,5%,100%,77%,12%,92%,71%,12%,85%,95%,5%,100%,94%,6%,100%,94%,6%,100%,95%,5%,100%,15%,0%,5%
ELVIRA ELEMENTARY SCHOOL,250 W ELVIRA RD,TUCSON,PIMA,85756,YES,RN,PUBLIC,97,100%,0%,100%,100%,0%,100%,100%,0%,100%,100%,0%,100%,100%,0%,100%,100%,0%,100%,100%,0%,100%,0%,0%,0%
EMERSON ELEMENTARY SCHOOL,415 N WESTWOOD RD,MESA,MARICOPA,85201,YES,RN,PUBLIC,134,98%,2%,100%,95%,4%,100%,94%,5%,100%,98%,2%,100%,98%,2%,100%,97%,3%,100%,99%,1%,100%,6%,1%,2%
EMMANUEL CHRISTIAN ACADEMY,3120 HUALAPAI MOUNTAIN RD,KINGMAN,MOHAVE,86401,YES,LPN,PRIVATE,< 20 ,N/A,N/A,N/A,N/A,N/A,N/A,N/A,N/A,N/A,N/A,N/A,N/A,N/A,N/A,N/A,N/A,N/A,N/A,N/A,N/A,N/A,N/A,N/A,N/A
EMPOWER COLLEGE PREP,5757 N CENTRAL AVE,PHOENIX,MARICOPA,85012,NO,,CHARTER,87,93%,0%,93%,99%,0%,100%,9%,0%,11%,94%,0%,94%,92%,0%,92%,95%,0%,95%,97%,0%,97%,0%,0%,0%
ENTZ ELEMENTARY SCHOOL,4132 E ADOBE ST,MESA,MARICOPA,85205,YES,RN,PUBLIC,105,95%,5%,100%,95%,3%,100%,90%,8%,100%,96%,4%,100%,96%,4%,100%,98%,2%,100%,100%,0%,100%,9%,3%,2%
ESMOND STATION SCHOOL,9400 S ATTERBURY WASH WAY,TUCSON,PIMA,85747,NO,,PUBLIC,78,96%,4%,100%,95%,5%,100%,95%,5%,100%,97%,3%,100%,97%,3%,100%,97%,3%,100%,97%,3%,100%,3%,0%,3%
ESPERANZA ELEMENTARY SCHOOL,251 W MOHAWK LN,PHOENIX,MARICOPA,85027,YES,LPN,PUBLIC,69,99%,1%,100%,93%,7%,100%,93%,7%,100%,99%,1%,100%,99%,1%,100%,97%,3%,100%,99%,1%,100%,9%,0%,7%
ESPERANZA ELEMENTARY SCHOOL,2353 E BANTAM,TUCSON,PIMA,85706,YES,RN,PUBLIC,84,100%,0%,100%,99%,0%,100%,99%,0%,100%,100%,0%,100%,100%,0%,100%,100%,0%,100%,100%,0%,100%,0%,0%,0%
ESPERERO CANYON MIDDLE SCHOOL,5801 N SABINO CANYON RD,TUCSON,PIMA,85750,YES,RN,PUBLIC,207,99%,1%,100%,93%,6%,100%,92%,7%,100%,98%,2%,100%,99%,1%,100%,99%,1%,100%,98%,1%,100%,7%,0%,1%
ESTRELLA MIDDLE SCHOOL,3733 N 75TH AVE,PHOENIX,MARICOPA,85033,NO,,PUBLIC,406,99%,1%,100%,96%,1%,99%,95%,2%,99%,100%,0%,100%,100%,0%,100%,100%,0%,100%,99%,1%,100%,2%,0%,0%
ESTRELLA MOUNTAIN ELEMENTARY SCHOOL,10301 S SAN MIGUEL,GOODYEAR,MARICOPA,85338,NO,,PUBLIC,80,98%,3%,100%,95%,5%,100%,93%,8%,100%,98%,3%,100%,96%,4%,100%,98%,3%,100%,98%,3%,100%,6%,5%,3%
ESTRELLA VISTA ELEMENTARY,11905 W COCOPAH CIR,AVONDALE,MARICOPA,85323,NO,,PUBLIC,109,99%,1%,100%,98%,0%,100%,96%,2%,100%,99%,1%,100%,99%,1%,100%,99%,1%,100%,99%,1%,100%,2%,0%,1%
ETHOS ACADEMY,8840 N. 43RD AVE,GLENDALE,MARICOPA,85302,NO,,CHARTER,23,100%,0%,100%,52%,0%,52%,35%,0%,35%,100%,0%,100%,96%,0%,96%,100%,0%,100%,96%,0%,96%,0%,0%,0%
EXCELENCIA SCHOOL,2181 E MCDOWELL RD,PHOENIX,MARICOPA,85006,YES,LPN,PUBLIC,91,100%,0%,100%,99%,0%,100%,99%,0%,100%,100%,0%,100%,100%,0%,100%,100%,0%,100%,100%,0%,100%,0%,0%,0%
FAIRBANKS MIDDLE SCHOOL,1056 FAIRBANKS RD,MORENCI,GREENLEE,85540,NO,,PUBLIC,98,99%,0%,100%,98%,0%,100%,98%,0%,100%,99%,0%,100%,100%,0%,100%,99%,0%,100%,100%,0%,100%,0%,0%,0%
FAITH COMMUNITY ACADEMY,2551 W ORANGE GROVE,TUCSON,PIMA,,NO,,PRIVATE,< 20 ,N/A,N/A,N/A,N/A,N/A,N/A,N/A,N/A,N/A,N/A,N/A,N/A,N/A,N/A,N/A,N/A,N/A,N/A,N/A,N/A,N/A,N/A,N/A,N/A
FALCON HILL ELEMENTARY SCHOOL,1645 N STERLING ST,MESA,MARICOPA,85207,YES,RN,PUBLIC,77,97%,3%,100%,94%,5%,100%,94%,5%,100%,97%,3%,100%,95%,5%,100%,97%,3%,100%,97%,3%,100%,9%,0%,3%
FEES MIDDLE SCHOOL,1600 E WATSON DR,TEMPE,MARICOPA,85283,YES,RN,PUBLIC,303,99%,1%,99%,95%,2%,99%,95%,2%,99%,99%,1%,100%,100%,0%,100%,99%,1%,100%,99%,1%,100%,2%,0%,1%
FESTIVAL FOOTHILLS ELEMENTARY SCHOOL,26252 W DESERT VISTA BLVD,BUCKEYE,MARICOPA,85396,NO,,PUBLIC,36,89%,8%,100%,83%,14%,100%,83%,14%,100%,92%,8%,100%,92%,8%,100%,94%,6%,100%,89%,11%,100%,14%,0%,3%
FIELD ELEMENTARY SCHOOL,2325 E ADOBE ST,MESA,MARICOPA,85213,YES,RN,PUBLIC,100,100%,0%,100%,92%,7%,100%,92%,7%,100%,100%,0%,100%,100%,0%,100%,99%,1%,100%,100%,0%,100%,8%,0%,8%
FINE ARTS ACADEMY,1700 S. 103RD AVE,TOLLESON,MARICOPA,85353,YES,LPN,PUBLIC,80,93%,8%,100%,93%,8%,100%,93%,8%,100%,93%,8%,100%,93%,8%,100%,93%,8%,100%,93%,8%,100%,8%,8%,8%
FINLEY FARMS ELEMENTARY,375 S COLUMBUS DR,GILBERT,MARICOPA,85296,YES,RN,PUBLIC,92,98%,2%,100%,90%,3%,99%,91%,7%,99%,98%,2%,100%,97%,3%,100%,98%,2%,100%,98%,1%,99%,9%,0%,0%
FIRST AVENUE ELEMENTARY SCHOOL,914 N FIRST AVE,SAN MANUEL,PINAL,85631,NO,,PUBLIC,49,98%,2%,100%,96%,4%,100%,96%,4%,100%,98%,2%,100%,98%,2%,100%,98%,2%,100%,98%,2%,100%,4%,0%,2%
FIRST BAPTIST CHRISTIAN ACADEMY,1447 S 7TH ST,SIERRA VISTA,COCHISE,85635,NO,,PRIVATE,< 20 ,N/A,N/A,N/A,N/A,N/A,N/A,N/A,N/A,N/A,N/A,N/A,N/A,N/A,N/A,N/A,N/A,N/A,N/A,N/A,N/A,N/A,N/A,N/A,N/A
FIRST MESA ELEMENTARY SCHOOL,,POLACCA,NAVAJO,,YES,Both,PRIVATE,24,100%,0%,100%,83%,0%,88%,83%,0%,88%,100%,0%,100%,100%,0%,100%,96%,0%,96%,100%,0%,100%,0%,0%,0%
FLAGSTAFF JUNIOR ACADEMY ELEMENTARY CAMPUS,306 W CEDAR AVE,FLAGSTAFF,COCONINO,,NO,,PUBLIC,46,87%,13%,100%,87%,13%,100%,80%,20%,100%,83%,17%,100%,80%,20%,100%,83%,17%,100%,83%,17%,100%,24%,13%,13%
FLORENCE K-8,460 S PARK ST,FLORENCE,PINAL,85232,YES,RN,PUBLIC,86,97%,3%,100%,65%,7%,73%,65%,7%,73%,95%,5%,100%,97%,3%,100%,97%,3%,100%,99%,1%,100%,8%,0%,7%
FOOTHILLS ACADEMY COLLEGE PREPARATORY,7191 E ASHLER HILLS DR,SCOTTSDALE,MARICOPA,85266,NO,,CHARTER,21,86%,14%,100%,76%,24%,100%,76%,24%,100%,86%,14%,100%,86%,14%,100%,86%,14%,100%,86%,14%,100%,24%,0%,14%
FOOTHILLS ELEMENTARY SCHOOL,15808 N 63RD AVE,GLENDALE,MARICOPA,85306,YES,RN,PUBLIC,84,95%,5%,100%,95%,4%,99%,93%,5%,98%,95%,5%,100%,95%,5%,100%,95%,5%,100%,94%,6%,100%,6%,6%,5%
FORT THOMAS ELEMENTARY SCHOOL,15560 W ELEMENTARY RD,FORT THOMAS,GRAHAM,85536,YES,RN,PUBLIC,40,100%,0%,100%,98%,0%,98%,98%,0%,98%,100%,0%,100%,100%,0%,100%,100%,0%,100%,100%,0%,100%,0%,0%,0%
FOUNTAIN HILLS MIDDLE SCHOOL,15414 N MCDOWELL MOUNTAIN RD,FOUNTAIN HILLS,MARICOPA,85268,NO,,PUBLIC,112,97%,3%,100%,94%,6%,100%,93%,7%,100%,97%,3%,100%,96%,4%,100%,97%,3%,100%,97%,3%,100%,8%,0%,3%
FOUR PEAKS ELEMENTARY SCHOOL,1755 N IDAHO RD,APACHE JUNCTION,PINAL,85219,YES,RN,PUBLIC,113,98%,2%,100%,96%,4%,100%,96%,4%,100%,98%,2%,100%,97%,3%,100%,98%,2%,100%,98%,2%,100%,4%,0%,2%
FOURTH AVENUE JUNIOR HIGH SCHOOL,450 4TH AVE,YUMA,YUMA,85364,NO,,PUBLIC,113,96%,2%,100%,97%,2%,100%,95%,2%,98%,97%,2%,100%,97%,2%,100%,97%,2%,100%,98%,2%,100%,2%,0%,2%
FOX CREEK JR HIGH SCHOOL,3101 DESERT SKY BLVD,BULLHEAD CITY,MOHAVE,86442,YES,RN,PUBLIC,167,99%,1%,100%,90%,4%,95%,89%,4%,95%,99%,1%,100%,96%,4%,100%,99%,1%,100%,99%,1%,100%,4%,0%,4%
FRANK BORMAN MIDDLE SCHOOL,3637 N 55TH AVE,PHOENIX,MARICOPA,85031,NO,,PUBLIC,143,100%,0%,100%,97%,0%,100%,97%,0%,100%,100%,0%,100%,100%,0%,100%,100%,0%,100%,100%,0%,100%,0%,0%,0%
FRANKLIN AT ALMA ELEMENTARY,1313 W MEDINA AVE,MESA,MARICOPA,85202,YES,RN,PUBLIC,31,100%,0%,100%,90%,10%,100%,90%,10%,100%,100%,0%,100%,100%,0%,100%,100%,0%,100%,100%,0%,100%,10%,0%,0%
FRANKLIN AT BRIMHALL ELEMENTARY SCHOOL,4949 E SOUTHERN RD,MESA,MARICOPA,,YES,RN,PUBLIC,113,93%,7%,100%,88%,12%,100%,86%,14%,100%,89%,11%,100%,100%,0%,100%,100%,0%,100%,100%,0%,100%,15%,0%,5%
FRANKLIN ELEMENTARY SCHOOL,1753 E 8TH AVE,MESA,MARICOPA,85204,NO,,PUBLIC,97,95%,5%,100%,93%,6%,100%,93%,6%,100%,96%,4%,100%,96%,4%,100%,96%,4%,100%,93%,7%,100%,8%,0%,3%
FRANKLIN PHONETIC PRIMARY SCHOOL,6116 E HIGHWAY 69,PRESCOTT VALLEY,YAVAPAI,86314,NO,,CHARTER,49,86%,10%,96%,53%,4%,80%,31%,6%,67%,76%,8%,86%,76%,8%,94%,84%,10%,94%,82%,6%,88%,0%,0%,6%
FRANKLIN WEST ELEMENTARY,236 S SIRRINE,MESA,MARICOPA,85210,YES,RN,PUBLIC,73,92%,0%,100%,82%,18%,100%,81%,19%,100%,92%,8%,100%,92%,8%,100%,96%,4%,100%,100%,0%,100%,16%,1%,7%
FREDONIA ELEMENTARY SCHOOL,222 N 200 EAST,FREDONIA,COCONINO,86022,NO,,PUBLIC,< 20 ,N/A,N/A,N/A,N/A,N/A,N/A,N/A,N/A,N/A,N/A,N/A,N/A,N/A,N/A,N/A,N/A,N/A,N/A,N/A,N/A,N/A,N/A,N/A,N/A
FREEDOM ACADEMY,3916 EAST PARADISE LANE,PHOENIX,MARICOPA,85032,NO,,CHARTER,44,89%,11%,100%,84%,16%,100%,84%,16%,100%,89%,11%,100%,89%,11%,100%,89%,11%,100%,89%,11%,100%,18%,0%,11%
FREEDOM ELEMENTARY SCHOOL,22150 W. SUNDANCE PKWY S,BUCKEYE,MARICOPA,85326,YES,LPN,PUBLIC,78,100%,0%,100%,97%,1%,100%,97%,1%,99%,99%,0%,99%,97%,0%,97%,97%,1%,99%,99%,0%,99%,3%,3%,0%
FRIENDLY HOUSE ACADEMIA DEL PUEBLO ELEMENTARY SCHOOL,201 E DURANGO ST,PHOENIX,MARICOPA,85004,NO,,CHARTER,45,100%,0%,100%,80%,0%,82%,71%,0%,73%,100%,0%,100%,100%,0%,100%,100%,0%,100%,100%,0%,100%,0%,0%,0%
FRONTIER ELEMENTARY SCHOOL,21258 N 81ST AVE,PEORIA,MARICOPA,85382,YES,RN,PUBLIC,112,97%,3%,100%,91%,8%,100%,90%,9%,100%,98%,2%,100%,96%,4%,100%,99%,1%,100%,98%,2%,100%,13%,1%,1%
FRYE ELEMENTARY SCHOOL,801 E FRYE RD,CHANDLER,MARICOPA,85225,NO,,PUBLIC,76,99%,1%,100%,92%,4%,100%,92%,4%,100%,99%,1%,100%,99%,1%,100%,97%,3%,100%,99%,1%,100%,1%,1%,1%
G.P.S. - GREENFIELD ELEMENTARY,2550 EAST ELLIOT ROAD,GILBERT,MARICOPA,85234,YES,RN,PUBLIC,151,97%,3%,100%,96%,2%,98%,95%,3%,98%,98%,2%,100%,97%,3%,100%,95%,5%,100%,98%,2%,100%,5%,0%,1%
G.P.S. - HIGHLAND PARK ELEMENTARY,230 NORTH COLE DRIVE,GILBERT,MARICOPA,85234,YES,RN,PUBLIC,121,96%,3%,99%,92%,4%,99%,90%,6%,99%,96%,3%,99%,96%,3%,99%,98%,2%,99%,98%,2%,99%,7%,0%,0%
G.P.S. - OAK TREE ELEMENTARY,505 WEST HOUSTON AVENUE,GILBERT,MARICOPA,85296,YES,RN,PUBLIC,77,97%,3%,100%,92%,0%,100%,92%,0%,100%,97%,3%,100%,95%,5%,100%,97%,3%,100%,99%,1%,100%,4%,0%,0%
G.P.S. - QUARTZ HILL ELEMENTARY,3680 SOUTH QUARTZ HILL,GILBERT,MARICOPA,85296,YES,Both,PUBLIC,113,93%,7%,100%,87%,9%,99%,88%,9%,99%,93%,7%,100%,93%,7%,100%,94%,6%,100%,93%,7%,100%,12%,0%,7%
G.P.S. - TOWNE MEADOWS ELEMENTARY,1101 NORTH RECKER ROAD,HIGLEY,MARICOPA,85236,YES,RN,PUBLIC,139,99%,1%,100%,93%,4%,99%,93%,5%,99%,99%,1%,100%,99%,1%,100%,99%,1%,100%,96%,4%,100%,7%,7%,1%
GADSDEN ELEMENTARY SCHOOL,18745 GADSDEN ST,GADSDEN,YUMA,85349,NO,,PUBLIC,86,100%,0%,100%,95%,0%,100%,95%,0%,100%,100%,0%,100%,100%,0%,100%,100%,0%,100%,100%,0%,100%,0%,0%,0%
GALVESTON ELEMENTARY SCHOOL,661 E GALVESTON ST,CHANDLER,MARICOPA,85225,NO,,PUBLIC,80,100%,0%,100%,95%,1%,100%,95%,1%,100%,100%,0%,100%,100%,0%,100%,100%,0%,100%,100%,0%,100%,1%,0%,0%
GANADO MIDDLE SCHOOL,HWY 264,GANADO,APACHE,86505,NO,,PUBLIC,108,100%,0%,100%,95%,0%,96%,95%,0%,96%,100%,0%,100%,100%,0%,100%,100%,0%,100%,100%,0%,100%,0%,0%,0%
GARDEN LAKES ELEMENTARY SCHOOL,10825 W GARDEN LAKES PKWY,AVONDALE,MARICOPA,85392,YES,LPN,PUBLIC,106,94%,6%,100%,94%,6%,100%,92%,8%,100%,96%,4%,100%,96%,4%,100%,98%,2%,100%,100%,0%,100%,7%,2%,4%
GARY A KNOX ELEMENTARY,2926 S 21ST DR,YUMA,YUMA,85364,NO,,PUBLIC,87,100%,0%,100%,97%,1%,99%,97%,1%,99%,100%,0%,100%,100%,0%,100%,100%,0%,100%,100%,0%,100%,1%,0%,1%
GATEWAY POINTE ELEMENTARY,2069 S DELATORRE DR,HIGLEY,MARICOPA,85236,NO,,PUBLIC,129,96%,2%,100%,88%,6%,96%,85%,8%,96%,96%,2%,100%,97%,3%,100%,98%,2%,100%,98%,2%,100%,6%,2%,6%
GATEWAY POLYTECHNIC ACADEMY,5149 S SIGNAL BUTTE RD,MESA,MARICOPA,85212,NO,,PUBLIC,91,98%,2%,100%,99%,1%,100%,96%,3%,99%,99%,1%,100%,99%,1%,100%,99%,1%,100%,99%,1%,100%,4%,0%,1%
GATEWAY SCHOOL,1100 N 35TH ST,PHOENIX,MARICOPA,85008,YES,RN,PUBLIC,75,100%,0%,100%,99%,0%,100%,99%,0%,100%,100%,0%,100%,100%,0%,100%,100%,0%,100%,100%,0%,100%,0%,0%,0%
GAVILAN PEAK ELEMENTARY,2701 W MEMORIAL DR,ANTHEM,MARICOPA,85086,YES,RN,PUBLIC,79,96%,4%,100%,96%,4%,100%,94%,4%,97%,95%,4%,99%,94%,4%,97%,99%,0%,99%,97%,3%,100%,5%,3%,3%
GEORGE WASHINGTON ACADEMY,1945 S 1ST EAST,SNOWFLAKE,NAVAJO,,NO,,CHARTER,< 20 ,N/A,N/A,N/A,N/A,N/A,N/A,N/A,N/A,N/A,N/A,N/A,N/A,N/A,N/A,N/A,N/A,N/A,N/A,N/A,N/A,N/A,N/A,N/A,N/A
GEORGE WASHINGTON CARVER ELEMENTARY SCHOOL,1341 5TH ST,YUMA,YUMA,85364,YES,RN,PUBLIC,69,100%,0%,100%,97%,0%,100%,67%,0%,67%,100%,0%,100%,100%,0%,100%,99%,0%,100%,100%,0%,100%,0%,0%,0%
GILA CROSSING COMMUNITY SCHOOL,4408 W PECOS RD,LAVEEN,MARICOPA,85339,YES,RN,PUBLIC,59,100%,0%,100%,97%,0%,100%,97%,0%,100%,100%,0%,100%,100%,0%,100%,100%,0%,100%,100%,0%,100%,0%,0%,0%
GILA VISTA JR HIGH SCHOOL,2245 ARIZONA AVE,YUMA,YUMA,85364,NO,,PUBLIC,155,99%,1%,100%,96%,1%,99%,95%,1%,99%,99%,1%,100%,99%,1%,100%,99%,1%,100%,97%,3%,100%,1%,0%,1%
GILBERT ARTS ACADEMY,862 E ELLIOT RD,GILBERT,MARICOPA,85234,NO,,CHARTER,< 20 ,N/A,N/A,N/A,N/A,N/A,N/A,N/A,N/A,N/A,N/A,N/A,N/A,N/A,N/A,N/A,N/A,N/A,N/A,N/A,N/A,N/A,N/A,N/A,N/A
GILBERT CHRISTIAN ELEMENTARY & MIDDLE SCHOOL,1424 S PROMENADE LN,GILBERT,MARICOPA,85296,NO,,PRIVATE,60,92%,8%,100%,92%,8%,100%,85%,15%,100%,87%,13%,100%,88%,12%,100%,90%,10%,100%,90%,10%,100%,17%,0%,8%
GILBERT CHRISTIAN SCHOOLS - GREENFIELD,4341 S. GREENFIELD RD,GILBERT,MARICOPA,85297,NO,,PRIVATE,< 20 ,N/A,N/A,N/A,N/A,N/A,N/A,N/A,N/A,N/A,N/A,N/A,N/A,N/A,N/A,N/A,N/A,N/A,N/A,N/A,N/A,N/A,N/A,N/A,N/A
GILBERT ELEMENTARY SCHOOL,175 W ELLIOT RD,GILBERT,MARICOPA,85233,YES,RN,PUBLIC,73,96%,4%,100%,96%,0%,99%,95%,3%,99%,96%,4%,100%,96%,4%,100%,96%,4%,100%,97%,3%,100%,8%,0%,3%
GILILLAND MIDDLE SCHOOL,1025 S BECK AVE,TEMPE,MARICOPA,85281,YES,RN,PUBLIC,322,99%,0%,100%,95%,2%,100%,95%,2%,100%,100%,0%,100%,100%,0%,100%,100%,0%,100%,99%,1%,100%,2%,0%,0%
GLADDEN FARMS ELEMENTARY SCHOOL,11745 W GLADDEN FARMS DR.,MARANA,PIMA,85653,YES,RN,PUBLIC,88,99%,1%,100%,98%,2%,100%,97%,2%,99%,99%,1%,100%,98%,2%,100%,99%,1%,100%,99%,1%,100%,1%,0%,1%
GLENDALE AMERICAN SCHOOL,8530 N 55TH AVE,GLENDALE,MARICOPA,85302,NO,,PUBLIC,70,97%,0%,97%,90%,0%,90%,90%,0%,90%,99%,0%,99%,97%,0%,97%,96%,0%,96%,99%,0%,99%,6%,0%,0%
GLENDALE LANDMARK MIDDLE SCHOOL,5730 W MYRTLE AVE,GLENDALE,MARICOPA,85301,YES,LPN,PUBLIC,91,100%,0%,100%,99%,0%,100%,99%,0%,100%,100%,0%,100%,100%,0%,100%,100%,0%,100%,100%,0%,100%,0%,0%,0%
GLENDALE PREPARATORY ACADEMY,23276 N. 83RD AVE,PEORIA,MARICOPA,85383,YES,Both,CHARTER,101,97%,3%,100%,91%,8%,100%,91%,8%,100%,97%,3%,100%,96%,4%,100%,95%,5%,100%,96%,4%,100%,11%,1%,3%
GLENN F BURTON SCHOOL,4801 W MARYLAND AVE,GLENDALE,MARICOPA,85301,YES,LPN,PUBLIC,90,97%,0%,97%,99%,0%,99%,99%,0%,99%,99%,0%,99%,99%,0%,99%,99%,0%,99%,99%,0%,99%,0%,0%,0%
GLENN L DOWNS SCHOOL,3611 N 47TH AVE,PHOENIX,MARICOPA,85031,YES,RN,PUBLIC,90,99%,1%,100%,94%,1%,96%,94%,1%,96%,99%,1%,100%,99%,1%,100%,99%,1%,100%,99%,1%,100%,1%,0%,1%
GLENVIEW ADVENTIST SCHOOL,6801 N 43RD AVE,PHOENIX,MARICOPA,85019,YES,RN,PRIVATE,< 20 ,N/A,N/A,N/A,N/A,N/A,N/A,N/A,N/A,N/A,N/A,N/A,N/A,N/A,N/A,N/A,N/A,N/A,N/A,N/A,N/A,N/A,N/A,N/A,N/A
GOWAN SCIENCE ACADEMY,1590 S AVENUE C,YUMA,YUMA,85364,NO,,PUBLIC,60,100%,0%,100%,95%,0%,100%,95%,0%,100%,100%,0%,100%,100%,0%,100%,100%,0%,100%,100%,0%,100%,0%,0%,0%
GRACE CHRISTIAN ACADEMY,1200 EAST SOUTHERN AVENUE,TEMPE,MARICOPA,85282,YES,RN,PRIVATE,< 20 ,N/A,N/A,N/A,N/A,N/A,N/A,N/A,N/A,N/A,N/A,N/A,N/A,N/A,N/A,N/A,N/A,N/A,N/A,N/A,N/A,N/A,N/A,N/A,N/A
GRANADA EAST SCHOOL,3022 W CAMPBELL AVE,PHOENIX,MARICOPA,85017,YES,LPN,PUBLIC,241,100%,0%,100%,95%,0%,97%,94%,0%,96%,100%,0%,100%,100%,0%,100%,99%,0%,100%,99%,0%,100%,0%,0%,0%
GRAND CANYON ELEMENTARY,1 BOULDER ST,GRAND CANYON,COCONINO,86023,NO,,PUBLIC,24,96%,0%,96%,96%,0%,96%,96%,0%,100%,88%,0%,88%,96%,0%,96%,88%,0%,88%,100%,0%,100%,0%,0%,0%
GRANDE INNOVATION ACADEMY,950 N. PEART RD,CASA GRANDE,PINAL,85122,NO,,CHARTER,52,96%,4%,100%,69%,0%,73%,65%,4%,73%,94%,4%,98%,94%,4%,98%,96%,4%,100%,94%,0%,94%,4%,0%,4%
GRANITE MOUNTAIN MIDDLE SCHOOL,1800 WILLIAMSON VALLEY RD,PRESCOTT,YAVAPAI,,YES,RN,PUBLIC,289,97%,3%,100%,91%,9%,100%,90%,9%,100%,96%,4%,100%,96%,4%,100%,96%,4%,100%,97%,3%,100%,8%,0%,3%
GRANVILLE ELEMENTARY,5350 STOVER DR,PRESCOTT VALLEY,YAVAPAI,86314,NO,,PUBLIC,89,98%,2%,100%,79%,4%,84%,79%,4%,84%,98%,2%,100%,97%,3%,100%,98%,2%,100%,96%,4%,100%,3%,2%,2%
GRAYHAWK ELEMENTARY SCHOOL,7525 E GRAYHAWK DR,SCOTTSDALE,MARICOPA,85255,YES,RN,PUBLIC,90,96%,4%,100%,88%,2%,98%,86%,4%,98%,98%,2%,100%,98%,2%,100%,99%,0%,99%,98%,2%,100%,3%,1%,0%
GREAT EXPECTATIONS ACADEMY,1466 W CAMINO ANTIGUA,SAHUARITA,PIMA,85629,NO,,CHARTER,37,92%,8%,100%,73%,11%,89%,73%,11%,89%,92%,8%,100%,92%,8%,100%,92%,8%,100%,92%,8%,100%,11%,0%,8%
GREAT HEART ACADEMIES - CENTRAL SCOTTSDALE PREPARATORY,7205 N PIMA RD,SCOTTSDALE,MARICOPA,85258,YES,RN,CHARTER,139,95%,5%,100%,88%,9%,100%,89%,9%,100%,93%,7%,100%,94%,6%,100%,93%,7%,100%,95%,5%,100%,9%,2%,5%
GREAT HEART ACADEMIES ARCHWAY LINCOLN,2250 S GILBERT RD,CHANDLER,MARICOPA,,NO,,CHARTER,116,94%,3%,97%,91%,6%,100%,86%,11%,100%,93%,7%,100%,94%,6%,100%,92%,8%,100%,94%,6%,100%,11%,1%,3%
GREAT HEARTS ACADEMIES - ARETE PREPARATORY ACADEMY,4525 E BASELINE RD,MESA,MARICOPA,85234,YES,RN,CHARTER,99,94%,6%,100%,83%,13%,100%,80%,16%,100%,92%,8%,100%,91%,9%,100%,94%,6%,100%,93%,7%,100%,17%,0%,4%
GREAT HEARTS ACADEMY - CICERO PREPARATORY ACADEMY,7205 N PIMA RD,SCOTTSDALE,MARICOPA,85250,YES,RN,CHARTER,101,97%,3%,100%,91%,3%,97%,89%,5%,97%,97%,3%,100%,96%,4%,100%,95%,5%,100%,97%,3%,100%,6%,0%,3%
GREENBRIER ELEMENTARY SCHOOL,6150 W GREENBRIER DR,GLENDALE,MARICOPA,85308,YES,LPN,PUBLIC,48,92%,8%,100%,90%,10%,100%,90%,10%,100%,94%,6%,100%,96%,4%,100%,92%,8%,100%,94%,6%,100%,13%,0%,13%
GRIFFITH ELEMENTARY SCHOOL,4505 E PALM LN,PHOENIX,MARICOPA,85008,NO,,PUBLIC,59,98%,2%,100%,86%,0%,90%,85%,2%,90%,98%,2%,100%,98%,2%,100%,98%,2%,100%,97%,3%,100%,3%,3%,3%
H L SUVERKRUP ELEMENTARY SCHOOL,1590 S AVENUE C,YUMA,YUMA,85364,NO,,PUBLIC,60,100%,0%,100%,100%,0%,100%,100%,0%,100%,100%,0%,100%,100%,0%,100%,100%,0%,100%,100%,0%,100%,0%,0%,0%
H.U.S.D. - CHAPARRAL ELEMENTARY,3380 EAST FRYE ROAD,GILBERT,MARICOPA,85295,NO,,PUBLIC,135,99%,1%,100%,92%,7%,100%,92%,7%,100%,98%,2%,100%,97%,3%,100%,99%,1%,100%,98%,2%,100%,7%,0%,1%
H.U.S.D. - CORTINA ELEMENTARY SCHOOL,19680 SOUTH 188TH STREET,QUEEN CREEK,MARICOPA,85142,NO,,PUBLIC,146,97%,3%,100%,94%,5%,99%,92%,6%,99%,97%,3%,100%,97%,3%,100%,98%,2%,100%,98%,2%,100%,7%,0%,2%
H.U.S.D. - HIGLEY TRADITIONAL ACADEMY,3391 EAST VEST AVENUE,GILBERT,MARICOPA,85295,NO,,PUBLIC,88,99%,1%,100%,93%,3%,100%,93%,3%,100%,98%,1%,100%,98%,2%,100%,99%,1%,100%,99%,1%,100%,3%,3%,1%
H.U.S.D. - SAN TAN ELEMENTARY SCHOOL,3443 EAST GALISTOGA DRIVE,GILBERT,MARICOPA,85297,NO,,PUBLIC,116,99%,1%,100%,98%,1%,100%,98%,1%,100%,99%,1%,100%,99%,1%,100%,99%,1%,100%,99%,1%,100%,2%,0%,1%
HALE ELEMENTARY SCHOOL,1425 N 23RD ST,MESA,MARICOPA,85213,YES,RN,PUBLIC,82,99%,1%,100%,95%,2%,100%,95%,2%,100%,98%,2%,100%,98%,2%,100%,98%,1%,100%,99%,1%,100%,2%,0%,1%
HALEY ELEMENTARY,3401 S LAYTON LAKES,CHANDLER,MARICOPA,85286,NO,,PUBLIC,125,95%,5%,100%,91%,6%,100%,90%,7%,100%,95%,5%,100%,95%,5%,100%,94%,6%,100%,94%,6%,100%,9%,0%,2%
HAPPY VALLEY SCHOOL,7140 W HAPPY VALLEY RD,PEORIA,MARICOPA,,YES,LPN,CHARTER,50,98%,2%,100%,92%,6%,100%,92%,6%,100%,98%,2%,100%,94%,6%,100%,96%,4%,100%,98%,2%,100%,6%,4%,2%
HAPPY VALLEY SCHOOL - EAST CAMPUS,"22721 S ELLSWORTH RD, STE 103",QUEEN CREEK,PINAL,85140,NO,,CHARTER,45,96%,4%,100%,93%,4%,100%,91%,7%,100%,96%,4%,100%,93%,7%,100%,96%,4%,100%,96%,4%,100%,9%,0%,4%
HAROLD W SMITH SCHOOL,6534 N 63RD AVE,GLENDALE,MARICOPA,85301,YES,LPN,PUBLIC,102,96%,0%,96%,100%,0%,100%,95%,0%,100%,98%,0%,98%,100%,0%,100%,99%,0%,99%,100%,0%,100%,0%,0%,0%
HARRIS ELEMENTARY SCHOOL,1820 S HARRIS DR,MESA,MARICOPA,85204,YES,RN,PUBLIC,64,97%,2%,100%,98%,2%,100%,97%,2%,98%,98%,2%,100%,100%,0%,100%,98%,2%,100%,100%,0%,100%,5%,0%,0%
HARTFORD SYLVIA ENCINAS ELEMENTARY SCHOOL,700 N HARTFORD ST,CHANDLER,MARICOPA,85225,NO,,PUBLIC,87,100%,0%,100%,97%,2%,100%,97%,2%,100%,99%,1%,100%,100%,0%,100%,98%,1%,100%,100%,0%,100%,5%,1%,0%
HARVEST PREPARATORY ACADEMY,350 E 18TH ST,YUMA,YUMA,85364,NO,,CHARTER,83,100%,0%,100%,100%,0%,100%,100%,0%,100%,100%,0%,100%,100%,0%,100%,100%,0%,100%,100%,0%,100%,0%,0%,0%
HARVEST PREPARATORY ACADEMY - GOODYEAR,14900 W VAN BUREN ST,GOODYEAR,MARICOPA,85338,NO,,CHARTER,31,94%,6%,100%,94%,6%,100%,94%,6%,100%,94%,6%,100%,94%,6%,100%,94%,6%,100%,94%,6%,100%,6%,0%,6%
"HARVEST PREPARATORY ACADEMY, SAN LUIS",1044 N 10TH AVE,SAN LUIS,YUMA,85349,NO,,CHARTER,69,100%,0%,100%,97%,0%,100%,97%,0%,100%,100%,0%,100%,100%,0%,100%,100%,0%,100%,100%,0%,100%,0%,0%,0%
HAVASU PREPARATORY ACADEMY PUBLIC CHARTER,3155 MARICOPA AVE,LAKE HAVASU CITY,MOHAVE,86406,NO,,CHARTER,33,100%,0%,100%,94%,3%,100%,94%,3%,100%,100%,0%,100%,100%,0%,100%,100%,0%,100%,97%,0%,97%,3%,0%,0%
HAVASUPAI ELEMENTARY SCHOOL,880 CASHMERE DR,LAKE HAVASU CITY,MOHAVE,86404,YES,RN,PUBLIC,56,100%,0%,100%,100%,0%,100%,100%,0%,100%,100%,0%,100%,100%,0%,100%,100%,0%,100%,100%,0%,100%,0%,0%,0%
HAWTHORNE ELEMENTARY SCHOOL,630 N HUNT DR,MESA,MARICOPA,85203,YES,RN,PUBLIC,56,98%,2%,100%,98%,2%,100%,96%,2%,100%,98%,2%,100%,98%,2%,100%,98%,2%,100%,100%,0%,100%,2%,0%,0%
HEARN ACADEMY,17606 NORTH 7TH AVENUE,PHOENIX,MARICOPA,85023,YES,RN,CHARTER,70,97%,3%,100%,97%,3%,100%,96%,3%,100%,96%,4%,100%,96%,4%,100%,100%,0%,100%,97%,3%,100%,7%,0%,3%
HEARTLAND RANCH ELEMENTARY SCHOOL,1667 W CAROLINE ST,COOLIDGE,PINAL,85128,YES,RN,PUBLIC,86,99%,1%,100%,94%,3%,100%,97%,3%,100%,100%,0%,100%,100%,0%,100%,100%,0%,100%,98%,2%,100%,2%,1%,0%
HERITAGE ELEMENTARY - WILLIAMS,790 E RODEO RD,WILLIAMS,COCONINO,86046,NO,,CHARTER,< 20 ,N/A,N/A,N/A,N/A,N/A,N/A,N/A,N/A,N/A,N/A,N/A,N/A,N/A,N/A,N/A,N/A,N/A,N/A,N/A,N/A,N/A,N/A,N/A,N/A
HERITAGE ELEMENTARY SCHOOL - EAST CAMPUS,6805 N 125TH AVE,GLENDALE,MARICOPA,85307,NO,,CHARTER,108,97%,2%,100%,95%,1%,97%,94%,1%,95%,97%,1%,100%,97%,1%,100%,95%,1%,100%,94%,1%,95%,1%,0%,1%
HERITAGE MIDDLE SCHOOL,1076 N RD 1 W,CHINO VALLEY,YAVAPAI,86323,YES,RN,PUBLIC,178,95%,5%,100%,75%,24%,100%,74%,25%,100%,91%,9%,100%,91%,9%,100%,93%,7%,100%,94%,6%,100%,25%,0%,2%
HERITAGE SCHOOL,5312 W MOUNTAIN VIEW RD,GLENDALE,MARICOPA,85302,YES,LPN,PUBLIC,77,96%,3%,99%,95%,3%,97%,94%,3%,96%,96%,3%,99%,96%,3%,99%,95%,5%,100%,97%,3%,100%,5%,0%,3%
HERMOSA MONTESSORI SCHOOL,12051 EAST FORT LOWELL,TUCSON,PIMA,85749,NO,,CHARTER,< 20 ,N/A,N/A,N/A,N/A,N/A,N/A,N/A,N/A,N/A,N/A,N/A,N/A,N/A,N/A,N/A,N/A,N/A,N/A,N/A,N/A,N/A,N/A,N/A,N/A
HERMOSA VISTA ELEMENTARY SCHOOL,2626 N 24TH ST,MESA,MARICOPA,85213,YES,RN,PUBLIC,92,98%,2%,100%,91%,8%,100%,91%,9%,100%,98%,2%,100%,98%,2%,100%,97%,3%,100%,97%,3%,100%,11%,0%,2%
HIDDEN HILLS ELEMENTARY SCHOOL,1919 E SHARON DR,PHOENIX,MARICOPA,85022,YES,RN,PUBLIC,73,97%,1%,100%,96%,4%,100%,96%,4%,100%,99%,1%,100%,99%,1%,100%,97%,3%,100%,99%,1%,100%,5%,0%,5%
HIGHLAND ELEMENTARY SCHOOL,3042 E ADOBE ST,MESA,MARICOPA,85213,YES,RN,PUBLIC,105,97%,3%,100%,93%,7%,100%,93%,7%,100%,96%,4%,100%,97%,3%,100%,96%,4%,100%,100%,0%,100%,10%,1%,2%
HIGHLAND LAKES SCHOOL,19000 N 63RD AVE,GLENDALE,MARICOPA,85308,YES,RN,PUBLIC,124,93%,7%,100%,90%,10%,100%,90%,10%,100%,93%,7%,100%,92%,8%,100%,94%,6%,100%,95%,5%,100%,9%,0%,5%
HOHOKAM ELEMENTARY SCHOOL,8451 E OAK ST,SCOTTSDALE,MARICOPA,85257,YES,RN,PUBLIC,44,100%,0%,100%,82%,0%,84%,80%,0%,82%,100%,0%,100%,100%,0%,100%,100%,0%,100%,100%,0%,100%,0%,0%,0%
HOLBROOK JUNIOR HIGH SCHOOL,412 W BUFFALO ST,HOLBROOK,NAVAJO,86025,YES,RN,PUBLIC,112,99%,1%,100%,99%,1%,100%,99%,1%,100%,99%,1%,100%,100%,0%,100%,100%,0%,100%,100%,0%,100%,1%,1%,1%
HOLLINGER ELEMENTARY SCHOOL,150 W AJO WAY,TUCSON,PIMA,85713,YES,RN,PUBLIC,67,100%,0%,100%,96%,0%,96%,96%,0%,96%,100%,0%,100%,100%,0%,100%,100%,0%,100%,100%,0%,100%,0%,0%,0%
HOLMES ELEMENTARY SCHOOL,948 S HORNE,MESA,MARICOPA,85204,YES,RN,PUBLIC,100,100%,0%,100%,97%,0%,97%,96%,0%,96%,100%,0%,100%,99%,0%,99%,100%,0%,100%,99%,0%,99%,0%,0%,0%
HOMER DAVIS ELEMENTARY SCHOOL,4250 N ROMERO RD,TUCSON,PIMA,85705,NO,,PUBLIC,71,94%,6%,100%,77%,6%,85%,79%,6%,86%,94%,6%,100%,94%,6%,100%,94%,6%,100%,94%,6%,100%,6%,0%,6%
HOPE CHRISTIAN ACADEMY,1125 N DOBSON RD,CHANDLER,MARICOPA,85224,NO,,PRIVATE,< 20 ,N/A,N/A,N/A,N/A,N/A,N/A,N/A,N/A,N/A,N/A,N/A,N/A,N/A,N/A,N/A,N/A,N/A,N/A,N/A,N/A,N/A,N/A,N/A,N/A
HORIZON COMMUNITY LEARNING CENTER,16233 S 48TH ST,PHOENIX,MARICOPA,,NO,,CHARTER,127,98%,2%,100%,92%,6%,100%,91%,7%,100%,98%,2%,100%,95%,5%,100%,97%,3%,100%,96%,4%,100%,10%,0%,2%
HORIZON SCHOOL,8520 N 47TH AVE,GLENDALE,MARICOPA,85302,YES,RN,PUBLIC,107,94%,6%,100%,90%,10%,100%,89%,11%,100%,93%,7%,100%,93%,7%,100%,94%,6%,100%,100%,0%,100%,13%,0%,6%
HOUSTON ELEMENTARY SCHOOL,500 E HUSTON AVE,GILBERT,MARICOPA,85234,YES,RN,PUBLIC,57,98%,2%,100%,98%,2%,100%,98%,2%,100%,98%,2%,100%,98%,2%,100%,98%,2%,100%,98%,2%,100%,2%,0%,2%
HUACHUCA CITY ELEMENTARY SCHOOL,100 SCHOOL DR,HUACHUCA CITY,COCHISE,85616,NO,,PUBLIC,40,98%,3%,100%,98%,3%,100%,98%,3%,100%,98%,3%,100%,98%,3%,100%,98%,3%,100%,98%,3%,100%,5%,0%,3%
HUACHUCA MOUNTAIN ELEMENTARY SCHOOL,3228 SAINT ANDREWS DR,SIERRA VISTA,COCHISE,85650,YES,RN,PUBLIC,85,100%,0%,100%,94%,2%,98%,94%,2%,98%,100%,0%,100%,99%,1%,100%,100%,0%,100%,99%,1%,100%,2%,0%,2%
HUMBOLDT ELEMENTARY SCHOOL,2750 S CORRAL ST,HUMBOLT,YAVAPAI,86329,YES,RN,PUBLIC,56,98%,2%,100%,95%,4%,98%,95%,4%,98%,98%,2%,100%,98%,2%,100%,96%,2%,98%,98%,2%,100%,2%,2%,2%
HURLEY RANCH ELEMENTARY,8950 W ILLINI ST,TOLLESON,MARICOPA,,NO,,PUBLIC,142,98%,2%,100%,98%,2%,100%,99%,1%,100%,100%,0%,100%,100%,0%,100%,99%,1%,100%,100%,0%,100%,2%,0%,0%
IGNACIO CONCHOS ELEMENTARY SCHOOL,1718 W. VINEYARD RD,PHOENIX,MARICOPA,85041,YES,LPN,PUBLIC,45,100%,0%,100%,100%,0%,100%,100%,0%,100%,100%,0%,100%,100%,0%,100%,100%,0%,100%,100%,0%,100%,0%,0%,0%
IMAGINE CHARTER ELEMENTARY SCHOOL AT WEST GILBERT,2061 SOUTH GILBERT ROAD,GILBERT,MARICOPA,85295,NO,,CHARTER,32,94%,6%,100%,72%,6%,78%,72%,6%,78%,94%,6%,100%,94%,6%,100%,94%,6%,100%,94%,6%,100%,0%,0%,6%
IMAGINE CHARTER SCHOOL AT BELL CANYON,18052 N BLACK CANYON HWY,PHOENIX,MARICOPA,85053,NO,,CHARTER,30,100%,0%,100%,100%,0%,100%,100%,0%,100%,100%,0%,100%,100%,0%,100%,100%,0%,100%,100%,0%,100%,0%,0%,0%
IMAGINE ELEMENTARY @ TEMPE,1538 EAST SOUTHERN AVENUE,TEMPE,MARICOPA,85282,NO,,CHARTER,< 20 ,N/A,N/A,N/A,N/A,N/A,N/A,N/A,N/A,N/A,N/A,N/A,N/A,N/A,N/A,N/A,N/A,N/A,N/A,N/A,N/A,N/A,N/A,N/A,N/A
IMAGINE ELEMENTARY AT AVONDALE,950 N ELISIO C FELIX JR WAY,AVONDALE,MARICOPA,85053,NO,,CHARTER,82,91%,9%,100%,89%,9%,98%,89%,9%,98%,91%,9%,100%,91%,9%,100%,91%,9%,100%,91%,9%,100%,9%,0%,9%
IMAGINE MIDDLE AT COOLIDGE,1290 W VAH KI INN RD,COOLIDGE,PINAL,,NO,,CHARTER,122,84%,2%,100%,67%,3%,70%,70%,4%,75%,84%,2%,87%,84%,2%,87%,96%,4%,100%,93%,3%,97%,7%,7%,4%
IMAGINE MIDDLE AT DESERT WEST,6738 W MCDOWELL RD,PHOENIX,MARICOPA,,NO,,CHARTER,141,99%,1%,100%,99%,1%,100%,99%,0%,100%,99%,1%,100%,99%,1%,100%,99%,1%,100%,99%,1%,100%,1%,0%,0%
IMAGINE MIDDLE AT SUPERSTITION,1843 W 16TH AVE,APACHE JUNCTION,PINAL,85120,NO,,CHARTER,37,97%,3%,100%,97%,3%,100%,92%,3%,100%,97%,3%,100%,97%,3%,100%,97%,3%,100%,97%,3%,100%,3%,0%,3%
IMAGINE MIDDLE SCHOOL AT CORTEZ PARK,3535 W DUNLAP AVE,PHOENIX,MARICOPA,85051,NO,,CHARTER,94,99%,1%,100%,96%,1%,100%,96%,1%,100%,99%,1%,100%,99%,1%,100%,99%,1%,100%,99%,1%,100%,1%,0%,1%
IMAGINE MIDDLE SCHOOL AT SURPRISE,14850 N 156TH AVE,SURPRISE,MARICOPA,85379,NO,,CHARTER,129,80%,4%,84%,80%,4%,84%,80%,4%,84%,96%,4%,100%,96%,4%,100%,96%,4%,100%,96%,4%,100%,4%,0%,4%
IMAGO DEI MIDDLE SCHOOL,55 N 6TH AVE,TUCSON,PIMA,85701,NO,,PRIVATE,< 20 ,N/A,N/A,N/A,N/A,N/A,N/A,N/A,N/A,N/A,N/A,N/A,N/A,N/A,N/A,N/A,N/A,N/A,N/A,N/A,N/A,N/A,N/A,N/A,N/A
IMMACULATE CONCEPTION CATHOLIC SCHOOL,700 NORTH BILL GRAY ROAD,COTTONWOOD,YAVAPAI,86326,NO,,PRIVATE,< 20 ,N/A,N/A,N/A,N/A,N/A,N/A,N/A,N/A,N/A,N/A,N/A,N/A,N/A,N/A,N/A,N/A,N/A,N/A,N/A,N/A,N/A,N/A,N/A,N/A
IMMACULATE CONCEPTION PRESCHOOL,501 SOUTH AVENUE B,YUMA,YUMA,85364,NO,,PRIVATE,21,100%,0%,100%,90%,0%,100%,90%,0%,100%,100%,0%,100%,100%,0%,100%,100%,0%,100%,100%,0%,100%,0%,0%,0%
IMMACULATE HEART ACADEMY,410 E MAGEE RD,TUCSON,PIMA,85704,NO,,PRIVATE,< 20 ,N/A,N/A,N/A,N/A,N/A,N/A,N/A,N/A,N/A,N/A,N/A,N/A,N/A,N/A,N/A,N/A,N/A,N/A,N/A,N/A,N/A,N/A,N/A,N/A
INCA ELEMENTARY SCHOOL,236000 W DURANGO ST,BUCKEYE,MARICOPA,85326,NO,,PUBLIC,108,98%,2%,100%,97%,3%,100%,97%,3%,100%,98%,2%,100%,98%,2%,100%,98%,2%,100%,97%,3%,100%,4%,0%,2%
INCITO SCHOOLS,877 N SARIVAL AVE,GOODYEAR,MARICOPA,85338,NO,,CHARTER,32,91%,0%,91%,22%,0%,22%,19%,0%,19%,88%,0%,88%,88%,0%,88%,91%,0%,91%,97%,0%,97%,0%,0%,0%
INDIAN BEND ELEMENTARY SCHOOL,3633 E THUNDERBIRD RD,PHOENIX,MARICOPA,85032,NO,,PUBLIC,81,99%,1%,100%,98%,2%,100%,96%,2%,100%,98%,2%,100%,98%,2%,100%,98%,2%,100%,99%,1%,100%,2%,0%,0%
INDIAN OASIS INTERMEDIATE ELEMENTARY SCHOOL,HIGHWAY 86,SELLS,PIMA,85634,NO,,PUBLIC,86,100%,0%,100%,99%,0%,100%,99%,0%,100%,100%,0%,100%,100%,0%,100%,100%,0%,100%,100%,0%,100%,0%,0%,0%
INGLESIDE MIDDLE SCHOOL,5402 E OSBORN RD,PHOENIX,MARICOPA,85018,YES,RN,PUBLIC,305,98%,0%,98%,85%,3%,89%,85%,3%,89%,97%,3%,100%,97%,3%,100%,97%,2%,98%,95%,3%,98%,3%,1%,3%
INTERNATIONAL SCHOOL OF ARIZONA,9522 EAST SAN SALVADOR,SCOTTSDALE,MARICOPA,85258,NO,,PRIVATE,< 20 ,N/A,N/A,N/A,N/A,N/A,N/A,N/A,N/A,N/A,N/A,N/A,N/A,N/A,N/A,N/A,N/A,N/A,N/A,N/A,N/A,N/A,N/A,N/A,N/A
IRA A FULTON ELEMENTARY,4750 S SUNLAND DR,CHANDLER,MARICOPA,85248,NO,,PUBLIC,142,98%,2%,100%,87%,11%,100%,86%,13%,100%,98%,2%,100%,98%,2%,100%,98%,2%,100%,96%,4%,100%,13%,0%,2%
IRA A MURPHY SCHOOL,7231 W NORTH LN,PEORIA,MARICOPA,85345,YES,LPN,PUBLIC,50,100%,0%,100%,82%,0%,82%,78%,0%,78%,100%,0%,100%,100%,0%,100%,100%,0%,100%,100%,0%,100%,0%,0%,0%
IRENE LOPEZ SCHOOL,4610 S. 12TH ST,PHOENIX,MARICOPA,85040,YES,RN,PUBLIC,59,98%,2%,100%,97%,2%,100%,97%,2%,100%,98%,2%,100%,98%,2%,100%,98%,2%,100%,98%,2%,100%,2%,2%,2%
IRONWOOD ELEMENTARY SCHOOL,14850 N 39TH AVE,PHOENIX,MARICOPA,85053,NO,,PUBLIC,84,95%,5%,100%,94%,6%,100%,93%,6%,100%,96%,4%,100%,94%,6%,100%,95%,5%,100%,95%,5%,100%,8%,0%,2%
IRONWOOD ELEMENTARY SCHOOL,3300 W FREER DR,TUCSON,PIMA,85742,NO,,PUBLIC,93,96%,4%,100%,94%,4%,98%,94%,4%,98%,96%,4%,100%,96%,4%,100%,95%,4%,99%,96%,4%,100%,4%,0%,4%
IRVING ELEMENTARY SCHOOL,3220 E PUEBLO AVE,MESA,MARICOPA,85204,YES,RN,PUBLIC,75,99%,1%,100%,92%,7%,100%,92%,7%,100%,99%,1%,100%,99%,1%,100%,99%,1%,100%,100%,0%,100%,4%,0%,1%
ISAAC E IMES SCHOOL,6625 N 56TH AVE,GLENDALE,MARICOPA,85301,YES,RN,PUBLIC,60,100%,0%,100%,98%,2%,100%,98%,2%,100%,100%,0%,100%,100%,0%,100%,100%,0%,100%,100%,0%,100%,2%,0%,0%
ISAAC MIDDLE SCHOOL,3402 W MCDOWELL RD,PHOENIX,MARICOPA,85009,NO,,PUBLIC,267,99%,0%,99%,91%,0%,97%,91%,0%,97%,99%,0%,99%,99%,0%,99%,99%,0%,99%,98%,0%,98%,0%,0%,0%
ISHIKAWA ELEMENTARY SCHOOL,2635 N 32ND ST,MESA,MARICOPA,85213,YES,RN,PUBLIC,133,99%,1%,100%,92%,5%,100%,92%,6%,100%,99%,1%,100%,98%,2%,100%,99%,1%,100%,98%,2%,100%,7%,0%,0%
ISLANDS ELEMENTARY SCHOOL,245 S MCQUEEN RD,GILBERT,MARICOPA,85233,YES,RN,PUBLIC,76,99%,1%,100%,96%,3%,100%,96%,3%,100%,99%,1%,100%,99%,1%,100%,97%,3%,100%,99%,1%,100%,4%,0%,1%
J  ROBERT HENDRICKS ELEMENTARY SCHOOL,3400 W ORANGE GROVE RD,TUCSON,PIMA,85741,NO,,PUBLIC,64,97%,3%,100%,97%,3%,100%,97%,3%,100%,100%,0%,100%,100%,0%,100%,98%,2%,100%,100%,0%,100%,3%,0%,3%
J.C.U.S.D. - JOSEPH CITY PRESCHOOL,8176 WESTOVER AVENUE,JOSEPH CITY,NAVAJO,86032,NO,,PUBLIC,33,82%,15%,100%,67%,33%,100%,64%,36%,100%,85%,15%,100%,85%,15%,100%,85%,15%,100%,85%,15%,100%,36%,36%,15%
JACK HARMON ELEMENTARY,39315 N CORTONA DR,QUEEN CREEK,PINAL,85240,NO,,PUBLIC,93,91%,9%,100%,87%,9%,100%,87%,9%,100%,91%,9%,100%,91%,9%,100%,91%,9%,100%,91%,9%,100%,9%,0%,9%
JACK L KUBAN ELEMENTARY SCHOOL,3201 W SHERMAN ST,PHOENIX,MARICOPA,85009,YES,RN,PUBLIC,42,100%,0%,100%,98%,0%,100%,98%,0%,100%,100%,0%,100%,100%,0%,100%,100%,0%,100%,100%,0%,100%,0%,0%,0%
JAMAICA ELEMENTARY SCHOOL,3427 JAMAICA BLVD,LAKE HAVASU CITY,MOHAVE,86406,YES,RN,PUBLIC,71,97%,3%,100%,86%,11%,99%,86%,11%,99%,97%,3%,100%,96%,4%,100%,97%,3%,100%,97%,3%,100%,13%,0%,3%
JAMES KENDALL ZAHARIS ELEMENTARY,9410 E MCKELLIPS RD,MESA,MARICOPA,85207,YES,RN,PUBLIC,127,95%,5%,100%,90%,7%,100%,89%,8%,100%,94%,6%,100%,94%,6%,100%,94%,6%,100%,94%,6%,100%,9%,0%,4%
JANE D. HULL ELEMENTARY,2424 E MAREN DR,CHANDLER,MARICOPA,85249,NO,,PUBLIC,118,95%,5%,100%,77%,16%,100%,76%,18%,100%,95%,5%,100%,94%,6%,100%,93%,7%,100%,95%,5%,100%,21%,0%,5%
JEDDITO SCHOOL,MILE POST 408 HWY 264,KEAMS CANYON,NAVAJO,,NO,,PUBLIC,< 20 ,N/A,N/A,N/A,N/A,N/A,N/A,N/A,N/A,N/A,N/A,N/A,N/A,N/A,N/A,N/A,N/A,N/A,N/A,N/A,N/A,N/A,N/A,N/A,N/A
JEFFERSON ELEMENTARY SCHOOL,120 S JEFFERSON AVE,MESA,MARICOPA,85208,NO,,PUBLIC,78,97%,1%,100%,99%,1%,100%,99%,1%,100%,99%,1%,100%,99%,1%,100%,99%,1%,100%,99%,1%,100%,1%,0%,1%
JOHN & CAROL CARLSON ELEMENTARY,5400 S WHITE DR,CHANDLER,MARICOPA,85249,NO,,PUBLIC,102,94%,6%,100%,89%,11%,100%,87%,13%,100%,95%,5%,100%,94%,6%,100%,93%,7%,100%,94%,6%,100%,11%,0%,3%
JOHN F KENNEDY SCHOOL,1500 SUNSET DR,SUPERIOR,PINAL,85173,NO,,PUBLIC,24,100%,0%,100%,100%,0%,100%,54%,0%,100%,100%,0%,100%,100%,0%,100%,100%,0%,100%,100%,0%,100%,0%,0%,0%
JOHN JACOBS ELEMENTARY SCHOOL,14421 N 23RD AVE,PHOENIX,MARICOPA,85023,NO,,PUBLIC,82,95%,2%,100%,98%,2%,100%,96%,2%,100%,98%,0%,100%,100%,0%,100%,99%,1%,100%,100%,0%,100%,4%,0%,0%
JOHN M ANDERSEN JR HIGH SCHOOL,1255 N DOBSON RD,CHANDLER,MARICOPA,85224,NO,,PUBLIC,138,97%,2%,100%,90%,5%,100%,90%,6%,100%,95%,4%,100%,96%,4%,100%,96%,4%,100%,97%,3%,100%,7%,1%,2%
JOHN R DAVIS SCHOOL,6209 S 15TH AVE,PHOENIX,MARICOPA,85041,YES,RN,PUBLIC,35,97%,3%,100%,97%,3%,100%,97%,3%,100%,97%,3%,100%,97%,3%,100%,97%,3%,100%,97%,3%,100%,3%,0%,3%
JOHNSON ELEMENTARY SCHOOL,3807 E PUEBLO,MESA,MARICOPA,85206,YES,RN,PUBLIC,79,91%,8%,99%,97%,0%,100%,91%,8%,100%,95%,5%,100%,95%,5%,100%,95%,5%,100%,100%,0%,100%,8%,0%,5%
JOSEPH CITY ELEMENTARY SCHOOL,8176 N WESTOVER ST,JOSEPH CITY,NAVAJO,86032,NO,,PUBLIC,33,82%,15%,100%,67%,33%,100%,64%,36%,100%,85%,15%,100%,85%,15%,100%,85%,15%,100%,100%,0%,100%,36%,36%,15%
JOY CHRISTIAN SCHOOL,21000 N 75TH AVE,GLENDALE,MARICOPA,85308,YES,RN,PRIVATE,41,90%,10%,100%,90%,10%,100%,61%,39%,100%,90%,10%,100%,90%,10%,100%,90%,10%,100%,90%,10%,100%,10%,0%,10%
KACHINA ELEMENTARY SCHOOL,5304 W CROCUS DR,GLENDALE,MARICOPA,85306,YES,RN,PUBLIC,52,98%,2%,100%,98%,2%,100%,98%,2%,100%,98%,2%,100%,98%,2%,100%,98%,2%,100%,98%,2%,100%,2%,0%,2%
KATHRYN SUE SIMONTON ELEMENTARY,40300 N SIMONTON BLVD,QUEEN CREEK,PINAL,85140,NO,,PUBLIC,72,99%,1%,100%,88%,3%,92%,86%,4%,92%,99%,1%,100%,99%,1%,100%,99%,1%,100%,99%,1%,100%,4%,0%,1%
KAYENTA COMMUNITY SCHOOL,,KAYENTA,NAVAJO,,NO,,PRIVATE,36,100%,0%,100%,94%,0%,100%,36%,0%,42%,100%,0%,100%,97%,0%,100%,100%,0%,100%,97%,0%,97%,0%,0%,0%
KELLER ELEMENTARY SCHOOL,1445 E HILTON AVE,MESA,MARICOPA,85204,YES,RN,PUBLIC,66,95%,5%,100%,95%,5%,100%,95%,5%,100%,98%,2%,100%,98%,2%,100%,98%,2%,100%,98%,2%,100%,6%,6%,0%
KENILWORTH ELEMENTARY SCHOOL,1210 N 5TH AVE,PHOENIX,MARICOPA,85003,NO,,PUBLIC,61,100%,0%,100%,92%,2%,98%,90%,2%,97%,98%,0%,100%,100%,0%,100%,100%,0%,100%,100%,0%,100%,2%,0%,0%
KERR ELEMENTARY SCHOOL,125 E MCLELLAN RD,MESA,MARICOPA,85201,YES,RN,PUBLIC,87,99%,0%,99%,97%,2%,100%,93%,2%,97%,99%,0%,99%,99%,0%,99%,100%,0%,100%,100%,0%,100%,2%,0%,0%
KEYSTONE MONTESSORI CHARTER SCHOOL,1025 E LIBERTY LN,PHOENIX,MARICOPA,85048,NO,,CHARTER,22,86%,14%,100%,68%,23%,91%,73%,18%,91%,86%,14%,100%,86%,14%,100%,86%,14%,100%,86%,14%,100%,23%,0%,14%
KHALSA MONTESSORI SCHOOL,3701 EAST RIVER ROAD,TUCSON,PIMA,85718,NO,,CHARTER,27,93%,7%,100%,70%,11%,93%,67%,15%,93%,100%,0%,100%,93%,0%,93%,100%,0%,100%,89%,11%,100%,19%,0%,7%
KIN DAH LICHI'I OLTA,2 MILES N OF MP 452 ON HWY 2,KIN-LI-CHEE,APACHE,86505,NO,,PRIVATE,22,100%,0%,100%,73%,0%,100%,73%,0%,100%,100%,0%,100%,100%,0%,100%,100%,0%,100%,100%,0%,100%,0%,0%,0%
KINDERTOTS,1118 WEST GLENDALE AVENUE,PHOENIX,MARICOPA,85021,NO,,PRIVATE,23,78%,22%,100%,48%,48%,100%,48%,48%,100%,83%,17%,100%,61%,39%,100%,83%,17%,100%,83%,17%,100%,52%,0%,17%
KINGMAN ACADEMY OF LEARNING - MIDDLE SCHOOL,3269 N HARRISON ST,KINGMAN,MOHAVE,,NO,,CHARTER,112,94%,6%,100%,90%,10%,100%,90%,10%,100%,93%,7%,100%,93%,7%,100%,96%,4%,100%,100%,0%,100%,12%,0%,5%
KINGMAN MIDDLE SCHOOL,1969 DETROIT AVE,KINGMAN,MOHAVE,86401,NO,,PUBLIC,235,94%,6%,100%,80%,20%,100%,80%,20%,100%,88%,12%,100%,91%,9%,100%,100%,0%,100%,97%,3%,100%,13%,1%,0%
KINGS RIDGE PREPARATORY ACADEMY,3650 S 64TH LN,PHOENIX,MARICOPA,85043,YES,LPN,PUBLIC,105,96%,3%,99%,93%,3%,98%,92%,3%,97%,97%,3%,100%,99%,1%,100%,99%,1%,100%,100%,0%,100%,2%,0%,1%
KINGSWOOD ELEMENTARY SCHOOL,15150 W MONDELL RD,SURPRISE,MARICOPA,85374,YES,RN,PUBLIC,64,97%,3%,100%,81%,2%,84%,77%,5%,83%,95%,5%,100%,95%,3%,98%,95%,5%,100%,97%,3%,100%,8%,0%,3%
KISER ELEMENTARY SCHOOL,INTERSTATE 8 EXIT 106,GILA BEND,MARICOPA,85337,NO,,PUBLIC,< 20 ,N/A,N/A,N/A,N/A,N/A,N/A,N/A,N/A,N/A,N/A,N/A,N/A,N/A,N/A,N/A,N/A,N/A,N/A,N/A,N/A,N/A,N/A,N/A,N/A
KNOX ELEMENTARY SCHOOL,700 W ORCHID LN,CHANDLER,MARICOPA,85225,NO,,PUBLIC,105,97%,3%,100%,88%,7%,100%,88%,7%,100%,97%,3%,100%,97%,3%,100%,95%,5%,100%,97%,3%,100%,10%,0%,3%
KYRENE AKIMEL A-AL MIDDLE SCHOOL,2720 E LIBERTY LN,PHOENIX,MARICOPA,85048,YES,RN,PUBLIC,340,96%,4%,99%,88%,0%,91%,85%,4%,92%,96%,4%,100%,97%,3%,100%,96%,3%,99%,100%,0%,100%,5%,0%,2%
KYRENE ALTADENA MIDDLE SCHOOL,14620 S DESERT FOOTHILLS PKWY,PHOENIX,MARICOPA,85048,NO,,PUBLIC,338,97%,3%,100%,90%,4%,96%,91%,4%,97%,98%,2%,100%,97%,3%,100%,97%,3%,100%,98%,2%,100%,7%,0%,1%
KYRENE APRENDE MIDDLE SCHOOL,777 N DESERT BREEZE BLVD EAST,CHANDLER,MARICOPA,85226,NO,,PUBLIC,364,97%,3%,100%,93%,3%,97%,91%,3%,99%,96%,2%,98%,97%,2%,98%,98%,1%,99%,96%,2%,98%,3%,0%,1%
KYRENE CENTENNIAL MIDDLE SCHOOL,13808 S 36TH ST,PHOENIX,MARICOPA,85044,NO,,PUBLIC,322,98%,2%,100%,94%,2%,100%,95%,2%,100%,98%,2%,100%,98%,2%,100%,98%,2%,100%,98%,2%,100%,3%,3%,1%
KYRENE DEL PUEBLO MIDDLE SCHOOL,360 S TWELVE OAKS BLVD,CHANDLER,MARICOPA,85226,NO,,PUBLIC,291,96%,4%,100%,95%,4%,100%,95%,4%,100%,97%,3%,100%,98%,2%,100%,99%,1%,100%,98%,2%,100%,4%,0%,1%
KYRENE DEL SURENO SCHOOL,3375 W GALVESTON RD,CHANDLER,MARICOPA,85226,NO,,PUBLIC,57,72%,18%,89%,77%,7%,88%,72%,12%,88%,75%,12%,88%,88%,12%,100%,93%,7%,100%,93%,7%,100%,12%,4%,12%
KYRENE MIDDLE SCHOOL,1050 E CARVER RD,TEMPE,MARICOPA,85284,NO,,PUBLIC,327,96%,4%,100%,68%,4%,77%,67%,4%,76%,95%,4%,99%,96%,4%,100%,96%,4%,100%,94%,4%,98%,4%,0%,4%
L THOMAS HECK MIDDLE SCHOOL,12448 W BETHANY HOME RD,LITCHFIELD PARK,MARICOPA,85340,YES,RN,PUBLIC,259,100%,0%,100%,86%,0%,86%,87%,0%,87%,98%,0%,99%,98%,0%,99%,100%,0%,100%,100%,0%,100%,0%,0%,0%
L.H.U.S.D. #1 - DEVELOPMENTAL PRESCHOOL,2395 SMOKETREE AVENUE,LAKE HAVASU CITY,MOHAVE,86403,YES,RN,PUBLIC,69,100%,0%,100%,99%,1%,100%,99%,1%,100%,97%,3%,100%,97%,3%,100%,97%,3%,100%,99%,1%,100%,3%,0%,0%
LA CIMA MIDDLE SCHOOL,5600 N LA CANADA RD,TUCSON,PIMA,85704,YES,RN,PUBLIC,163,98%,2%,100%,97%,2%,99%,97%,2%,99%,98%,2%,99%,98%,2%,99%,98%,2%,99%,98%,2%,99%,2%,2%,2%
LA PALOMA ACADEMY - LAKESIDE,8140 E GOLF LINKS ROAD,TUCSON,PIMA,85730,NO,,CHARTER,83,98%,1%,100%,99%,1%,100%,99%,1%,100%,98%,1%,100%,98%,1%,100%,98%,1%,100%,99%,1%,100%,1%,0%,1%
LA PALOMA ACADEMY SOUTH,5660 S 12TH AVE,TUCSON,PIMA,85706,NO,,CHARTER,44,100%,0%,100%,98%,2%,100%,98%,0%,98%,100%,0%,100%,100%,0%,100%,100%,0%,100%,100%,0%,100%,0%,0%,0%
LA TIERRA COMMUNITY SCHOOL,124 N VIRGINIA ST,PRESCOTT,YAVAPAI,86301,NO,,CHARTER,< 20 ,N/A,N/A,N/A,N/A,N/A,N/A,N/A,N/A,N/A,N/A,N/A,N/A,N/A,N/A,N/A,N/A,N/A,N/A,N/A,N/A,N/A,N/A,N/A,N/A
LAFE NELSON SCHOOL,1100 10TH AVE,SAFFORD,GRAHAM,85546,YES,RN,PUBLIC,78,96%,4%,100%,90%,9%,99%,90%,9%,99%,96%,4%,100%,96%,4%,100%,96%,4%,100%,97%,3%,100%,8%,0%,4%
LAGUNA ELEMENTARY SCHOOL,5001 N SHANNON RD,TUCSON,PIMA,85705,NO,,PUBLIC,52,100%,0%,100%,100%,0%,100%,98%,2%,100%,100%,0%,100%,100%,0%,100%,100%,0%,100%,100%,0%,100%,0%,2%,0%
LAIRD ELEMENTARY SCHOOL,1500 N SCOVEL ST,TEMPE,MARICOPA,85281,YES,RN,PUBLIC,53,96%,4%,100%,92%,4%,100%,92%,4%,100%,96%,4%,100%,96%,4%,100%,96%,4%,100%,96%,4%,100%,4%,0%,4%
LAKE PLEASANT ELEMENTARY,31501 N WESTLAND RD,PEORIA,MARICOPA,85383,YES,RN,PUBLIC,73,96%,4%,100%,93%,4%,100%,92%,5%,100%,97%,3%,100%,97%,3%,100%,96%,4%,100%,95%,5%,100%,3%,0%,3%
LAKE VALLEY ELEMENTARY SCHOOL,3900 N STARLIGHT DR,PRESCOTT VALLEY,YAVAPAI,86314,YES,RN,PUBLIC,75,99%,1%,100%,91%,7%,100%,91%,7%,100%,99%,1%,100%,96%,4%,100%,97%,3%,100%,99%,1%,100%,7%,0%,1%
LAKEVIEW ELEMENTARY SCHOOL,3040 W YUCCA ST,PHOENIX,MARICOPA,85029,NO,,PUBLIC,83,99%,0%,100%,99%,1%,100%,99%,1%,100%,99%,0%,100%,99%,0%,100%,99%,0%,100%,99%,1%,100%,4%,0%,0%
LARKSPUR ELEMENTARY SCHOOL,2430 E LARKSPUR DR,PHOENIX,MARICOPA,85032,YES,RN,PUBLIC,88,98%,2%,100%,94%,2%,99%,94%,2%,99%,99%,1%,100%,99%,1%,100%,99%,1%,100%,99%,1%,100%,1%,0%,1%
LARRY C KENNEDY SCHOOL,2702 E OSBORN RD,PHOENIX,MARICOPA,85016,YES,RN,PUBLIC,60,98%,0%,100%,98%,0%,100%,98%,0%,100%,98%,0%,100%,98%,0%,100%,98%,0%,100%,100%,0%,100%,0%,0%,0%
LAS BRISAS ACADEMY,18211 W LAS BRISAS DR,GOODYEAR,MARICOPA,85338,NO,,PUBLIC,47,98%,2%,100%,94%,6%,100%,87%,13%,100%,96%,4%,100%,98%,2%,100%,98%,2%,100%,98%,2%,100%,13%,13%,13%
LAS BRISAS ELEMENTARY SCHOOL,5805 W ALAMEDA,GLENDALE,MARICOPA,85310,NO,,PUBLIC,134,94%,6%,100%,100%,0%,100%,94%,6%,100%,95%,5%,100%,96%,4%,100%,95%,5%,100%,96%,4%,100%,8%,0%,4%
LAS SENDAS ELEMENTARY SCHOOL,3120 N RED MOUNTAIN RD,MESA,MARICOPA,85207,YES,RN,PUBLIC,155,98%,2%,100%,91%,8%,100%,90%,9%,100%,97%,3%,100%,97%,3%,100%,97%,3%,100%,99%,1%,100%,10%,1%,1%
LAVEEN ELEMENTARY SCHOOL,4141 W MCNEIL STREET,LAVEEN,MARICOPA,85339,NO,,PUBLIC,89,98%,2%,100%,92%,3%,100%,92%,3%,100%,98%,2%,100%,98%,2%,100%,98%,2%,100%,98%,2%,100%,3%,0%,2%
LAWRENCE W CROSS MIDDLE SCHOOL,1000 W CHAPALA DR,TUCSON,PIMA,85704,YES,RN,PUBLIC,197,97%,3%,100%,95%,4%,99%,92%,5%,99%,96%,3%,100%,96%,4%,100%,98%,2%,100%,97%,3%,100%,3%,6%,2%
LE PERA ELEMENTARY SCHOOL,TAHBO RD AND MOHAVE RD,PARKER,LA PAZ,85371,NO,,PUBLIC,30,100%,0%,100%,100%,0%,100%,100%,0%,100%,100%,0%,100%,100%,0%,100%,100%,0%,100%,100%,0%,100%,0%,0%,0%
LEADING EDGE ACADEMY - EAST MESA CAMPUS,10115 E UNIVERSITY DR,MESA,MARICOPA,,NO,,CHARTER,< 20 ,N/A,N/A,N/A,N/A,N/A,N/A,N/A,N/A,N/A,N/A,N/A,N/A,N/A,N/A,N/A,N/A,N/A,N/A,N/A,N/A,N/A,N/A,N/A,N/A
LEADING EDGE ACADEMY - GILBERT ELEMENTARY CAMPUS,717 W RAY RD,GILBERT,MARICOPA,85233,NO,,CHARTER,42,86%,14%,100%,17%,14%,31%,7%,14%,33%,83%,17%,100%,83%,17%,100%,86%,14%,100%,86%,14%,100%,19%,0%,14%
LEADING EDGE ACADEMY - MARICOPA CAMPUS,19302 N PORTER RD,MARICOPA,PINAL,85238,NO,,CHARTER,77,97%,3%,100%,74%,4%,78%,74%,5%,79%,95%,5%,100%,96%,4%,100%,97%,3%,100%,97%,3%,100%,8%,0%,4%
LEADING EDGE ACADEMY - MOUNTAIN VIEW CAMPUS,4815 W HUNT HWY,QUEEN CREEK,PINAL,85142,NO,,CHARTER,30,87%,13%,100%,70%,17%,90%,70%,13%,87%,87%,10%,97%,87%,13%,100%,83%,13%,97%,87%,13%,100%,17%,0%,13%
LEARNING FOUNDATION AND PERFORMING ARTS ALTA MESA,5761 E BROWN RD,MESA,MARICOPA,85205,NO,,CHARTER,25,92%,8%,100%,80%,12%,96%,80%,12%,96%,88%,8%,96%,88%,8%,96%,92%,8%,100%,92%,8%,100%,12%,0%,8%
LEARNING FOUNDATION AND PERFORMING ARTS STAPLEY,851 N STAPLEY DR,MESA,MARICOPA,85203,NO,,CHARTER,28,96%,4%,100%,93%,4%,100%,79%,18%,100%,96%,4%,100%,96%,4%,100%,96%,4%,100%,100%,0%,100%,18%,0%,4%
LEARNING FOUNDATION AND PERFORMING ARTS WARNER,3939 E WARNER RD,GILBERT,MARICOPA,85296,NO,,CHARTER,75,88%,12%,100%,84%,9%,96%,75%,19%,96%,88%,12%,100%,89%,11%,100%,88%,11%,99%,89%,9%,99%,20%,0%,9%
LEE KORNEGAY INTERMEIDATE SCHOOL,PO BOX 2070,MIAMI,GILA,85539,NO,,PUBLIC,72,96%,1%,100%,99%,1%,100%,93%,1%,94%,93%,1%,100%,83%,1%,100%,93%,1%,100%,93%,1%,94%,1%,0%,1%
LEGACY TRADITIONAL CHARTER SCHOOL - GILBERT,2747 S RECKER RD,GILBERT,MARICOPA,85295,YES,LPN,CHARTER,114,97%,3%,100%,88%,12%,100%,80%,20%,100%,97%,3%,100%,96%,4%,100%,95%,5%,100%,98%,2%,100%,20%,0%,0%
LEGACY TRADITIONAL CHARTER SCHOOL - LAVEEN VILLAGE,7900 S 43RD AVE,LAVEEN,MARICOPA,85339,YES,LPN,CHARTER,128,82%,2%,84%,52%,1%,55%,49%,1%,52%,80%,2%,83%,82%,2%,84%,82%,2%,84%,82%,2%,84%,3%,0%,0%
LEGACY TRADITIONAL SCHOOL - AVONDALE,12320 W VAN BUREN ST,AVONDALE,MARICOPA,85323,NO,,CHARTER,151,97%,3%,100%,84%,3%,89%,84%,3%,89%,97%,3%,100%,97%,3%,100%,97%,3%,100%,97%,3%,99%,3%,0%,2%
LEGACY TRADITIONAL SCHOOL - CASA GRANDE,1274 E O'NEIL DR,CASA GRANDE,PINAL,85138,NO,,CHARTER,146,97%,3%,100%,87%,11%,100%,87%,11%,100%,97%,3%,100%,97%,3%,100%,97%,3%,100%,97%,3%,100%,11%,0%,3%
LEGACY TRADITIONAL SCHOOL - GLENDALE,13091 N 67TH AVE,GLENDALE,MARICOPA,85306,YES,RN,PUBLIC,117,94%,6%,100%,100%,0%,100%,78%,10%,88%,93%,6%,99%,92%,6%,98%,92%,6%,98%,93%,6%,99%,12%,1%,6%
LEGACY TRADITIONAL SCHOOL - MARICOPA,17760 REGENT DR,MARICOPA,PINAL,85138,NO,,CHARTER,128,98%,2%,100%,95%,2%,100%,95%,2%,100%,98%,2%,100%,98%,2%,100%,98%,2%,100%,98%,2%,100%,8%,0%,2%
LEGACY TRADITIONAL SCHOOL - NORTH CHANDLER,1900 N MCQUEEN RD,CHANDLER,MARICOPA,85225,NO,,CHARTER,65,94%,6%,100%,86%,11%,100%,86%,11%,100%,94%,6%,100%,94%,6%,100%,94%,6%,100%,94%,6%,100%,11%,11%,6%
LEGACY TRADITIONAL SCHOOL - NORTHWEST TUCSON,3500 W CORTARO FARMS RD,TUCSON,PIMA,85742,NO,,CHARTER,123,98%,2%,100%,94%,6%,100%,81%,19%,100%,93%,7%,100%,97%,3%,100%,98%,2%,100%,97%,3%,100%,17%,3%,6%
LEGACY TRADITIONAL SCHOOL - PEORIA,7877 W. HILLCREST BLVD,PEORIA,MARICOPA,85383,YES,LPN,CHARTER,< 20 ,N/A,N/A,N/A,N/A,N/A,N/A,N/A,N/A,N/A,N/A,N/A,N/A,N/A,N/A,N/A,N/A,N/A,N/A,N/A,N/A,N/A,N/A,N/A,N/A
LEGACY TRADITIONAL SCHOOL SURPRISE,14506 W SWEETWATER AVE,SURPRISE,MARICOPA,85379,NO,,CHARTER,219,97%,3%,100%,90%,8%,100%,89%,9%,100%,97%,3%,100%,96%,4%,100%,96%,4%,100%,97%,3%,100%,12%,0%,3%
LEGACY TRADITIONAL SCHOOL-QUEEN CREEK,41800 N. BARNES PKWY,QUEEN CREEK,PINAL,85140,NO,,CHARTER,111,91%,8%,99%,86%,12%,99%,85%,11%,97%,90%,10%,100%,88%,12%,100%,91%,9%,100%,92%,8%,100%,4%,0%,7%
LEGEND SPRINGS ELEMENTARY,21150 N ARROWHEAD LOOP,GLENDALE,MARICOPA,85308,NO,,PUBLIC,88,98%,2%,100%,95%,3%,100%,95%,3%,100%,99%,1%,100%,97%,3%,100%,98%,2%,100%,99%,1%,100%,7%,0%,1%
LEHI ELEMENTARY SCHOOL,2555 N STAPLEY DR,MESA,MARICOPA,85203,YES,RN,PUBLIC,60,98%,2%,100%,98%,2%,100%,98%,2%,100%,100%,0%,100%,100%,0%,100%,100%,0%,100%,100%,0%,100%,2%,0%,2%
LEMAN ACADEMY OF EXCELLENCE - MARANA,"7720 N SILVERBELL RD, BLDG 1 & 2",TUCSON,PIMA,85743,YES,RN,CHARTER,107,95%,5%,100%,93%,3%,95%,87%,8%,95%,96%,4%,100%,96%,4%,100%,96%,3%,100%,100%,0%,100%,8%,3%,3%
LEMAN ACADEMY OF EXCELLENCE - ORO VALLEY,12255 N LA CAÑADA DRIVE,ORO VALLEY,PIMA,85755,YES,LPN,CHARTER,74,97%,3%,100%,95%,4%,99%,95%,4%,99%,97%,3%,100%,100%,0%,100%,100%,0%,100%,100%,0%,100%,4%,0%,0%
LEMAN ACADEMY OF EXCELLENCE - SIERRA VISTA,1000 E. WILCOX DR,SIERRA VISTA,COCHISE,85635,NO,,CHARTER,28,96%,4%,100%,96%,4%,100%,96%,4%,100%,96%,4%,100%,96%,4%,100%,96%,4%,100%,96%,4%,100%,4%,0%,4%
LEONOR HAMBLY K-8,824 THORNE AVE,WINKLEMAN,GILA,85292,NO,,PUBLIC,< 20 ,N/A,N/A,N/A,N/A,N/A,N/A,N/A,N/A,N/A,N/A,N/A,N/A,N/A,N/A,N/A,N/A,N/A,N/A,N/A,N/A,N/A,N/A,N/A,N/A
LIBERTY ARTS ACADEMY,3015 S POWER RD,MESA,MARICOPA,85212,NO,,CHARTER,21,95%,5%,100%,81%,10%,100%,81%,14%,100%,95%,5%,100%,95%,5%,100%,95%,5%,100%,95%,5%,100%,14%,5%,5%
LIBERTY ELEMENTARY SCHOOL,19818 W HWY 85,BUCKEYE,MARICOPA,85326,YES,LPN,PUBLIC,60,98%,2%,100%,97%,2%,100%,97%,2%,100%,97%,3%,100%,98%,2%,100%,97%,3%,100%,98%,2%,100%,5%,2%,2%
LIBERTY ELEMENTARY SCHOOL,5125 E MARILYN RD,SCOTTSDALE,MARICOPA,85254,YES,RN,PUBLIC,75,97%,3%,100%,95%,3%,99%,93%,3%,97%,99%,1%,100%,99%,1%,100%,99%,1%,100%,99%,1%,100%,3%,0%,3%
LIBERTY ELEMENTARY SCHOOL,5495 S LIBERTY AVE,TUCSON,PIMA,85706,YES,RN,PUBLIC,96,100%,0%,100%,98%,0%,100%,98%,0%,100%,100%,0%,100%,100%,0%,100%,100%,0%,100%,100%,0%,100%,0%,0%,0%
LIBERTY TRADITIONAL CHARTER SCHOOL,4901 W INDIAN SCHOOL RD,PHOENIX,MARICOPA,85031,NO,,CHARTER,52,100%,0%,100%,88%,0%,88%,88%,0%,88%,100%,0%,100%,100%,0%,100%,100%,0%,100%,98%,0%,98%,0%,0%,0%
LIBERTY TRADITIONAL SCHOOL,3300 N LAKE VALLEY RD,PRESCOTT VALLEY,YAVAPAI,86314,YES,RN,PUBLIC,77,95%,5%,100%,92%,6%,100%,92%,6%,100%,94%,6%,100%,94%,6%,100%,95%,5%,100%,94%,6%,100%,13%,0%,5%
LINCOLN ELEMENTARY SCHOOL,930 S SIRRINE,MESA,MARICOPA,85210,YES,RN,PUBLIC,129,98%,0%,98%,98%,2%,100%,98%,0%,100%,100%,0%,100%,100%,0%,100%,100%,0%,100%,100%,0%,100%,2%,1%,0%
LINDBERGH ELEMENTARY SCHOOL,930 S LAZONA DR,MESA,MARICOPA,85204,YES,RN,PUBLIC,49,100%,0%,100%,98%,0%,98%,98%,0%,98%,100%,0%,100%,100%,0%,100%,100%,0%,100%,100%,0%,100%,2%,0%,0%
LITTLE RED SCHOOLHOUSE,HWY 82 & DUQUESNE RD,NOGALES,SANTA CRUZ,85621,NO,,PUBLIC,27,100%,0%,100%,100%,0%,100%,100%,0%,100%,100%,0%,100%,100%,0%,100%,100%,0%,100%,100%,0%,100%,0%,0%,0%
LOGOS CHRISTIAN ACADEMY,9745 N TREKELL RD,CASA GRANDE,PINAL,85122,NO,,PRIVATE,< 20 ,N/A,N/A,N/A,N/A,N/A,N/A,N/A,N/A,N/A,N/A,N/A,N/A,N/A,N/A,N/A,N/A,N/A,N/A,N/A,N/A,N/A,N/A,N/A,N/A
LOMA LINDA ELEMENTARY SCHOOL,2002 E CLARENDON AVE,PHOENIX,MARICOPA,85016,YES,Both,PUBLIC,67,100%,0%,100%,100%,0%,100%,100%,0%,100%,100%,0%,100%,100%,0%,100%,100%,0%,100%,100%,0%,100%,0%,0%,0%
LONE MOUNTAIN ELEMENTARY SCHOOL,5250 E MONTGOMERY RD,CAVE CREEK,MARICOPA,85331,NO,,PUBLIC,96,93%,6%,99%,80%,8%,91%,81%,9%,91%,93%,6%,99%,93%,6%,99%,97%,3%,100%,94%,5%,99%,14%,5%,3%
LONGFELLOW ELEMENTARY SCHOOL,345 S HALL ST,MESA,MARICOPA,85204,YES,RN,PUBLIC,78,100%,0%,100%,99%,1%,100%,99%,1%,100%,100%,0%,100%,100%,0%,100%,100%,0%,100%,100%,0%,100%,1%,0%,0%
LONGVIEW ELEMENTARY SCHOOL,1209 E INDIAN SCHOOL RD,PHOENIX,MARICOPA,85014,YES,LPN,PUBLIC,92,97%,2%,99%,97%,2%,99%,96%,2%,99%,97%,2%,99%,98%,2%,100%,97%,2%,99%,98%,2%,100%,2%,0%,2%
LOOKOUT MOUNTAIN SCHOOL,15 W CORAL GABLES DR,PHOENIX,MARICOPA,85023,NO,,PUBLIC,147,98%,2%,100%,96%,4%,100%,95%,4%,100%,99%,1%,100%,98%,2%,100%,99%,1%,100%,99%,1%,100%,7%,0%,0%
LORETTO CATHOLIC SCHOOL,1200 14TH ST,DOUGLAS,COCHISE,85607,NO,,PRIVATE,36,100%,0%,100%,100%,0%,100%,100%,0%,100%,100%,0%,100%,100%,0%,100%,100%,0%,100%,100%,0%,100%,0%,0%,0%
LOS AMIGOS ELEMENTARY SCHOOL,2200 E DREXEL RD,TUCSON,PIMA,85706,YES,RN,PUBLIC,97,100%,0%,100%,98%,0%,98%,98%,0%,98%,100%,0%,100%,100%,0%,100%,99%,0%,99%,100%,0%,100%,0%,0%,0%
LOS NINOS ELEMENTARY SCHOOL,5445 S ALVERNON WAY,TUCSON,PIMA,85706,YES,RN,PUBLIC,63,98%,2%,100%,98%,2%,100%,98%,2%,100%,100%,0%,100%,98%,2%,100%,98%,2%,100%,98%,2%,100%,2%,2%,2%
LOWELL ELEMENTARY SCHOOL,920 E BROADWAY RD,MESA,MARICOPA,85204,YES,RN,PUBLIC,87,97%,0%,100%,99%,1%,100%,99%,1%,100%,100%,0%,100%,99%,1%,100%,100%,0%,100%,100%,0%,100%,1%,0%,0%
LOWELL SCHOOL,1121 S 3RD AVE,PHOENIX,MARICOPA,85003,YES,RN,PUBLIC,56,98%,0%,98%,95%,0%,95%,96%,0%,96%,98%,0%,98%,98%,0%,98%,100%,0%,100%,98%,0%,98%,0%,0%,0%
LUKE ELEMENTARY SCHOOL,7300 N DYSART RD,GLENDALE,MARICOPA,85307,YES,LPN,PUBLIC,83,99%,1%,100%,90%,6%,96%,90%,6%,96%,99%,1%,100%,99%,1%,100%,98%,1%,99%,99%,1%,100%,5%,1%,1%
MADISON #1 ELEMENTARY SCHOOL,5525 N 16TH ST,PHOENIX,MARICOPA,85016,YES,RN,PUBLIC,270,95%,5%,100%,94%,5%,99%,94%,5%,99%,95%,5%,100%,95%,5%,100%,95%,5%,100%,95%,5%,100%,5%,0%,5%
MADISON ELEMENTARY SCHOOL,849 S SUNNYVALE,MESA,MARICOPA,85206,YES,RN,PUBLIC,60,95%,5%,100%,92%,7%,100%,92%,7%,100%,97%,3%,100%,92%,8%,100%,97%,3%,100%,95%,5%,100%,10%,0%,10%
MADISON MEADOWS SCHOOL,225 W OCOTILLO RD,PHOENIX,MARICOPA,85013,YES,RN,PUBLIC,204,94%,6%,100%,62%,6%,69%,60%,6%,67%,94%,6%,100%,94%,6%,100%,93%,7%,100%,94%,6%,100%,7%,7%,6%
MADISON PARK SCHOOL,1431 E CAMPBELL AVE,PHOENIX,MARICOPA,,NO,,CHARTER,100,100%,0%,100%,92%,0%,92%,100%,0%,100%,100%,0%,100%,100%,0%,100%,100%,0%,100%,100%,0%,100%,2%,0%,2%
MADISON TRADITIONAL ACADEMY,5525 N 16TH ST,PHOENIX,MARICOPA,85014,NO,,PUBLIC,97,100%,0%,100%,94%,4%,100%,94%,4%,100%,98%,2%,100%,98%,2%,100%,100%,0%,100%,100%,0%,100%,4%,0%,0%
MAGEE MIDDLE SCHOOL,8300 E SPEEDWAY BLVD,TUCSON,PIMA,85710,YES,RN,PUBLIC,185,97%,3%,100%,96%,3%,99%,96%,3%,99%,99%,1%,100%,99%,1%,100%,99%,1%,100%,98%,2%,100%,4%,0%,3%
MAGMA RANCH K-8 SCHOOL,10980 E DESERT MOUNTAIN BLVD,FLORENCE,PINAL,85232,NO,,PUBLIC,90,97%,0%,97%,54%,0%,58%,44%,1%,49%,97%,1%,98%,98%,1%,99%,99%,1%,100%,98%,1%,99%,1%,0%,1%
MAGNET TRADITIONAL SCHOOL,2602 N 23RD AVE,PHOENIX,MARICOPA,85009,YES,RN,PUBLIC,58,100%,0%,100%,97%,0%,100%,91%,0%,95%,100%,0%,100%,100%,0%,100%,100%,0%,100%,100%,0%,100%,0%,0%,0%
MAIE BARTLETT HEARD SCHOOL,2301 W THOMAS RD,PHOENIX,MARICOPA,85015,YES,LPN,PUBLIC,87,97%,2%,99%,91%,2%,93%,89%,2%,91%,97%,2%,99%,97%,2%,99%,97%,2%,99%,98%,2%,100%,2%,0%,2%
MAINE CONSOLIDATED SCHOOL,10 SPRING VALLEY RD,PARKS,COCONINO,86018,NO,,PUBLIC,< 20 ,N/A,N/A,N/A,N/A,N/A,N/A,N/A,N/A,N/A,N/A,N/A,N/A,N/A,N/A,N/A,N/A,N/A,N/A,N/A,N/A,N/A,N/A,N/A,N/A
MANSFELD MIDDLE SCHOOL,1300 E 6TH ST,TUCSON,PIMA,85719,YES,RN,PUBLIC,337,96%,1%,97%,97%,2%,100%,96%,3%,99%,99%,1%,100%,99%,1%,100%,99%,1%,100%,99%,1%,100%,3%,1%,1%
"MANY FARMS COMMUNITY SCHOOL, INC",HWY 191,MANY FARMS,APACHE,86538,NO,,PUBLIC,38,100%,0%,100%,95%,0%,100%,79%,0%,84%,100%,0%,100%,100%,0%,100%,100%,0%,100%,100%,0%,100%,0%,0%,0%
MANY FARMS PUBLIC SCHOOL,HWY 191,CHINLE,APACHE,86538,YES,LPN,PUBLIC,54,100%,0%,100%,96%,0%,100%,96%,0%,100%,100%,0%,100%,100%,0%,100%,100%,0%,100%,100%,0%,100%,0%,0%,0%
MANZANITA ELEMENTARY SCHOOL,8430 N 39TH AVE,PHOENIX,MARICOPA,85051,NO,,PUBLIC,108,96%,2%,100%,97%,2%,100%,97%,2%,100%,98%,2%,100%,98%,2%,100%,98%,2%,100%,98%,2%,100%,3%,2%,2%
MARC T ATKINSON MIDDLE SCHOOL,4315 N MARYVALE PKWY,PHOENIX,MARICOPA,85031,YES,LPN,PUBLIC,422,100%,0%,100%,97%,0%,98%,97%,0%,98%,100%,0%,100%,100%,0%,100%,100%,0%,100%,100%,0%,100%,0%,0%,0%
MARICOPA WELLS MIDDLE SCHOOL,45012 W HONEYCUTT AVE,MARICOPA,PINAL,85239,YES,RN,PUBLIC,262,99%,1%,100%,92%,3%,100%,92%,3%,100%,99%,1%,100%,99%,1%,100%,99%,1%,100%,99%,1%,100%,3%,0%,0%
MARILYN THIELE WILSON SCHOOL,5619 E GLADE AVE,MESA,MARICOPA,85206,YES,RN,PUBLIC,87,100%,0%,100%,92%,1%,93%,92%,1%,93%,100%,0%,100%,100%,0%,100%,100%,0%,100%,99%,1%,100%,2%,0%,0%
MARIONNEAUX ELEMENTARY SCHOOL,21455 W ROESER RD,BUCKEYE,MARICOPA,85326,YES,LPN,PUBLIC,88,94%,6%,100%,86%,14%,100%,86%,14%,100%,95%,5%,100%,95%,5%,100%,94%,6%,100%,93%,7%,100%,15%,0%,5%
MARJORIE W ESTES ELEMENTARY SCHOOL,11280 W GRIER RD,MARANA,PIMA,85658,YES,RN,PUBLIC,64,98%,2%,100%,97%,2%,100%,97%,2%,100%,98%,2%,100%,98%,2%,100%,97%,3%,100%,98%,2%,100%,6%,0%,0%
MARLEY PARK ELEMENTARY,15042 W SWEETWATER AVE,SURPRISE,MARICOPA,85379,YES,LPN,PUBLIC,144,97%,3%,100%,83%,7%,90%,83%,8%,90%,96%,3%,99%,94%,3%,98%,95%,3%,99%,97%,3%,100%,9%,2%,1%
MARSHALL HUMPHREY II ELEMENTARY SCHOOL,125 S 132ND ST,CHANDLER,MARICOPA,85225,NO,,PUBLIC,92,97%,1%,100%,88%,10%,100%,89%,9%,100%,98%,2%,100%,97%,3%,100%,98%,2%,100%,98%,2%,100%,8%,1%,0%
MARSHALL RANCH ELEMENTARY SCHOOL,12995 N MARSHALL RANCH DR,GLENDALE,MARICOPA,85304,YES,LPN,PUBLIC,84,99%,1%,100%,99%,0%,100%,99%,0%,100%,99%,1%,100%,99%,1%,100%,100%,0%,100%,100%,0%,100%,2%,0%,0%
MARY BELLE MCCORKLE,4455 S MISSION RD,TUCSON,PIMA,85746,YES,RN,PUBLIC,117,100%,0%,100%,99%,0%,99%,99%,0%,99%,100%,0%,100%,100%,0%,100%,100%,0%,100%,100%,0%,100%,0%,0%,0%
MARY C O'BRIEN ELEMENTARY SCHOOL,1400 N ELEVEN MILE CORNER RD,CASA GRANDE,PINAL,85294,YES,RN,PUBLIC,< 20 ,N/A,N/A,N/A,N/A,N/A,N/A,N/A,N/A,N/A,N/A,N/A,N/A,N/A,N/A,N/A,N/A,N/A,N/A,N/A,N/A,N/A,N/A,N/A,N/A
MARYLAND ELEMENTARY SCHOOL,6503 N 21ST AVE,PHOENIX,MARICOPA,85015,NO,,PUBLIC,83,89%,1%,100%,100%,0%,100%,98%,1%,100%,98%,1%,100%,99%,1%,100%,98%,1%,100%,100%,0%,100%,1%,0%,1%
MARYVALE PREPARATORY ACADEMY,6301 W INDIAN SCHOOL RD,PHOENIX,MARICOPA,85033,NO,,CHARTER,52,100%,0%,100%,98%,2%,100%,98%,2%,100%,98%,2%,100%,100%,0%,100%,98%,2%,100%,100%,0%,100%,4%,0%,0%
MATH AND SCIENCE SUCCESS ACADEMY,434 W LERDO RD,TUCSON,PIMA,85756,NO,,CHARTER,62,100%,0%,100%,98%,2%,100%,89%,2%,100%,100%,0%,100%,100%,0%,100%,100%,0%,100%,100%,0%,100%,2%,0%,0%
MAURICE C CASH SCHOOL,3851 W ROESER RD,PHOENIX,MARICOPA,85041,NO,,PUBLIC,99,97%,2%,100%,95%,2%,100%,94%,3%,100%,97%,3%,100%,100%,0%,100%,98%,2%,100%,100%,0%,100%,3%,0%,0%
MAXINE O BUSH ELEMENTARY SCHOOL,602 E SIESTA WAY,PHOENIX,MARICOPA,85042,YES,RN,PUBLIC,54,100%,0%,100%,96%,2%,98%,96%,2%,98%,100%,0%,100%,100%,0%,100%,100%,0%,100%,100%,0%,100%,2%,0%,0%
MAYER ELEMENTARY SCHOOL,12568 E MAIN ST,MAYER,YAVAPAI,86333,NO,,PUBLIC,41,90%,10%,100%,85%,15%,100%,85%,15%,100%,90%,10%,100%,90%,10%,100%,90%,10%,100%,90%,10%,100%,15%,0%,10%
MELVIN E SINE SCHOOL,4932 W MYRTLE AVE,GLENDALE,MARICOPA,85301,YES,LPN,PUBLIC,81,99%,0%,99%,98%,0%,99%,98%,0%,99%,100%,0%,100%,100%,0%,100%,100%,0%,100%,100%,0%,100%,1%,0%,0%
MENDOZA ELEMENTARY SCHOOL,5831 E MCLELLAN RD,MESA,MARICOPA,85205,YES,RN,PUBLIC,83,99%,1%,100%,96%,4%,100%,94%,5%,100%,95%,5%,100%,96%,4%,100%,99%,1%,100%,96%,4%,100%,11%,11%,1%
MERCURY MINE ELEMENTARY SCHOOL,9640 N 28TH ST,PHOENIX,MARICOPA,85028,YES,RN,PUBLIC,74,91%,9%,100%,93%,5%,100%,91%,8%,100%,91%,9%,100%,92%,8%,100%,95%,5%,100%,95%,5%,100%,9%,0%,7%
MERIDIAN ELEMENTARY,3900 S MOUNTAIN RD,MESA,MARICOPA,85212,YES,RN,PUBLIC,130,92%,8%,100%,88%,8%,98%,88%,8%,98%,94%,6%,100%,94%,6%,100%,92%,8%,100%,96%,4%,100%,8%,2%,3%
MESA ACADEMY FOR ADVANCED STUDIES,6919 E BROWN RD,MESA,MARICOPA,85207,YES,RN,PUBLIC,89,97%,0%,99%,92%,6%,100%,94%,3%,100%,96%,4%,100%,96%,4%,100%,97%,3%,100%,100%,0%,100%,7%,0%,3%
MESA ARTS ACADEMY,221 W SIXTH AVE,MESA,MARICOPA,85210,NO,,CHARTER,27,85%,0%,85%,100%,0%,100%,52%,0%,52%,96%,0%,96%,89%,0%,89%,93%,0%,93%,93%,0%,93%,0%,0%,0%
MESA VIEW ELEMENTARY,HWY 191 & NAVAJO ROUTE 7,CHINLE,APACHE,86503,NO,,PUBLIC,66,100%,0%,100%,100%,0%,100%,100%,0%,100%,100%,0%,100%,100%,0%,100%,100%,0%,100%,100%,0%,100%,0%,0%,0%
MESQUITE ELEMENTARY,4451 W 28TH ST,YUMA,YUMA,85364,NO,,PUBLIC,104,100%,0%,100%,100%,0%,100%,100%,0%,100%,100%,0%,100%,100%,0%,100%,100%,0%,100%,100%,0%,100%,0%,0%,0%
MESQUITE ELEMENTARY SCHOOL,1101 E MESQUITE ST,GILBERT,MARICOPA,85296,YES,RN,PUBLIC,96,98%,2%,100%,91%,4%,100%,92%,5%,100%,97%,3%,100%,97%,3%,100%,97%,3%,100%,99%,1%,100%,6%,0%,1%
MEXICAYOTL CHARTER SCHOOL,2059 N GRAND AVE,NOGALES,SANTA CRUZ,85621,NO,,CHARTER,21,100%,0%,100%,95%,0%,95%,95%,0%,95%,100%,0%,100%,100%,0%,100%,100%,0%,100%,100%,0%,100%,0%,0%,0%
MICHAEL ANDERSON SCHOOL,45 S 3RD AVE,AVONDALE,MARICOPA,85323,YES,LPN,PUBLIC,118,100%,0%,100%,100%,0%,100%,99%,1%,100%,100%,0%,100%,100%,0%,100%,100%,0%,100%,100%,0%,100%,1%,0%,1%
MILES-EXPLORATORY LEARNING CENTER,1400 E BROADWAY BLVD,TUCSON,PIMA,85719,YES,RN,PUBLIC,37,97%,3%,100%,95%,3%,100%,89%,8%,100%,97%,3%,100%,100%,0%,100%,97%,3%,100%,100%,0%,100%,5%,5%,3%
MILESTONES PRESCHOOL & CHARTER SCHOOL,4707 EAST ROBERT E LEE STREET,PHOENIX,MARICOPA,85032,NO,,CHARTER,< 20 ,N/A,N/A,N/A,N/A,N/A,N/A,N/A,N/A,N/A,N/A,N/A,N/A,N/A,N/A,N/A,N/A,N/A,N/A,N/A,N/A,N/A,N/A,N/A,N/A
MINGUS SPRINGS CHARTER SCHOOL,3600 N SUNSET DR,CHINO VALLEY,YAVAPAI,86323,NO,,CHARTER,22,91%,9%,100%,68%,27%,100%,64%,32%,100%,91%,9%,100%,91%,9%,100%,91%,9%,100%,91%,9%,100%,27%,27%,9%
MIRAGE ELEMENTARY SCHOOL,3910 W GROVERS AVE,GLENDALE,MARICOPA,85308,YES,RN,PUBLIC,54,93%,0%,93%,93%,6%,98%,93%,6%,98%,100%,0%,100%,98%,0%,98%,98%,2%,100%,98%,2%,100%,7%,0%,6%
MISSION MANOR ELEMENTARY SCHOOL,600 W SANTA ROSA ST,TUCSON,PIMA,85706,YES,RN,PUBLIC,100,100%,0%,100%,100%,0%,100%,100%,0%,100%,100%,0%,100%,100%,0%,100%,100%,0%,100%,100%,0%,100%,0%,0%,0%
MISSION MONTESSORI NORTH,9575 EAST LARKSPUR DRIVE,SCOTTSDALE,MARICOPA,85260,NO,,CHARTER,34,79%,12%,100%,41%,12%,56%,38%,12%,53%,74%,12%,100%,79%,12%,100%,79%,12%,100%,79%,12%,91%,12%,0%,12%
MOHAVE ACCELERATED LEARNING CENTER,625 MARINA BLVD,BULLHEAD CITY,MOHAVE,86442,NO,,CHARTER,85,99%,0%,99%,99%,0%,99%,98%,0%,98%,99%,0%,99%,100%,0%,100%,100%,0%,100%,100%,0%,100%,0%,0%,0%
MOHAVE MIDDLE SCHOOL,5520 N 86TH ST,SCOTTSDALE,MARICOPA,85250,YES,RN,PUBLIC,285,96%,4%,100%,94%,6%,100%,94%,6%,100%,96%,4%,100%,96%,4%,100%,96%,4%,100%,96%,4%,100%,8%,1%,3%
MOHAVE VALLEY JUNIOR HIGH SCHOOL,6565 GIRARD AVE,MOHAVE VALLEY,MOHAVE,,NO,,PUBLIC,102,99%,1%,100%,92%,2%,94%,93%,2%,95%,99%,1%,100%,98%,1%,99%,98%,2%,100%,99%,1%,100%,1%,1%,1%
MONTE VISTA ELEMENTARY SCHOOL,3501 E OSBORN RD,PHOENIX,MARICOPA,85018,YES,RN,PUBLIC,92,99%,1%,100%,100%,0%,100%,99%,1%,100%,100%,0%,100%,100%,0%,100%,100%,0%,100%,100%,0%,100%,0%,1%,0%
MONTEBELLO SCHOOL,5725 N 27TH AVE,PHOENIX,MARICOPA,85017,YES,LPN,PUBLIC,169,92%,0%,100%,97%,0%,100%,97%,0%,100%,98%,0%,100%,100%,0%,100%,100%,0%,100%,100%,0%,100%,1%,2%,0%
MONTESSORI ACADEMY,6050 N INVERGORDON RD,PARADISE VALLEY,MARICOPA,85253,NO,,CHARTER,< 20 ,N/A,N/A,N/A,N/A,N/A,N/A,N/A,N/A,N/A,N/A,N/A,N/A,N/A,N/A,N/A,N/A,N/A,N/A,N/A,N/A,N/A,N/A,N/A,N/A
MONTESSORI CHARTER SCHOOL OF FLAGSTAFF - SWITZER,850 N LOCUST ST,FLAGSTAFF,COCONINO,,NO,,PUBLIC,< 20 ,N/A,N/A,N/A,N/A,N/A,N/A,N/A,N/A,N/A,N/A,N/A,N/A,N/A,N/A,N/A,N/A,N/A,N/A,N/A,N/A,N/A,N/A,N/A,N/A
MONTESSORI CHILDREN'S CENTRE,2834 EAST SOUTHERN AVENUE,MESA,MARICOPA,85204,NO,,PRIVATE,< 20 ,N/A,N/A,N/A,N/A,N/A,N/A,N/A,N/A,N/A,N/A,N/A,N/A,N/A,N/A,N/A,N/A,N/A,N/A,N/A,N/A,N/A,N/A,N/A,N/A
MONTESSORI DAY PUBLIC SCHOOLS  - MOUNTAINSIDE,9215 N 14TH ST,PHOENIX,MARICOPA,85020,NO,,CHARTER,24,100%,0%,100%,92%,8%,100%,83%,8%,92%,92%,8%,100%,100%,0%,100%,100%,0%,100%,100%,0%,100%,17%,0%,0%
MONTESSORI EDUCATION CENTRE CHARTER SCHOOL,815 N GILBERT RD,MESA,MARICOPA,85203,NO,,CHARTER,< 20 ,N/A,N/A,N/A,N/A,N/A,N/A,N/A,N/A,N/A,N/A,N/A,N/A,N/A,N/A,N/A,N/A,N/A,N/A,N/A,N/A,N/A,N/A,N/A,N/A
MOON MOUNTAIN SCHOOL,13425 N 19TH AVE,PHOENIX,MARICOPA,85029,NO,,PUBLIC,92,97%,3%,100%,93%,5%,100%,92%,7%,100%,96%,4%,100%,96%,4%,100%,97%,3%,100%,97%,3%,100%,8%,0%,3%
MORGAN MAXWELL SCHOOL,2802 W ANKLAM RD,TUCSON,PIMA,85745,YES,RN,PUBLIC,46,100%,0%,100%,93%,0%,93%,91%,0%,91%,100%,0%,100%,100%,0%,100%,100%,0%,100%,100%,0%,100%,0%,2%,0%
MORRIS K. UDALL ESCUELA DE BELLAS ARTES,3715 W ROOSEVELT ST,PHOENIX,MARICOPA,85009,YES,LPN,PUBLIC,252,100%,0%,100%,96%,0%,100%,96%,0%,100%,99%,0%,100%,100%,0%,100%,99%,0%,100%,100%,0%,100%,0%,0%,0%
MORRISTOWN ELEMENTARY SCHOOL,25950 W ROCKAWAY HILLS DR,MORRISTOWN,MARICOPA,85342,NO,,PUBLIC,< 20 ,N/A,N/A,N/A,N/A,N/A,N/A,N/A,N/A,N/A,N/A,N/A,N/A,N/A,N/A,N/A,N/A,N/A,N/A,N/A,N/A,N/A,N/A,N/A,N/A
MOST HOLY TRINITY CATHOLIC SCHOOL,535 E ALICE AVE,PHOENIX,MARICOPA,85020,YES,RN,PRIVATE,27,96%,4%,100%,59%,4%,63%,44%,4%,48%,93%,4%,100%,96%,4%,100%,96%,4%,100%,96%,4%,100%,4%,0%,4%
MOUNT ELDEN MIDDLE SCHOOL,3323 N 4TH ST,FLAGSTAFF,COCONINO,86004,YES,RN,PUBLIC,286,97%,3%,100%,96%,2%,100%,94%,4%,100%,97%,3%,100%,97%,3%,100%,97%,3%,100%,100%,0%,100%,5%,1%,4%
MOUNT TIPTON SCHOOL,16500 N PIERCE FERRY RD,DOLAN SPRINGS,MOHAVE,86441,YES,RN,PUBLIC,< 20 ,N/A,N/A,N/A,N/A,N/A,N/A,N/A,N/A,N/A,N/A,N/A,N/A,N/A,N/A,N/A,N/A,N/A,N/A,N/A,N/A,N/A,N/A,N/A,N/A
MOUNTAIN CHRISTIAN SCHOOL,3171 SHOW LOW LAKE RD,SHOW LOW,NAVAJO,85901,YES,RN,PRIVATE,< 20 ,N/A,N/A,N/A,N/A,N/A,N/A,N/A,N/A,N/A,N/A,N/A,N/A,N/A,N/A,N/A,N/A,N/A,N/A,N/A,N/A,N/A,N/A,N/A,N/A
MOUNTAIN OAK CHARTER SCHOOL,1455 WILLOW CREEK RD,PRESCOTT,YAVAPAI,86301,NO,,CHARTER,22,73%,27%,100%,14%,27%,45%,5%,27%,36%,64%,27%,91%,59%,27%,86%,68%,27%,95%,68%,27%,95%,27%,0%,27%
MOUNTAIN SHADOWS ELEMENTARY SCHOOL,19602 N 45TH AVE,GLENDALE,MARICOPA,85308,NO,,PUBLIC,63,92%,8%,100%,90%,10%,100%,87%,13%,100%,95%,5%,100%,94%,6%,100%,94%,5%,100%,97%,3%,100%,13%,0%,3%
MOUNTAIN VIEW ELEMENTARY SCHOOL,8601 E LOOS DR,PRESCOTT VALLEY,YAVAPAI,86314,YES,RN,PUBLIC,67,97%,3%,100%,96%,4%,100%,96%,4%,100%,96%,4%,100%,96%,4%,100%,96%,4%,100%,96%,4%,100%,4%,0%,1%
MOUNTAIN VIEW ELEMENTARY SCHOOL,801 W PEORIA AVE,PHOENIX,MARICOPA,85029,NO,,PUBLIC,141,99%,1%,100%,99%,1%,99%,99%,1%,99%,99%,1%,100%,99%,1%,100%,100%,0%,100%,99%,1%,100%,2%,0%,0%
MOUNTAIN VIEW PREPARATORY,1500 S MONTE TESORO DR,COTTONWOOD,YAVAPAI,86326,YES,RN,PUBLIC,76,86%,14%,100%,67%,18%,100%,71%,14%,100%,86%,14%,100%,84%,16%,100%,84%,16%,100%,84%,16%,100%,22%,1%,14%
MOUNTAIN VIEW SCHOOL,18302 W BURTON AVE,WADDELL,MARICOPA,85355,NO,,PUBLIC,107,100%,0%,100%,95%,5%,100%,94%,6%,100%,100%,0%,100%,100%,0%,100%,99%,1%,100%,100%,0%,100%,6%,0%,0%
MOUNTAIN VISTA SCHOOL,2618 EL PASEO,ORACLE,PINAL,85623,NO,,PRIVATE,26,100%,0%,100%,100%,0%,100%,100%,0%,100%,100%,0%,100%,100%,0%,100%,100%,0%,100%,100%,0%,100%,0%,0%,0%
MOUNTAINSIDE MIDDLE SCHOOL,11256 N 128TH ST,SCOTTSDALE,MARICOPA,85259,YES,RN,PUBLIC,209,97%,3%,100%,90%,6%,97%,89%,6%,97%,97%,3%,100%,98%,2%,100%,98%,2%,100%,93%,7%,100%,7%,0%,2%
NACO ELEMENTARY SCHOOL,1911 W VALENZUELA ST,NACO,COCHISE,,NO,,PUBLIC,35,94%,0%,100%,97%,0%,97%,97%,0%,97%,97%,0%,100%,94%,0%,100%,100%,0%,100%,97%,0%,97%,0%,0%,0%
NADABURG ELEMENTARY SCHOOL,21419 W DOVE VALLEY RD,WITTMANN,MARICOPA,85361,NO,,PUBLIC,30,87%,13%,100%,87%,13%,100%,87%,13%,100%,87%,13%,100%,87%,13%,100%,87%,13%,100%,87%,13%,100%,13%,0%,0%
NAUTILUS ELEMENTARY SCHOOL,1425 PATRICIAN DR,LAKE HAVASU CITY,MOHAVE,86404,YES,RN,PUBLIC,51,96%,4%,100%,94%,2%,100%,94%,2%,100%,96%,4%,100%,96%,4%,100%,98%,2%,100%,96%,4%,100%,6%,0%,4%
NAVARRETE ELEMENTARY,6490 SOUTH SUN GROVES BOULEVARD,CHANDLER,MARICOPA,85249,NO,,PUBLIC,126,98%,2%,100%,89%,10%,100%,90%,9%,100%,98%,2%,100%,98%,2%,100%,98%,2%,100%,98%,2%,100%,10%,1%,1%
NAYLOR MIDDLE SCHOOL,1701 S COLUMBUS BLVD,TUCSON,PIMA,85711,YES,RN,PUBLIC,107,96%,1%,100%,90%,1%,91%,89%,1%,90%,99%,1%,100%,100%,0%,100%,99%,1%,100%,100%,0%,100%,1%,0%,1%
NEELY TRADITIONAL ACADEMY,321 W JUNIPER AVE,GILBERT,MARICOPA,85233,NO,,PUBLIC,100,97%,3%,100%,90%,2%,100%,95%,4%,100%,96%,4%,100%,98%,2%,100%,97%,3%,100%,95%,5%,100%,8%,0%,1%
NEW HORIZON SCHOOL FOR THE PERFORMING ART,446 E BROADWAY RD,MESA,MARICOPA,85204,NO,,CHARTER,< 20 ,N/A,N/A,N/A,N/A,N/A,N/A,N/A,N/A,N/A,N/A,N/A,N/A,N/A,N/A,N/A,N/A,N/A,N/A,N/A,N/A,N/A,N/A,N/A,N/A
NEW RIVER ELEMENTARY SCHOOL,48827 N BLACK CANYON HWY,PHOENIX,MARICOPA,85087,YES,LPN,PUBLIC,29,97%,3%,100%,90%,7%,100%,90%,7%,100%,97%,3%,100%,97%,3%,100%,97%,3%,100%,97%,3%,100%,7%,0%,7%
NEW SCHOOL FOR THE ARTS MIDDLE SCHOOL,1216 E APACHE BLVD,TEMPE,MARICOPA,,NO,,CHARTER,< 20 ,N/A,N/A,N/A,N/A,N/A,N/A,N/A,N/A,N/A,N/A,N/A,N/A,N/A,N/A,N/A,N/A,N/A,N/A,N/A,N/A,N/A,N/A,N/A,N/A
NEW VISTAS ACADEMY,"670 N ARIZONA AVE, STE 35",CHANDLER,MARICOPA,85225,NO,,PRIVATE,< 20 ,N/A,N/A,N/A,N/A,N/A,N/A,N/A,N/A,N/A,N/A,N/A,N/A,N/A,N/A,N/A,N/A,N/A,N/A,N/A,N/A,N/A,N/A,N/A,N/A
NEW WAY ACADEMY,5048 E OAK ST,PHOENIX,MARICOPA,85008,NO,,PRIVATE,36,81%,11%,92%,78%,11%,89%,78%,11%,89%,81%,11%,92%,81%,11%,92%,81%,11%,92%,81%,11%,92%,11%,0%,8%
NEW WORLD EDUCATIONAL CENTER,5818 N 7TH ST,PHOENIX,MARICOPA,85014,NO,,CHARTER,32,97%,3%,100%,97%,3%,100%,97%,3%,100%,97%,3%,100%,97%,3%,100%,97%,3%,100%,97%,3%,100%,3%,0%,3%
NEWELL BARNEY MIDDLE SCHOOL,24937 S SOSSAMAN RD,QUEEN CREEK,MARICOPA,85242,YES,RN,PUBLIC,241,95%,5%,100%,92%,7%,100%,92%,7%,100%,95%,5%,100%,95%,5%,100%,96%,4%,100%,96%,4%,100%,4%,0%,3%
NOAH WEBSTER SCHOOLS-- MESA,7301 EAST BASELINE ROAD,MESA,MARICOPA,85209,NO,,CHARTER,124,97%,3%,100%,90%,10%,100%,91%,9%,100%,97%,2%,100%,96%,4%,100%,97%,3%,100%,97%,3%,100%,10%,0%,2%
NOAH WEBSTER SCHOOLS-PIMA,5399 N PIMA RD,SCOTTSDALE,MARICOPA,85250,NO,,CHARTER,32,97%,3%,100%,88%,13%,100%,88%,13%,100%,97%,3%,100%,100%,0%,100%,100%,0%,100%,100%,0%,100%,13%,0%,0%
NORTERRA CANYON K-8,2200 W MAYA WAY,PHOENIX,MARICOPA,85085,YES,RN,PUBLIC,104,94%,6%,100%,90%,9%,100%,89%,10%,100%,94%,6%,100%,93%,7%,100%,95%,5%,100%,96%,4%,100%,10%,0%,10%
NORTH RANCH ELEMENTARY SCHOOL,16406 N 61ST PL,SCOTTSDALE,MARICOPA,85254,YES,RN,PUBLIC,70,94%,6%,100%,96%,4%,100%,96%,4%,100%,96%,4%,100%,94%,6%,100%,97%,3%,100%,97%,3%,100%,4%,0%,4%
NORTH VALLEY CHRISTIAN ACADEMY,33655 N. 27TH DR.,PHOENIX,MARICOPA,85085,YES,RN,PRIVATE,< 20 ,N/A,N/A,N/A,N/A,N/A,N/A,N/A,N/A,N/A,N/A,N/A,N/A,N/A,N/A,N/A,N/A,N/A,N/A,N/A,N/A,N/A,N/A,N/A,N/A
NORTHLAND PREPARATORY ACADEMY,3300 E SPARROW AVE,FLAGSTAFF,COCONINO,86004,NO,,CHARTER,102,97%,3%,100%,78%,5%,84%,78%,5%,84%,95%,5%,100%,96%,4%,100%,92%,8%,100%,94%,6%,100%,11%,2%,3%
NORTHWEST CHRISTIAN SCHOOL - MAIN CAMPUS,16615 N 43RD AVE,PHOENIX,MARICOPA,,YES,RN,PRIVATE,104,91%,9%,100%,85%,14%,100%,84%,15%,100%,90%,10%,100%,90%,10%,100%,91%,9%,100%,92%,8%,100%,18%,1%,6%
OAK CREEK SCHOOL,11490 PURPLE SAGE DR,CORNVILLE,YAVAPAI,86325,NO,,PUBLIC,26,100%,0%,100%,81%,8%,88%,81%,8%,88%,100%,0%,100%,100%,0%,100%,100%,0%,100%,100%,0%,100%,8%,0%,0%
OASIS ELEMENTARY SCHOOL,7841 W SWEETWATER AVE,PEORIA,MARICOPA,85381,YES,LPN,PUBLIC,92,98%,2%,100%,95%,5%,100%,95%,5%,100%,98%,2%,100%,98%,2%,100%,100%,0%,100%,99%,1%,100%,7%,0%,0%
OCOTILLO SCHOOL,3225 W OCOTILLO RD,PHOENIX,MARICOPA,85017,NO,,PUBLIC,105,99%,1%,100%,96%,2%,99%,94%,2%,97%,99%,1%,100%,99%,1%,100%,100%,0%,100%,100%,0%,100%,2%,0%,0%
OLD VAIL MIDDLE SCHOOL,13299 E COLOSSAL CAVE RD,VAIL,PIMA,85641,NO,,PUBLIC,257,96%,4%,100%,95%,5%,100%,94%,5%,100%,96%,4%,100%,96%,4%,100%,95%,5%,100%,97%,3%,100%,4%,1%,3%
OMEGA ALPHA ACADEMY SCHOOL,1402 SAN ANTONIO AVE,DOUGLAS,COCHISE,85607,NO,,CHARTER,< 20 ,N/A,N/A,N/A,N/A,N/A,N/A,N/A,N/A,N/A,N/A,N/A,N/A,N/A,N/A,N/A,N/A,N/A,N/A,N/A,N/A,N/A,N/A,N/A,N/A
OPEN DOORS COMMUNITY SCHOOL,13644 N. SANDARIO RD,MARANA,PIMA,85653,NO,,PUBLIC,< 20 ,N/A,N/A,N/A,N/A,N/A,N/A,N/A,N/A,N/A,N/A,N/A,N/A,N/A,N/A,N/A,N/A,N/A,N/A,N/A,N/A,N/A,N/A,N/A,N/A
ORANGE GROVE MIDDLE SCHOOL,1911 E ORANGE GROVE RD,TUCSON,PIMA,85718,YES,RN,PUBLIC,231,97%,3%,100%,94%,5%,100%,93%,6%,100%,98%,2%,100%,98%,2%,100%,98%,2%,100%,98%,2%,100%,6%,3%,2%
ORANGEWOOD ELEMENTARY SCHOOL,7337 N 19TH AVE,PHOENIX,MARICOPA,85021,NO,,PUBLIC,134,98%,2%,100%,98%,2%,100%,98%,1%,100%,99%,1%,100%,99%,1%,100%,100%,0%,100%,100%,0%,100%,2%,1%,1%
ORO GRANDE ELEMENTARY SCHOOL,1250 PAWNEE DR,LAKE HAVASU CITY,MOHAVE,86406,NO,,PUBLIC,50,96%,4%,100%,100%,0%,100%,96%,4%,100%,98%,2%,100%,98%,2%,100%,98%,2%,100%,98%,2%,100%,4%,0%,2%
OUR LADY OF LOURDES ACADEMY,555 PATAGONIA RD,NOGALES,SANTA CRUZ,,NO,,PRIVATE,30,100%,0%,100%,100%,0%,100%,100%,0%,100%,100%,0%,100%,100%,0%,100%,100%,0%,100%,100%,0%,100%,0%,0%,0%
OUR LADY OF MOUNT CARMEL SCHOOL,2117 S RURAL RD,TEMPE,MARICOPA,85282,YES,Both,PRIVATE,38,100%,0%,100%,95%,3%,100%,95%,3%,100%,100%,0%,100%,100%,0%,100%,100%,0%,100%,100%,0%,100%,3%,0%,0%
OUR LADY OF PERPETUAL HELP SCHOOL,5614 W ORANGEWOOD AVE,GLENDALE,MARICOPA,85301,NO,,PRIVATE,27,100%,0%,100%,100%,0%,100%,78%,0%,100%,100%,0%,100%,100%,0%,100%,100%,0%,100%,100%,0%,100%,0%,0%,0%
OUR LADY OF PERPETUAL HELP SCHOOL,3801 N MILLER RD,SCOTTSDALE,MARICOPA,85251,NO,,PRIVATE,50,92%,8%,100%,90%,10%,100%,90%,10%,100%,92%,8%,100%,92%,8%,100%,92%,8%,100%,92%,8%,100%,8%,0%,8%
OUR MOTHER OF SORROWS SCHOOL,1800 S KOLB RD,TUCSON,PIMA,85710,NO,,PRIVATE,47,98%,2%,100%,98%,2%,100%,91%,2%,100%,98%,2%,100%,98%,2%,100%,98%,2%,100%,98%,2%,100%,2%,0%,2%
P.E.S.D.#1 - SHAW MONTESSORI SCHOOL,123 NORTH 13TH STREET,PHOENIX,MARICOPA,85034,YES,RN,PUBLIC,25,88%,12%,100%,88%,12%,100%,80%,20%,100%,88%,12%,100%,84%,16%,100%,88%,12%,100%,100%,0%,100%,24%,0%,8%
PAINTED DESERT MONTESSORI,4200 S 247TH AVE,BUCKEYE,MARICOPA,85326,NO,,CHARTER,49,78%,10%,88%,90%,10%,100%,82%,10%,94%,67%,10%,78%,82%,10%,92%,88%,10%,98%,84%,10%,94%,10%,0%,10%
PALOMINAS ELEMENTARY SCHOOL,10385 E HWY 92,HEREFORD,COCHISE,85615,YES,LPN,PUBLIC,66,98%,2%,100%,97%,3%,100%,97%,3%,100%,100%,0%,100%,100%,0%,100%,100%,0%,100%,98%,2%,100%,5%,0%,0%
PALOMINO INTERMEDIATE SCHOOL,15815 N 29TH ST,PHOENIX,MARICOPA,85032,YES,RN,PUBLIC,163,94%,1%,95%,99%,1%,100%,94%,1%,95%,98%,1%,99%,98%,1%,98%,99%,1%,100%,99%,1%,100%,1%,1%,1%
PAN-AMERICAN ELEMENTARY CHARTER SCHOOL,3001 W INDIAN SCHOOL RD,PHOENIX,MARICOPA,85017,NO,,CHARTER,72,99%,0%,100%,99%,0%,100%,99%,0%,100%,99%,0%,100%,97%,0%,100%,100%,0%,100%,100%,0%,100%,0%,0%,0%
PAPAGO SCHOOL,2013 N 36TH ST,PHOENIX,MARICOPA,85008,YES,RN,PUBLIC,96,98%,1%,99%,94%,1%,95%,94%,1%,95%,100%,0%,100%,100%,0%,100%,99%,0%,99%,100%,0%,100%,1%,0%,1%
PARADISE HONORS ELEMENTARY SCHOOL,15533 W PARADISE LN,SURPRISE,MARICOPA,85374,YES,RN,CHARTER,213,95%,5%,100%,91%,8%,100%,91%,9%,100%,95%,5%,100%,95%,5%,100%,95%,5%,100%,95%,5%,100%,9%,0%,9%
PARADISE VALLEY CHRISTIAN PREPARATORY,11875 N 24TH ST,PHOENIX,MARICOPA,85028,YES,RN,PRIVATE,22,91%,9%,100%,91%,9%,100%,91%,9%,100%,91%,9%,100%,91%,9%,100%,91%,9%,100%,91%,9%,100%,9%,0%,9%
PARAGON SCIENCE ACADEMY,2975 W LINDA LN,CHANDLER,MARICOPA,85224,NO,,CHARTER,46,100%,0%,100%,100%,0%,100%,100%,0%,100%,100%,0%,100%,100%,0%,100%,100%,0%,100%,100%,0%,100%,0%,0%,0%
PARAMOUNT ACADEMY,11039 W OLIVE AVE,PEORIA,MARICOPA,85345,NO,,CHARTER,34,100%,0%,100%,94%,6%,100%,94%,6%,100%,100%,0%,100%,100%,0%,100%,100%,0%,100%,100%,0%,100%,6%,6%,0%
PARDES JEWISH DAY SCHOOL,12753 N SCOTTSDALE RD,SCOTTSDALE,MARICOPA,85254,YES,RN,PRIVATE,30,97%,3%,100%,97%,3%,100%,97%,3%,100%,93%,7%,100%,90%,10%,100%,90%,10%,100%,93%,7%,100%,10%,0%,3%
PARK MEADOWS ELEMENTARY SCHOOL,20012 N 35TH AVE,GLENDALE,MARICOPA,85308,YES,RN,PUBLIC,88,94%,1%,100%,92%,8%,100%,94%,6%,100%,99%,1%,100%,99%,1%,100%,99%,1%,100%,99%,1%,100%,5%,1%,1%
PARKRIDGE ELEMENTARY,9970 W BEARDSLEY RD,PEORIA,MARICOPA,85382,YES,RN,PUBLIC,119,98%,2%,100%,94%,6%,100%,94%,6%,100%,98%,2%,100%,98%,2%,100%,97%,3%,100%,97%,3%,100%,6%,0%,2%
PARKVIEW ELEMENTARY,15800 N PARKVIEW PL,SURPRISE,MARICOPA,85374,YES,LPN,PUBLIC,81,99%,1%,100%,96%,1%,100%,95%,5%,100%,98%,0%,98%,99%,0%,99%,99%,1%,100%,98%,2%,100%,4%,0%,1%
PASEO HILLS ELEMENTARY,3302 W LOUISE DR,PHOENIX,MARICOPA,85027,YES,RN,PUBLIC,109,97%,3%,100%,92%,8%,100%,91%,8%,99%,97%,3%,100%,98%,2%,100%,98%,2%,100%,99%,1%,100%,8%,0%,1%
PASEO POINTE SCHOOL,8800 S 55TH AVE,LAVEEN,MARICOPA,85339,NO,,PUBLIC,89,98%,2%,100%,90%,3%,97%,88%,3%,94%,98%,1%,99%,99%,1%,100%,99%,1%,100%,99%,1%,100%,3%,0%,1%
PASEO VERDE ELEMENTARY SCHOOL,7880 W GREENWAY RD,PEORIA,MARICOPA,85381,YES,RN,PUBLIC,92,98%,2%,100%,73%,7%,80%,70%,7%,77%,95%,5%,100%,97%,3%,100%,97%,3%,100%,100%,0%,100%,7%,0%,3%
PATHFINDER ACADEMY,2906 N BOULDER CANYON,MESA,MARICOPA,85207,NO,,CHARTER,45,67%,33%,100%,51%,47%,100%,49%,49%,100%,67%,33%,100%,67%,33%,100%,67%,33%,100%,67%,33%,100%,49%,0%,33%
PATHFINDER ACADEMY AT EASTMARK,4850 S EASTMARK PKWY,MESA,MARICOPA,85212,NO,,CHARTER,< 20 ,N/A,N/A,N/A,N/A,N/A,N/A,N/A,N/A,N/A,N/A,N/A,N/A,N/A,N/A,N/A,N/A,N/A,N/A,N/A,N/A,N/A,N/A,N/A,N/A
PATTERSON ELEMENTARY SCHOOL,1211 E GUADALUPE RD,GILBERT,MARICOPA,85234,YES,RN,PUBLIC,78,95%,5%,100%,87%,4%,100%,87%,5%,100%,95%,5%,100%,95%,5%,100%,95%,5%,100%,96%,4%,100%,4%,5%,3%
PAUL DUNBAR LAWRENCE SCHOOL,707 W GRANT ST,PHOENIX,MARICOPA,85007,YES,RN,PUBLIC,43,100%,0%,100%,88%,0%,88%,84%,0%,84%,100%,0%,100%,100%,0%,100%,100%,0%,100%,98%,0%,98%,0%,0%,0%
PAUL H HUBER JR HIGH SCHOOL,1650 WASHINGTON AVE,DOUGLAS,COCHISE,85607,YES,RN,PUBLIC,162,100%,0%,100%,98%,1%,99%,98%,1%,99%,100%,0%,100%,100%,0%,100%,100%,0%,100%,99%,0%,99%,1%,0%,0%
PAULO FREIRE FREEDOM SCHOOL,300 E UNIVERSITY BLVD,TUCSON,PIMA,85705,NO,,CHARTER,25,88%,8%,96%,72%,12%,84%,68%,12%,80%,84%,12%,96%,88%,8%,96%,88%,8%,96%,88%,8%,96%,16%,4%,8%
PAULO FREIRE FREEDOM SCHOOL - DOWNTOWN,47 E PENNINGTON ST,TUCSON,PIMA,85701,NO,,CHARTER,24,88%,13%,100%,79%,21%,100%,79%,21%,100%,88%,13%,100%,88%,13%,100%,88%,13%,100%,92%,8%,100%,21%,0%,13%
PEACH SPRINGS SCHOOL,403 DIAMOND CREEK RD,PEACH SPRINGS,MOHAVE,86434,NO,,PUBLIC,< 20 ,N/A,N/A,N/A,N/A,N/A,N/A,N/A,N/A,N/A,N/A,N/A,N/A,N/A,N/A,N/A,N/A,N/A,N/A,N/A,N/A,N/A,N/A,N/A,N/A
PEARCE ELEMENTARY SCHOOL,1487 E SCHOOL RD,PEARCE,COCHISE,85625,NO,,PUBLIC,< 20 ,N/A,N/A,N/A,N/A,N/A,N/A,N/A,N/A,N/A,N/A,N/A,N/A,N/A,N/A,N/A,N/A,N/A,N/A,N/A,N/A,N/A,N/A,N/A,N/A
PEDRO GUERRERO ELEMENTARY,463 S ALMA SCHOOL RD,MESA,MARICOPA,85210,YES,RN,PUBLIC,90,99%,1%,100%,99%,0%,100%,99%,0%,100%,99%,1%,100%,99%,1%,100%,99%,1%,100%,100%,0%,100%,1%,0%,0%
PENDERGAST ELEMENTARY SCHOOL,3802 N 91ST AVE,PHOENIX,MARICOPA,85037,NO,,PUBLIC,114,99%,1%,100%,94%,4%,100%,94%,4%,100%,99%,1%,100%,99%,1%,100%,99%,1%,100%,99%,1%,100%,4%,0%,1%
PEORIA ELEMENTARY SCHOOL,11501 N 79TH AVE,PEORIA,MARICOPA,85345,YES,LPN,PUBLIC,65,97%,0%,97%,22%,0%,22%,9%,0%,9%,94%,3%,97%,100%,0%,100%,94%,3%,97%,97%,2%,98%,5%,0%,0%
PEORIA TRADITIONAL SCHOOL,21180 N 87TH AVE,PEORIA,MARICOPA,85382,YES,RN,PUBLIC,25,92%,8%,100%,88%,8%,96%,88%,8%,96%,92%,8%,100%,92%,8%,100%,92%,8%,100%,100%,0%,100%,8%,0%,0%
PERALTA TRAIL ELEMENTARY SCHOOL,10965 E PERALTA RD,GOLD CANYON,PINAL,85118,YES,RN,PUBLIC,90,98%,2%,100%,97%,3%,100%,97%,3%,100%,98%,2%,100%,98%,2%,100%,98%,2%,100%,98%,2%,100%,3%,0%,2%
PERCY L JULIAN SCHOOL,2149 E CARVER DR,PHOENIX,MARICOPA,85040,YES,LPN,PUBLIC,70,96%,3%,99%,93%,3%,96%,93%,3%,96%,96%,3%,99%,96%,3%,99%,96%,3%,99%,96%,3%,99%,3%,0%,3%
PHOENIX CHRISTIAN JR/SR HIGH SCHOOL,1751 W INDIAN SCHOOL RD,PHOENIX,MARICOPA,85015,NO,,PRIVATE,22,95%,5%,100%,82%,5%,86%,82%,5%,86%,100%,0%,100%,100%,0%,100%,100%,0%,100%,100%,0%,100%,5%,0%,0%
PHOENIX CHRISTIAN K-8 SCHOOL,2425 N 26TH ST,PHOENIX,MARICOPA,85008,NO,,PRIVATE,< 20 ,N/A,N/A,N/A,N/A,N/A,N/A,N/A,N/A,N/A,N/A,N/A,N/A,N/A,N/A,N/A,N/A,N/A,N/A,N/A,N/A,N/A,N/A,N/A,N/A
PHOENIX COLLEGIATE ACADEMY CHARTER SCHOOL,5610 S CENTRAL AVE,PHOENIX,MARICOPA,85040,NO,,CHARTER,49,88%,0%,88%,69%,0%,69%,69%,0%,69%,88%,0%,88%,92%,0%,92%,92%,0%,92%,96%,0%,96%,0%,0%,0%
PHOENIX COUNTRY DAY SCHOOL,3901 E STANFORD DR,PARADISE VALLEY,MARICOPA,85253,YES,RN,PRIVATE,67,99%,1%,100%,97%,1%,100%,96%,3%,100%,97%,3%,100%,99%,1%,100%,99%,1%,100%,99%,1%,100%,3%,0%,1%
PHOENIX DAY SCHOOL FOR THE DEAF,7654 N 19TH AVE,PHOENIX,MARICOPA,85021,YES,LPN,PUBLIC,23,100%,0%,100%,100%,0%,100%,100%,0%,100%,100%,0%,100%,100%,0%,100%,100%,0%,100%,100%,0%,100%,0%,0%,0%
PHOENIX HEBREW ACADEMY,515 E BETHANY HOME RD,PHOENIX,MARICOPA,85012,NO,,PRIVATE,< 20 ,N/A,N/A,N/A,N/A,N/A,N/A,N/A,N/A,N/A,N/A,N/A,N/A,N/A,N/A,N/A,N/A,N/A,N/A,N/A,N/A,N/A,N/A,N/A,N/A
PICACHO SCHOOL,17865 S VAIL RD,PICACHO,PINAL,85141,NO,,PUBLIC,22,91%,5%,95%,86%,5%,91%,86%,5%,91%,91%,5%,95%,91%,5%,95%,82%,5%,86%,95%,5%,100%,5%,0%,5%
PICTURE ROCKS ELEMENTARY SCHOOL,5875 N SANDERS RD,TUCSON,PIMA,85743,NO,,PUBLIC,92,97%,3%,100%,90%,3%,93%,89%,3%,92%,98%,2%,100%,98%,2%,100%,97%,3%,100%,98%,2%,100%,7%,0%,1%
PIMA ELEMENTARY SCHOOL,101 S MAIN ST,PIMA,GRAHAM,,YES,RN,PUBLIC,79,95%,5%,100%,91%,3%,94%,87%,3%,90%,96%,4%,100%,96%,4%,100%,99%,1%,100%,99%,1%,100%,5%,0%,1%
PIMA PARTNERSHIP ACADEMY,1346 N STONE AVE,TUCSON,PIMA,85705,YES,LPN,CHARTER,22,100%,0%,100%,100%,0%,100%,100%,0%,100%,100%,0%,100%,95%,0%,100%,100%,0%,100%,100%,0%,100%,0%,0%,0%
PINE FOREST CHARTER SCHOOL,2257 EAST CEDAR AVENUE,FLAGSTAFF,COCONINO,86004,NO,,CHARTER,26,69%,23%,100%,77%,23%,100%,73%,23%,96%,69%,23%,96%,69%,23%,96%,65%,23%,88%,69%,23%,92%,23%,0%,23%
PINE STRAWBERRY ELEMENTARY SCHOOL,3868 N PINE CREEK DR,PINE,GILA,85544,NO,,PUBLIC,< 20 ,N/A,N/A,N/A,N/A,N/A,N/A,N/A,N/A,N/A,N/A,N/A,N/A,N/A,N/A,N/A,N/A,N/A,N/A,N/A,N/A,N/A,N/A,N/A,N/A
PINNACLE PEAK ELEMENTARY,7690 E WILLIAMS DR,SCOTTSDALE,MARICOPA,85255,NO,,PUBLIC,99,96%,4%,100%,91%,8%,100%,89%,10%,100%,97%,3%,100%,98%,2%,100%,96%,4%,100%,99%,1%,100%,10%,0%,1%
PINNACLE POINTE ACADEMY,6753 W PINNACLE PEAK RD,GLENDALE,MARICOPA,85310,NO,,CHARTER,< 20 ,N/A,N/A,N/A,N/A,N/A,N/A,N/A,N/A,N/A,N/A,N/A,N/A,N/A,N/A,N/A,N/A,N/A,N/A,N/A,N/A,N/A,N/A,N/A,N/A
PINON MIDDLE SCHOOL,NAVAJO HWY 41,PINON,NAVAJO,86510,YES,RN,PUBLIC,103,100%,0%,100%,96%,1%,98%,97%,0%,98%,100%,0%,100%,100%,0%,100%,100%,0%,100%,100%,0%,100%,0%,0%,0%
PIONEER ELEMENTARY SCHOOL,1535 N GREENFIELD RD,GILBERT,MARICOPA,85234,YES,RN,PUBLIC,85,98%,2%,100%,100%,0%,100%,95%,4%,99%,99%,1%,100%,99%,1%,100%,98%,1%,99%,99%,1%,100%,5%,0%,1%
PIONEER PREPARATORY - A CHALLENGE FOUNDAT,6510 W CLARENDON AVE,PHOENIX,MARICOPA,85033,NO,,CHARTER,92,100%,0%,100%,95%,0%,100%,95%,0%,100%,100%,0%,100%,100%,0%,100%,100%,0%,100%,100%,0%,100%,0%,0%,0%
PISTOR MIDDLE SCHOOL,5455 S CARDINAL AVE,TUCSON,PIMA,85746,YES,RN,PUBLIC,263,100%,0%,100%,100%,0%,100%,98%,0%,98%,100%,0%,100%,100%,0%,100%,100%,0%,100%,100%,0%,100%,0%,0%,0%
PLAYA DEL REY ELEMENTARY SCHOOL,550 N HORNE,GILBERT,MARICOPA,85233,YES,RN,PUBLIC,59,100%,0%,100%,93%,2%,100%,93%,2%,100%,100%,0%,100%,100%,0%,100%,100%,0%,100%,100%,0%,100%,2%,0%,0%
POMERENE ELEMENTARY SCHOOL,1396 N OLD POMERENE RD,POMERENE,COCHISE,85627,NO,,PUBLIC,< 20 ,N/A,N/A,N/A,N/A,N/A,N/A,N/A,N/A,N/A,N/A,N/A,N/A,N/A,N/A,N/A,N/A,N/A,N/A,N/A,N/A,N/A,N/A,N/A,N/A
POMEROY ELEMENTARY SCHOOL,1507 W SHAWNEE DR,CHANDLER,MARICOPA,85224,YES,RN,PUBLIC,84,98%,2%,100%,92%,4%,98%,93%,2%,98%,98%,2%,100%,98%,2%,100%,98%,2%,100%,98%,2%,100%,4%,0%,2%
PORTER ELEMENTARY SCHOOL,1350 S LINDSAY,MESA,MARICOPA,85204,YES,RN,PUBLIC,82,96%,4%,100%,91%,6%,99%,91%,6%,99%,95%,5%,100%,95%,5%,100%,98%,2%,100%,95%,5%,100%,6%,0%,6%
POWER RANCH ELEMENTARY,4351 S RANCH HOUSE PARKWAY,GILBERT,MARICOPA,85297,NO,,PUBLIC,97,96%,4%,100%,68%,30%,98%,69%,29%,98%,96%,4%,100%,97%,3%,100%,96%,4%,100%,96%,4%,100%,30%,4%,3%
PRESCOTT VALLEY SCHOOL,9500 E. LORNA LN,PRESCOTT VALLEY,YAVAPAI,86314,NO,,CHARTER,29,97%,3%,100%,59%,41%,100%,59%,41%,100%,97%,3%,100%,97%,3%,100%,100%,0%,100%,100%,0%,100%,41%,0%,0%
PRESIDIO HIGH SCHOOL,1695 E FORT LOWELL RD,TUCSON,PIMA,85719,NO,,CHARTER,35,100%,0%,100%,89%,0%,100%,74%,17%,100%,100%,0%,100%,100%,0%,100%,100%,0%,100%,100%,0%,100%,17%,0%,0%
PRIMAVERA SCHOOL INC,1446 MOYER ROAD,PRESCOTT,YAVAPAI,86303,NO,,PRIVATE,< 20 ,N/A,N/A,N/A,N/A,N/A,N/A,N/A,N/A,N/A,N/A,N/A,N/A,N/A,N/A,N/A,N/A,N/A,N/A,N/A,N/A,N/A,N/A,N/A,N/A
PUEBLO DEL SOL ELEMENTARY SCHOOL,5130 PASEO LAS PALMAS,SIERRA VISTA,COCHISE,85635,YES,RN,PUBLIC,78,99%,1%,100%,96%,4%,100%,95%,5%,100%,99%,1%,100%,99%,1%,100%,97%,3%,100%,100%,0%,100%,5%,0%,1%
PUEBLO DEL SOL MIDDLE SCHOOL,3449 N 39TH AVE,PHOENIX,MARICOPA,85019,YES,LPN,PUBLIC,211,98%,0%,98%,74%,0%,74%,72%,0%,72%,98%,0%,98%,100%,0%,100%,100%,0%,100%,100%,0%,100%,1%,0%,0%
PUEBLO ELEMENTARY SCHOOL,2803 W 20TH ST,YUMA,YUMA,85364,NO,,PUBLIC,97,99%,1%,100%,97%,3%,100%,97%,3%,100%,99%,1%,100%,99%,1%,100%,99%,1%,100%,99%,1%,100%,3%,0%,3%
PUEBLO GARDENS ELEMENTARY SCHOOL,2210 E 33RD,TUCSON,PIMA,85713,YES,RN,PUBLIC,43,100%,0%,100%,95%,2%,100%,95%,2%,100%,100%,0%,100%,100%,0%,100%,100%,0%,100%,100%,0%,100%,2%,2%,2%
PUSCH RIDGE CHRISTIAN ACADEMY,9500 N ORACLE RD,TUCSON,PIMA,85704,NO,,PRIVATE,59,97%,2%,98%,97%,2%,98%,24%,2%,98%,97%,2%,98%,97%,2%,98%,97%,2%,98%,97%,2%,98%,2%,0%,2%
QUAIL RUN ELEMENTARY SCHOOL,3303 E UTOPIA RD,PHOENIX,MARICOPA,85050,YES,RN,PUBLIC,80,95%,5%,100%,79%,10%,89%,78%,10%,88%,96%,4%,100%,94%,6%,100%,95%,5%,100%,96%,4%,100%,10%,0%,0%
QUAIL RUN ELEMENTARY SCHOOL,4600 W CORTARO FARMS RD,TUCSON,PIMA,85742,YES,RN,PUBLIC,70,99%,1%,100%,96%,4%,100%,96%,4%,100%,99%,1%,100%,99%,1%,100%,99%,1%,100%,100%,0%,100%,4%,0%,1%
QUEEN CREEK MIDDLE SCHOOL,20435 S ELLSWORTH RD,QUEEN CREEK,MARICOPA,85142,YES,RN,PUBLIC,249,97%,3%,100%,92%,7%,100%,90%,8%,100%,97%,3%,100%,97%,3%,100%,98%,2%,100%,98%,2%,100%,9%,0%,2%
QUEEN OF PEACE CATHOLIC SCHOOL,109 N MACDONALD ST,MESA,MARICOPA,85201,NO,,PRIVATE,< 20 ,N/A,N/A,N/A,N/A,N/A,N/A,N/A,N/A,N/A,N/A,N/A,N/A,N/A,N/A,N/A,N/A,N/A,N/A,N/A,N/A,N/A,N/A,N/A,N/A
QUENTIN ELEMENTARY,11050 W WHYMAN AVE,AVONDALE,MARICOPA,85323,YES,LPN,PUBLIC,110,100%,0%,100%,97%,0%,100%,96%,0%,100%,99%,1%,100%,99%,1%,100%,100%,0%,100%,100%,0%,100%,1%,0%,0%
R E SIMPSON SCHOOL,5330 N 23RD AVE,PHOENIX,MARICOPA,85015,NO,,PUBLIC,174,97%,1%,98%,94%,1%,94%,94%,1%,95%,99%,1%,100%,99%,1%,100%,98%,1%,100%,99%,1%,100%,1%,1%,1%
R PETE WOODARD JR HIGH SCHOOL,2250 S 8TH AVE,YUMA,YUMA,85364,YES,RN,PUBLIC,240,97%,1%,100%,98%,1%,100%,98%,1%,100%,97%,1%,100%,99%,1%,100%,97%,1%,100%,99%,1%,100%,1%,0%,1%
RAINBOW VALLEY ELEMENTARY SCHOOL,19716 W NARRAMORE RD,BUCKEYE,MARICOPA,85326,NO,,PUBLIC,47,98%,2%,100%,98%,2%,100%,98%,2%,100%,98%,2%,100%,98%,2%,100%,98%,2%,100%,98%,2%,100%,2%,0%,2%
RALPH WALDO EMERSON ELEMENTARY SCHOOL,915 E PALM LN,PHOENIX,MARICOPA,85006,YES,RN,PUBLIC,50,100%,0%,100%,96%,2%,100%,94%,2%,98%,100%,0%,100%,100%,0%,100%,100%,0%,100%,100%,0%,100%,2%,0%,0%
RANCH ELEMENTARY SCHOOL,43521 N KENWORTHY RD,QUEEN CREEK,PINAL,85140,NO,,PUBLIC,70,99%,1%,100%,94%,1%,100%,91%,4%,100%,99%,1%,100%,99%,1%,100%,99%,1%,100%,96%,4%,100%,7%,0%,0%
RANCHO GABRIELA ELEMENTARY,15272 W GABRIELA DR,SURPRISE,MARICOPA,85379,YES,RN,PUBLIC,101,97%,2%,100%,95%,5%,100%,96%,4%,100%,97%,3%,100%,98%,2%,100%,97%,2%,100%,98%,2%,100%,6%,0%,6%
RANCHO SOLANO PREPARATORY SCHOOL - VENTURA,9180 E VIA DE VENTURA,SCOTTSDALE,MARICOPA,85258,YES,RN,PRIVATE,46,96%,4%,100%,96%,4%,100%,85%,4%,89%,100%,0%,100%,98%,2%,100%,98%,2%,100%,96%,4%,100%,2%,0%,2%
RANCHO VIEJO ELEMENTARY SCHOOL,1020 S AVENUE C,YUMA,YUMA,85364,YES,LPN,PUBLIC,130,100%,0%,100%,98%,1%,100%,97%,1%,100%,100%,0%,100%,100%,0%,100%,100%,0%,100%,100%,0%,100%,1%,0%,0%
RATTLESNAKE RIDGE ELEMENTARY,8500 N CONTINENTAL LOOP DR,TUCSON,PIMA,85743,YES,RN,PUBLIC,79,89%,9%,97%,92%,5%,97%,92%,5%,97%,92%,5%,97%,92%,5%,97%,92%,5%,97%,92%,5%,97%,9%,3%,5%
RAUL H CASTRO MIDDLE SCHOOL,2730 N 79TH AVE,PHOENIX,MARICOPA,85035,NO,,PUBLIC,293,100%,0%,100%,96%,1%,99%,96%,1%,98%,100%,0%,100%,100%,0%,100%,100%,0%,100%,99%,1%,100%,1%,0%,0%
RAY BORANE MIDDLE SCHOOL,840 E 12TH ST,DOUGLAS,COCHISE,85607,YES,RN,PUBLIC,124,98%,1%,99%,94%,1%,96%,93%,1%,96%,98%,1%,98%,98%,1%,98%,98%,1%,98%,99%,1%,100%,0%,0%,1%
RAY ELEMENTARY SCHOOL,675 SENATOR CHASTAIN DR,KEARNY,PINAL,85237,YES,RN,PUBLIC,29,97%,3%,100%,100%,0%,100%,100%,0%,100%,97%,3%,100%,100%,0%,100%,100%,0%,100%,100%,0%,100%,3%,0%,0%
RED MESA ELEMENTARY SCHOOL,MP448 HWY 160 13 M E OF 264,TEEC NOS POS,APACHE,,NO,,PUBLIC,35,100%,0%,100%,100%,0%,100%,100%,0%,100%,100%,0%,100%,100%,0%,100%,100%,0%,100%,100%,0%,100%,0%,0%,0%
RED MOUNTAIN RANCH ELEMENTARY,6650 E RAFTRIVER RD,MESA,MARICOPA,85215,YES,RN,PUBLIC,86,97%,3%,100%,93%,6%,100%,93%,6%,100%,94%,6%,100%,94%,6%,100%,97%,3%,100%,97%,3%,100%,8%,0%,3%
RED ROCK ELEMENTARY SCHOOL,33656 W AGUIRRE LN,RED ROCK,PINAL,85245,NO,,PUBLIC,48,98%,0%,98%,92%,0%,92%,92%,0%,92%,98%,0%,98%,96%,0%,96%,100%,0%,100%,100%,0%,100%,0%,0%,0%
REDBIRD ELEMENTARY SCHOOL,1020 S EXTENSION,MESA,MARICOPA,85210,YES,RN,PUBLIC,92,99%,1%,100%,99%,0%,100%,99%,0%,100%,100%,0%,100%,100%,0%,100%,100%,0%,100%,100%,0%,100%,0%,2%,0%
REID TRADITIONAL SCHOOL PAINTED ROCK ACADEMY,14841 N BLACK CANYON HWY,PHOENIX,MARICOPA,85023,YES,LPN,CHARTER,51,96%,4%,100%,82%,14%,100%,80%,16%,100%,84%,6%,100%,94%,6%,100%,92%,8%,100%,96%,4%,100%,22%,0%,4%
RICE SCHOOL,SAN CARLOS AVE,SAN CARLOS,GILA,85550,YES,RN,PUBLIC,105,100%,0%,100%,96%,0%,96%,96%,0%,96%,100%,0%,100%,100%,0%,100%,100%,0%,100%,100%,0%,100%,0%,0%,0%
RICHARD B WILSON JR SCHOOL,2330 W GLOVER RD,TUCSON,PIMA,85742,YES,RN,PUBLIC,198,98%,2%,100%,97%,2%,100%,95%,4%,100%,98%,2%,100%,98%,2%,100%,98%,2%,100%,99%,1%,100%,3%,2%,1%
RIDGELINE ACADEMY,33625 N NORTH VALLEY PKWY,PHOENIX,MARICOPA,85085,NO,,CHARTER,46,93%,7%,100%,93%,7%,100%,93%,7%,100%,93%,7%,100%,93%,7%,100%,93%,7%,100%,93%,7%,100%,7%,0%,7%
RIM COUNTRY MIDDLE SCHOOL,304 S MEADOW LN,PAYSON,GILA,,YES,RN,PUBLIC,168,99%,1%,100%,91%,7%,100%,90%,8%,100%,99%,1%,100%,99%,1%,100%,99%,1%,100%,99%,1%,100%,7%,0%,1%
RINCON VISTA MIDDLE SCHOOL,10770 E BILBY RD,TUCSON,PIMA,85747,NO,,PUBLIC,216,100%,0%,100%,98%,1%,100%,98%,1%,100%,100%,0%,100%,100%,0%,100%,100%,0%,100%,99%,1%,100%,1%,0%,0%
RIO COLORADO ELEMENTARY SCHOOL,1055 N MAIN ST,SAN LUIS,YUMA,85349,NO,,PUBLIC,117,98%,0%,100%,99%,0%,100%,97%,0%,100%,100%,0%,100%,100%,0%,100%,100%,0%,100%,100%,0%,100%,0%,0%,0%
RIO VISTA ELEMENTARY,10237 W ENCANTO BLVD,AVONDALE,MARICOPA,85392,YES,LPN,PUBLIC,119,97%,3%,100%,97%,3%,100%,97%,3%,100%,97%,3%,100%,97%,3%,100%,97%,3%,100%,97%,3%,100%,4%,0%,3%
RIVERA ELEMENTARY,5102 S CHERRY AVE,TUCSON,PIMA,85706,YES,RN,PUBLIC,76,96%,3%,99%,97%,3%,100%,97%,3%,100%,97%,3%,100%,97%,3%,100%,96%,3%,99%,97%,3%,100%,3%,0%,3%
RIVERVIEW SCHOOL,12701 N MAIN ST,EL MIRAGE,MARICOPA,85335,YES,LPN,PUBLIC,92,97%,3%,100%,90%,2%,99%,95%,3%,98%,97%,3%,100%,97%,3%,100%,97%,3%,100%,97%,3%,100%,4%,0%,2%
ROADRUNNER ELEMENTARY SCHOOL,7702 N 39TH AVE,PHOENIX,MARICOPA,85051,NO,,PUBLIC,114,100%,0%,100%,98%,2%,100%,98%,2%,100%,100%,0%,100%,100%,0%,100%,100%,0%,100%,100%,0%,100%,2%,0%,0%
ROADRUNNER ELEMENTARY SCHOOL,16651 W CALLE CARMELA,MARANA,PIMA,85653,YES,RN,PUBLIC,47,100%,0%,100%,87%,13%,100%,89%,11%,100%,100%,0%,100%,100%,0%,100%,100%,0%,100%,100%,0%,100%,11%,0%,0%
ROBERT AND DANELL TARWATER ELEMENTARY,2300 SOUTH GARDNER DRIVE,CHANDLER,MARICOPA,85248,NO,,PUBLIC,132,98%,2%,100%,91%,8%,100%,92%,8%,100%,97%,3%,100%,97%,3%,100%,98%,2%,100%,98%,2%,100%,10%,0%,1%
ROBERT AND DANELL TARWATER ELEMENTARY,2300 SOUTH GARDNER DRIVE,CHANDLER,MARICOPA,85248,NO,,PUBLIC,114,95%,5%,100%,88%,12%,100%,88%,12%,100%,95%,5%,100%,94%,6%,100%,95%,5%,100%,96%,4%,100%,13%,0%,12%
ROBERT RICHARDSON ELEMENTARY SCHOOL,6901 N CAMINO DE LA TIERRA,TUCSON,PIMA,85741,NO,,PUBLIC,62,97%,3%,100%,97%,3%,100%,97%,3%,100%,97%,3%,100%,97%,3%,100%,97%,3%,100%,97%,3%,100%,3%,2%,3%
ROBINS ELEMENTARY SCHOOL,3939 N MAGNETITE LN,TUCSON,PIMA,85745,YES,RN,PUBLIC,40,100%,0%,100%,98%,0%,98%,98%,0%,98%,100%,0%,100%,100%,0%,100%,100%,0%,100%,100%,0%,100%,0%,0%,0%
ROBSON ELEMENTARY SCHOOL,2122 E PUEBLO AVE,MESA,MARICOPA,85204,YES,RN,PUBLIC,91,97%,3%,100%,95%,3%,100%,95%,3%,100%,98%,2%,100%,98%,2%,100%,98%,2%,100%,98%,2%,100%,3%,0%,3%
ROGERS RANCH SCHOOL,6735 S 47TH AVE,LAVEEN,MARICOPA,85339,NO,,PUBLIC,114,97%,3%,100%,95%,4%,99%,89%,4%,96%,99%,1%,100%,99%,1%,100%,99%,1%,100%,98%,2%,100%,3%,0%,1%
RON WATSON MIDDLE SCHOOL,9851 E 28TH ST,YUMA,YUMA,85365,YES,RN,PUBLIC,140,98%,1%,99%,99%,1%,100%,99%,1%,100%,98%,1%,99%,98%,1%,99%,98%,1%,99%,98%,1%,99%,1%,0%,1%
RONALD REAGAN FUNDAMENTAL SCHOOL,3200 W 16TH ST,YUMA,YUMA,85364,YES,Both,PUBLIC,97,100%,0%,100%,97%,0%,100%,97%,0%,100%,100%,0%,100%,100%,0%,100%,100%,0%,100%,100%,0%,100%,0%,0%,0%
ROOSEVELT ELEMENTARY SCHOOL,828 S VALENCIA,MESA,MARICOPA,85202,YES,RN,PUBLIC,73,96%,4%,100%,100%,0%,100%,95%,0%,100%,100%,0%,100%,100%,0%,100%,99%,1%,100%,100%,0%,100%,3%,3%,0%
ROSKRUGE BILINGUAL ELEMENTARY SCHOOL,501 E 6TH ST,TUCSON,PIMA,,YES,RN,PUBLIC,123,100%,0%,100%,99%,1%,100%,99%,1%,100%,100%,0%,100%,100%,0%,100%,100%,0%,100%,100%,0%,100%,1%,1%,0%
ROUND VALLEY INTERMEDIATE SCHOOL,165 S BROWN ST,EAGAR,APACHE,85925,NO,,PUBLIC,116,98%,2%,100%,91%,5%,96%,91%,5%,96%,97%,2%,99%,97%,2%,99%,97%,2%,100%,98%,2%,100%,5%,0%,2%
ROYAL PALM MIDDLE SCHOOL,8520 N 19TH AVE,PHOENIX,MARICOPA,85021,NO,,PUBLIC,223,94%,1%,100%,99%,1%,100%,98%,1%,99%,98%,0%,100%,100%,0%,100%,99%,0%,100%,100%,0%,100%,1%,0%,0%
RUDY G BOLOGNA ELEMENTARY,1625 E FRY RD,CHANDLER,MARICOPA,85225,NO,,PUBLIC,79,99%,1%,100%,91%,3%,94%,87%,6%,94%,97%,3%,100%,96%,4%,100%,99%,1%,100%,99%,0%,99%,8%,0%,0%
RUTH FISHER ELEMENTARY SCHOOL,38201 W INDIAN SCHOOL RD,TONOPAH,MARICOPA,85354,NO,,PUBLIC,84,92%,5%,100%,99%,1%,100%,93%,4%,96%,92%,4%,100%,95%,4%,100%,90%,5%,100%,94%,6%,100%,6%,0%,1%
RUTH POWELL ELEMENTARY SCHOOL,1041 S 14TH AVE,SAFFORD,GRAHAM,85546,YES,RN,PUBLIC,77,99%,1%,100%,84%,3%,88%,83%,3%,87%,97%,1%,99%,100%,0%,100%,100%,0%,100%,97%,0%,97%,3%,0%,1%
S. S. SIMON & JUDE SCHOOL,6351 NORTH 27TH AVENUE,PHOENIX,MARICOPA,85017,YES,RN,PRIVATE,45,98%,2%,100%,100%,0%,100%,98%,2%,100%,98%,2%,100%,98%,2%,100%,98%,2%,100%,98%,2%,100%,2%,2%,2%
SACRED HEART CATHOLIC SCHOOL,207 W OAK STREET,NOGALES,SANTA CRUZ,85621,NO,,PRIVATE,< 20 ,N/A,N/A,N/A,N/A,N/A,N/A,N/A,N/A,N/A,N/A,N/A,N/A,N/A,N/A,N/A,N/A,N/A,N/A,N/A,N/A,N/A,N/A,N/A,N/A
SACRED HEART ELEMENTARY SCHOOL,131 N SUMMIT AVE,PRESCOTT,YAVAPAI,86301,YES,RN,PRIVATE,< 20 ,N/A,N/A,N/A,N/A,N/A,N/A,N/A,N/A,N/A,N/A,N/A,N/A,N/A,N/A,N/A,N/A,N/A,N/A,N/A,N/A,N/A,N/A,N/A,N/A
SAFFORD ELEMENTARY SCHOOL,200 E 13TH ST,TUCSON,PIMA,,YES,RN,PUBLIC,138,100%,0%,100%,98%,1%,100%,97%,2%,100%,100%,0%,100%,100%,0%,100%,100%,0%,100%,100%,0%,100%,2%,0%,0%
SAGE ACADEMY,1055 E HEARN RD,PHOENIX,MARICOPA,85022,NO,,CHARTER,< 20 ,N/A,N/A,N/A,N/A,N/A,N/A,N/A,N/A,N/A,N/A,N/A,N/A,N/A,N/A,N/A,N/A,N/A,N/A,N/A,N/A,N/A,N/A,N/A,N/A
SAHUARITA MIDDLE SCHOOL,350 W SAHUARITA RD,SAHUARITA,PIMA,85629,NO,,PUBLIC,291,99%,1%,100%,71%,1%,72%,72%,1%,73%,99%,1%,100%,99%,1%,100%,98%,1%,99%,99%,1%,100%,1%,0%,1%
SAHUARO SCHOOL,12835 N 33RD AVE,PHOENIX,MARICOPA,85029,NO,,PUBLIC,74,96%,0%,96%,99%,1%,100%,96%,0%,97%,99%,0%,99%,99%,0%,99%,99%,0%,99%,100%,0%,100%,1%,0%,0%
SAINT AGNES CATHOLIC SCHOOL,2311 E PALM LN,PHOENIX,MARICOPA,85006,NO,,PRIVATE,27,89%,0%,89%,93%,0%,93%,4%,0%,4%,81%,0%,81%,67%,0%,67%,93%,0%,93%,89%,0%,89%,0%,0%,0%
SAINT AMBROSE SCHOOL,300 S TUCSON BLVD,TUCSON,PIMA,85716,YES,RN,PRIVATE,25,100%,0%,100%,96%,0%,100%,92%,0%,96%,100%,0%,100%,96%,0%,96%,100%,0%,100%,100%,0%,100%,0%,0%,0%
SAINT ANTHONY CATHOLIC SCHOOL,1400 E OWENS,SHOW LOW,NAVAJO,85901,NO,,PRIVATE,< 20 ,N/A,N/A,N/A,N/A,N/A,N/A,N/A,N/A,N/A,N/A,N/A,N/A,N/A,N/A,N/A,N/A,N/A,N/A,N/A,N/A,N/A,N/A,N/A,N/A
SAINT CATHERINE OF SIENA SCHOOL,6413 S CENTRAL AVE,PHOENIX,MARICOPA,85042,NO,,PRIVATE,26,100%,0%,100%,88%,0%,88%,85%,0%,85%,100%,0%,100%,100%,0%,100%,100%,0%,100%,100%,0%,100%,0%,0%,0%
SAINT CYRIL OF ALEXANDRIA SCHOOL,4725 E PIMA ST,TUCSON,PIMA,85712,NO,,PRIVATE,49,96%,4%,100%,96%,4%,100%,94%,6%,100%,96%,4%,100%,96%,4%,100%,96%,4%,100%,98%,2%,100%,8%,0%,2%
SAINT ELIZABETH ANN SETON SCHOOL,8650 N SHANNON RD,TUCSON,PIMA,85742,YES,RN,PRIVATE,41,100%,0%,100%,100%,0%,100%,95%,5%,100%,100%,0%,100%,100%,0%,100%,98%,2%,100%,100%,0%,100%,5%,2%,0%
SAINT FRANCIS OF ASSISI SCHOOL,700 W 18TH ST,YUMA,YUMA,85364,NO,,PRIVATE,30,97%,3%,100%,97%,3%,100%,97%,3%,100%,97%,3%,100%,97%,3%,100%,97%,3%,100%,97%,3%,100%,3%,0%,3%
SAINT FRANCIS XAVIER SCHOOL,4715 N CENTRAL AVE,PHOENIX,MARICOPA,85012,YES,RN,PRIVATE,77,99%,1%,100%,99%,1%,100%,96%,4%,100%,97%,3%,100%,96%,4%,100%,97%,3%,100%,97%,3%,100%,4%,0%,1%
SAINT JOHN THE EVANGELIST SCHOOL,600 W AJO WAY,TUCSON,PIMA,85713,YES,RN,PRIVATE,34,100%,0%,100%,88%,0%,88%,85%,0%,85%,100%,0%,100%,97%,0%,97%,100%,0%,100%,100%,0%,100%,0%,0%,0%
SAINT JOHN VIANNEY CATHOLIC SCHOOL,539 LA PASADA BLVD,GOODYEAR,MARICOPA,,NO,,PRIVATE,29,100%,0%,100%,100%,0%,100%,90%,3%,100%,100%,0%,100%,100%,0%,100%,100%,0%,100%,100%,0%,100%,3%,0%,3%
SAINT JOHN XXIII CATHOLIC SCHOOL,16235 N 60TH ST,SCOTTSDALE,MARICOPA,85254,YES,RN,PRIVATE,72,97%,3%,100%,96%,4%,100%,97%,3%,100%,97%,3%,100%,99%,1%,100%,97%,3%,100%,97%,3%,100%,6%,0%,1%
SAINT JOHNS MIDDLE SCHOOL,555 W 7TH SOUTH,SAINT JOHNS,APACHE,,NO,,PUBLIC,63,95%,5%,100%,92%,8%,100%,90%,10%,100%,94%,6%,100%,94%,6%,100%,94%,6%,100%,95%,5%,100%,10%,2%,8%
SAINT JOSEPH CATHOLIC SCHOOL,215 S CRAYCROFT RD,TUCSON,PIMA,85711,NO,,PRIVATE,< 20 ,N/A,N/A,N/A,N/A,N/A,N/A,N/A,N/A,N/A,N/A,N/A,N/A,N/A,N/A,N/A,N/A,N/A,N/A,N/A,N/A,N/A,N/A,N/A,N/A
SAINT MARY-BASHA CATHOLIC SCHOOL,200 W GALVESTON ST,CHANDLER,MARICOPA,85225,YES,RN,PRIVATE,44,98%,2%,100%,98%,2%,100%,93%,2%,95%,98%,2%,100%,98%,2%,100%,98%,0%,98%,95%,5%,100%,5%,0%,0%
SAINT MICHAEL INDIAN SCHOOL,,SAINT MICHAELS,APACHE,,YES,RN,PRIVATE,29,97%,0%,97%,97%,0%,97%,52%,0%,59%,97%,0%,97%,97%,0%,97%,97%,0%,97%,97%,0%,97%,0%,0%,0%
SAINT MICHAEL'S PARISH DAY SCHOOL,602 N WILMOT RD,TUCSON,PIMA,85711,YES,RN,PRIVATE,32,97%,3%,100%,94%,6%,100%,97%,3%,100%,97%,3%,100%,97%,3%,100%,97%,3%,100%,97%,3%,100%,6%,0%,3%
SAINT PETER INDIAN MISSION SCHOOL,1500 N ST PETER RD,BAPCHULE,PINAL,,YES,RN,PRIVATE,23,100%,0%,100%,100%,0%,100%,100%,0%,100%,100%,0%,100%,100%,0%,100%,100%,0%,100%,100%,0%,100%,0%,0%,0%
SAINT THOMAS THE APOSTLE CATHOLIC SCHOOL,4510 N 24TH ST,PHOENIX,MARICOPA,85016,YES,RN,PRIVATE,60,98%,2%,100%,98%,2%,100%,98%,2%,100%,98%,2%,100%,98%,2%,100%,97%,3%,100%,98%,2%,100%,3%,0%,2%
SAINT TIMOTHY CATHOLIC SCHOOL,2520 S ALMA SCHOOL RD,MESA,MARICOPA,85210,YES,RN,PRIVATE,24,96%,4%,100%,96%,4%,100%,92%,8%,100%,96%,4%,100%,96%,4%,100%,96%,4%,100%,96%,4%,100%,8%,0%,4%
SAINT VINCENT DE PAUL CATHOLIC SCHOOL,3130 N 51ST AVE,PHOENIX,MARICOPA,85031,NO,,PRIVATE,56,100%,0%,100%,100%,0%,100%,54%,0%,100%,98%,0%,98%,98%,0%,98%,100%,0%,100%,96%,0%,96%,0%,0%,0%
SAINTS PETER & PAUL CATHOLIC SCHOOL,1436 N CAMPBELL AVE,TUCSON,PIMA,85719,YES,RN,PRIVATE,51,100%,0%,100%,100%,0%,100%,100%,0%,100%,100%,0%,100%,100%,0%,100%,100%,0%,100%,100%,0%,100%,0%,0%,0%
SALK ELEMENTARY SCHOOL,7029 E BROWN RD,MESA,MARICOPA,85207,YES,RN,PUBLIC,91,98%,0%,100%,96%,3%,100%,96%,3%,100%,99%,1%,100%,99%,1%,100%,99%,1%,100%,99%,1%,100%,4%,0%,1%
SALOME ELEMENTARY SCHOOL,SAGUARO ST AND MAIN ST,SALOME,LA PAZ,,NO,,PUBLIC,< 20 ,N/A,N/A,N/A,N/A,N/A,N/A,N/A,N/A,N/A,N/A,N/A,N/A,N/A,N/A,N/A,N/A,N/A,N/A,N/A,N/A,N/A,N/A,N/A,N/A
SALT RIVER ELEMENTARY SCHOOL,11582 E HIGHLAND RD,SCOTTSDALE,MARICOPA,85256,YES,RN,PRIVATE,58,100%,0%,100%,98%,0%,100%,98%,0%,100%,100%,0%,100%,100%,0%,100%,100%,0%,100%,100%,0%,100%,0%,0%,0%
SAN FRANCISCO DE ASIS CATHOLIC SCHOOL,1600 EAST ROUTE 66,FLAGSTAFF,COCONINO,86001,NO,,PRIVATE,< 20 ,N/A,N/A,N/A,N/A,N/A,N/A,N/A,N/A,N/A,N/A,N/A,N/A,N/A,N/A,N/A,N/A,N/A,N/A,N/A,N/A,N/A,N/A,N/A,N/A
SAN MARCOS ELEMENTARY SCHOOL,451 W FRYE RD,CHANDLER,MARICOPA,85225,NO,,PUBLIC,73,97%,3%,100%,82%,14%,100%,84%,14%,100%,99%,1%,100%,99%,1%,100%,97%,1%,100%,99%,1%,100%,15%,0%,1%
SAN TAN CHARTER SCHOOL,3959 E ELLIOT RD,GILBERT,MARICOPA,85234,NO,,CHARTER,94,79%,14%,93%,48%,15%,64%,45%,15%,61%,78%,15%,93%,79%,15%,94%,79%,13%,91%,85%,12%,97%,6%,0%,10%
SAN TAN HEIGHTS ELEMENTARY,2500 W SAN TAN HEIGHTS BLVD,QUEEN CREEK,PINAL,85142,YES,RN,PUBLIC,68,96%,0%,96%,90%,1%,96%,88%,1%,94%,100%,0%,100%,100%,0%,100%,100%,0%,100%,100%,0%,100%,1%,0%,0%
SAN XAVIER MISSION SCHOOL,1980 W SAN XAVIER RD,TUCSON,PIMA,85746,YES,RN,PRIVATE,< 20 ,N/A,N/A,N/A,N/A,N/A,N/A,N/A,N/A,N/A,N/A,N/A,N/A,N/A,N/A,N/A,N/A,N/A,N/A,N/A,N/A,N/A,N/A,N/A,N/A
SANBORN ELEMENTARY SCHOOL,700 N SUPERSTITION BLVD,CHANDLER,MARICOPA,85225,NO,,PUBLIC,91,99%,1%,100%,95%,1%,100%,96%,1%,100%,98%,2%,100%,98%,2%,100%,98%,2%,100%,99%,1%,100%,3%,0%,2%
SANDERS MIDDLE SCHOOL,"I-40, HWY 191",SANDERS,APACHE,,NO,,PUBLIC,58,100%,0%,100%,78%,0%,78%,78%,0%,78%,100%,0%,100%,100%,0%,100%,100%,0%,100%,100%,0%,100%,0%,0%,0%
SANDPIPER ELEMENTARY SCHOOL,6724 E HEARN RD,SCOTTSDALE,MARICOPA,85254,YES,RN,PUBLIC,52,90%,4%,100%,94%,6%,100%,94%,6%,100%,94%,6%,100%,98%,2%,100%,94%,2%,100%,98%,2%,100%,8%,0%,0%
SANDRA DAY O'CONNOR ELEMENTARY SCHOOL,4840 E. ADOBE ST,MESA,MARICOPA,85205,YES,RN,PUBLIC,78,97%,3%,100%,94%,5%,100%,95%,5%,100%,97%,3%,100%,97%,3%,100%,97%,3%,100%,96%,4%,100%,6%,0%,3%
SANTA CLARA ELEMENTARY SCHOOL,6910 S SANTA CLARA AVE,TUCSON,PIMA,85756,YES,RN,PUBLIC,79,100%,0%,100%,100%,0%,100%,97%,0%,100%,100%,0%,100%,100%,0%,100%,100%,0%,100%,100%,0%,100%,0%,0%,0%
SANTA CRUZ CATHOLIC SCHOOL,29 W 22ND ST,TUCSON,PIMA,85713,YES,Both,PRIVATE,31,100%,0%,100%,100%,0%,100%,100%,0%,100%,100%,0%,100%,100%,0%,100%,100%,0%,100%,100%,0%,100%,0%,0%,0%
SANTA FE ELEMENTARY SCHOOL,9880 N 77TH AVE,PEORIA,MARICOPA,85345,YES,LPN,PUBLIC,102,97%,3%,100%,91%,9%,100%,91%,9%,100%,97%,3%,100%,97%,3%,100%,97%,3%,100%,94%,6%,100%,6%,0%,3%
SANTA MARIA MIDDLE SCHOOL,7250 W LOWER BUCKEYE RD,PHOENIX,MARICOPA,85043,NO,,PUBLIC,250,100%,0%,100%,100%,0%,100%,100%,0%,100%,100%,0%,100%,100%,0%,100%,100%,0%,100%,100%,0%,100%,0%,0%,0%
SANTAN ELEMENTARY SCHOOL,1550 E CHANDLER HEIGHTS RD,CHANDLER,MARICOPA,85249,NO,,PUBLIC,177,97%,3%,100%,92%,6%,100%,92%,6%,100%,97%,3%,100%,97%,3%,100%,96%,4%,100%,98%,2%,100%,6%,1%,2%
SATORI CHARTER SCHOOL,3727 N 1ST AVE,TUCSON,PIMA,85719,NO,,CHARTER,29,83%,17%,100%,52%,17%,69%,45%,17%,62%,83%,17%,100%,83%,17%,100%,83%,17%,100%,83%,17%,100%,17%,0%,17%
SCOTTSDALE CHRISTIAN ACADEMY  / EARLY CHILDHOOD,14400 NORTH TATUM BLVD,PHOENIX,MARICOPA,85032,YES,RN,PRIVATE,62,92%,8%,100%,87%,13%,100%,87%,13%,100%,90%,10%,100%,89%,11%,100%,94%,6%,100%,92%,8%,100%,19%,0%,5%
SECRIST MIDDLE SCHOOL,3400 S HOUGHTON RD,TUCSON,PIMA,85730,YES,RN,PUBLIC,148,99%,1%,100%,97%,3%,100%,97%,3%,100%,99%,1%,100%,99%,1%,100%,100%,0%,100%,99%,1%,100%,3%,1%,1%
SEDONA CHARTER SCHOOL,165 KACHINA DR,SEDONA,YAVAPAI,,NO,,CHARTER,< 20 ,N/A,N/A,N/A,N/A,N/A,N/A,N/A,N/A,N/A,N/A,N/A,N/A,N/A,N/A,N/A,N/A,N/A,N/A,N/A,N/A,N/A,N/A,N/A,N/A
SELF DEVELOPMENT ACADEMY PHOENIX,1515 E INDIAN SCHOOL RD,PHOENIX,MARICOPA,,NO,,CHARTER,36,97%,3%,100%,97%,3%,100%,97%,3%,100%,100%,0%,100%,100%,0%,100%,97%,3%,100%,100%,0%,100%,3%,0%,3%
SELF DEVELOPMENT CHARTER SCHOOL,1709 N GREENFIELD RD,MESA,MARICOPA,85205,NO,,CHARTER,37,95%,5%,100%,81%,8%,95%,81%,8%,95%,95%,5%,100%,95%,5%,100%,95%,5%,100%,95%,5%,100%,8%,0%,5%
SEQUOIA CHARTER ELEMENTARY SCHOOL,1460 S HORNE,MESA,MARICOPA,85204,NO,,CHARTER,76,99%,0%,99%,79%,0%,79%,80%,0%,80%,97%,0%,97%,96%,0%,96%,97%,0%,97%,99%,0%,99%,0%,1%,0%
SEQUOIA CHOICE SCHOOL ARIZONA DISTANCE LEARNING SCHOOL,HOME BASED,MESA,MARICOPA,85203,NO,,CHARTER,26,81%,19%,100%,50%,42%,92%,54%,38%,92%,81%,19%,100%,77%,23%,100%,81%,19%,100%,81%,19%,100%,38%,0%,19%
SEQUOIA LEHI CHARTER SCHOOL,2331 N HORNE,MESA,MARICOPA,85203,NO,,CHARTER,< 20 ,N/A,N/A,N/A,N/A,N/A,N/A,N/A,N/A,N/A,N/A,N/A,N/A,N/A,N/A,N/A,N/A,N/A,N/A,N/A,N/A,N/A,N/A,N/A,N/A
SEQUOIA PATHWAY ACADEMY,19265 N. PORTER RD,MARICOPA,PINAL,85138,NO,,CHARTER,104,98%,2%,100%,96%,4%,100%,92%,4%,100%,96%,4%,100%,96%,4%,100%,98%,2%,100%,98%,2%,100%,10%,0%,10%
SEQUOIA VILLAGE,982 FULL HOUSE LN,SHOW LOW,NAVAJO,85901,NO,,CHARTER,28,96%,4%,100%,89%,11%,100%,89%,11%,100%,96%,4%,100%,96%,4%,100%,96%,4%,100%,96%,4%,100%,11%,0%,4%
SETTLERS POINT ELEMENTARY,423 E SETTLERS POINT,GILBERT,MARICOPA,85296,YES,RN,PUBLIC,105,98%,2%,100%,94%,1%,100%,94%,1%,100%,98%,2%,100%,97%,3%,100%,98%,2%,100%,98%,2%,100%,4%,0%,1%
SEVILLA WEST SCHOOL,3851 W MISSOURI AVE,PHOENIX,MARICOPA,85019,NO,,PUBLIC,226,100%,0%,100%,97%,1%,99%,95%,1%,97%,99%,0%,99%,100%,0%,100%,100%,0%,100%,100%,0%,100%,1%,0%,0%
SHAW BUTTE SCHOOL,12202 N 21ST AVE,PHOENIX,MARICOPA,85029,NO,,PUBLIC,89,99%,1%,100%,100%,0%,100%,100%,0%,100%,100%,0%,100%,99%,1%,100%,100%,0%,100%,100%,0%,100%,1%,0%,1%
SHEELY FARMS ELEMENTARY SCHOOL,9450 W ENCANTO BLVD,PHOENIX,MARICOPA,85037,YES,RN,PUBLIC,100,100%,0%,100%,98%,1%,99%,98%,1%,99%,100%,0%,100%,100%,0%,100%,100%,0%,100%,100%,0%,100%,1%,0%,0%
SHEPHERD OF THE DESERT LUTHERAN SCHOOL,9590 E SHEA BLVD,SCOTTSDALE,MARICOPA,85260,NO,,PRIVATE,23,78%,17%,96%,13%,17%,35%,9%,17%,30%,57%,17%,74%,48%,17%,65%,70%,22%,91%,78%,17%,96%,22%,0%,17%
SHOW LOW JUNIOR HIGH SCHOOL,761 E MCNEIL,SHOW LOW,NAVAJO,85901,NO,,PUBLIC,193,89%,10%,100%,69%,16%,84%,66%,16%,82%,89%,9%,99%,89%,10%,99%,89%,9%,98%,91%,9%,100%,17%,3%,9%
SHUMWAY ELEMENTARY SCHOOL,1325 N SHUMWAY AVE,CHANDLER,MARICOPA,85225,NO,,PUBLIC,62,97%,3%,100%,82%,6%,100%,87%,6%,100%,97%,3%,100%,97%,3%,100%,97%,3%,100%,97%,3%,100%,5%,0%,3%
SIERRA MIDDLE SCHOOL,5801 S DEL MORAL BLVD,TUCSON,PIMA,85706,YES,RN,PUBLIC,126,99%,1%,100%,99%,1%,100%,99%,1%,100%,99%,1%,100%,100%,0%,100%,99%,0%,100%,100%,0%,100%,1%,0%,0%
SIERRA VERDE ELEMENTARY,7241 W ROSE GARDEN LN,GLENDALE,MARICOPA,85308,YES,RN,PUBLIC,125,97%,3%,100%,89%,3%,100%,89%,3%,100%,97%,3%,100%,96%,3%,100%,97%,3%,100%,97%,3%,100%,3%,1%,2%
SILVESTRE S HERRERA SCHOOL,1350 S 11TH ST,PHOENIX,MARICOPA,85034,YES,RN,PUBLIC,70,100%,0%,100%,94%,0%,94%,94%,0%,94%,100%,0%,100%,100%,0%,100%,100%,0%,100%,100%,0%,100%,0%,0%,0%
SIRRINE ELEMENTARY SCHOOL,591 W MESQUITE ST,CHANDLER,MARICOPA,85225,YES,RN,PUBLIC,61,98%,2%,100%,100%,0%,100%,93%,0%,100%,95%,5%,100%,95%,5%,100%,97%,3%,100%,100%,0%,100%,8%,0%,0%
SKY VIEW ELEMENTARY SCHOOL,8624 W SWEETWATER,PEORIA,MARICOPA,85381,YES,LPN,PUBLIC,62,97%,3%,100%,95%,5%,100%,89%,11%,100%,95%,5%,100%,95%,5%,100%,95%,5%,100%,100%,0%,100%,13%,0%,10%
SKYLINE DISTRICT 5,CASA BLANCA & PRESCHOOL RD,BAPCHULE,PINAL,85121,YES,RN,CHARTER,25,100%,0%,100%,100%,0%,100%,100%,0%,100%,100%,0%,100%,100%,0%,100%,100%,0%,100%,100%,0%,100%,0%,0%,0%
SKYLINE RANCH ELEMENTARY,1084 W SAN TAN HILLS DR,QUEEN CREEK,PINAL,,NO,,PUBLIC,90,93%,2%,100%,99%,0%,100%,69%,2%,72%,93%,2%,100%,92%,2%,100%,92%,1%,100%,99%,1%,100%,2%,1%,2%
SKYVIEW SCHOOL,125 S RUSH ST,PRESCOTT,YAVAPAI,86303,NO,,CHARTER,< 20 ,N/A,N/A,N/A,N/A,N/A,N/A,N/A,N/A,N/A,N/A,N/A,N/A,N/A,N/A,N/A,N/A,N/A,N/A,N/A,N/A,N/A,N/A,N/A,N/A
SNOWFLAKE INTERMEDIATE SCHOOL,62 WEST 2ND SOUTH,SNOWFLAKE,NAVAJO,85937,NO,,PUBLIC,129,95%,5%,100%,91%,9%,100%,91%,9%,100%,95%,5%,100%,95%,5%,100%,95%,5%,100%,96%,4%,100%,12%,0%,3%
SOLANO SCHOOL,1526 W MISSOURI AVE,PHOENIX,MARICOPA,85015,NO,,PUBLIC,92,99%,1%,100%,87%,2%,89%,86%,2%,88%,99%,1%,100%,97%,1%,98%,99%,1%,100%,98%,1%,99%,1%,0%,1%
SOLOMON ELEMENTARY SCHOOL,2250 S STEVENS AVE,SOLOMON,GRAHAM,85546,YES,LPN,PUBLIC,< 20 ,N/A,N/A,N/A,N/A,N/A,N/A,N/A,N/A,N/A,N/A,N/A,N/A,N/A,N/A,N/A,N/A,N/A,N/A,N/A,N/A,N/A,N/A,N/A,N/A
SOMERTON MIDDLE SCHOOL,1101 N SOMERTON AVE,SOMERTON,YUMA,85350,YES,RN,PUBLIC,338,100%,0%,100%,96%,1%,100%,95%,1%,100%,99%,1%,100%,99%,1%,100%,100%,0%,100%,100%,0%,100%,1%,0%,0%
SONOMA RANCH ELEMENTARY SCHOOL,601 N BISCAYNE DR,GILBERT,MARICOPA,85233,YES,RN,PUBLIC,61,95%,5%,100%,89%,3%,97%,89%,5%,97%,95%,5%,100%,95%,5%,100%,95%,5%,100%,95%,5%,100%,7%,0%,3%
SONORAN FOOTHILLS SCHOOL,32150 N NORTH FOOTHILLS DR,PHOENIX,MARICOPA,85085,YES,RN,PUBLIC,105,95%,5%,100%,78%,22%,100%,77%,23%,100%,92%,8%,100%,92%,8%,100%,95%,5%,100%,94%,6%,100%,11%,0%,11%
SONORAN HEIGHTS ELEMENTARY,11405 N GREER RANCH PKWY,SURPRISE,MARICOPA,85379,YES,RN,PUBLIC,102,97%,3%,100%,85%,6%,100%,89%,8%,100%,97%,3%,100%,97%,3%,100%,97%,3%,100%,97%,3%,100%,11%,0%,3%
SONORAN SCIENCE ACADEMY - PEORIA,17667 N 91ST AVE,PEORIA,MARICOPA,85382,NO,,CHARTER,27,96%,0%,96%,70%,26%,100%,70%,26%,100%,96%,0%,96%,96%,0%,96%,100%,0%,100%,96%,0%,96%,26%,0%,0%
SONORAN SCIENCE ACADEMY - PHOENIX,4837 E MCDOWELL RD,PHOENIX,MARICOPA,85008,NO,,CHARTER,31,84%,0%,100%,84%,13%,100%,77%,19%,100%,100%,0%,100%,100%,0%,100%,100%,0%,100%,100%,0%,100%,19%,0%,0%
SONORAN SCIENCE ACADEMY - TUCSON,2325 E. SUNSET RD,TUCSON,PIMA,85741,NO,,CHARTER,75,97%,3%,100%,95%,0%,100%,88%,11%,100%,97%,3%,100%,97%,3%,100%,96%,4%,100%,97%,3%,100%,11%,1%,3%
SONORAN SCIENCE ACADEMY-DAVIS MONTHAN,5741 E. IRONWOOD ST,TUCSON,PIMA,85708,NO,,CHARTER,22,100%,0%,100%,100%,0%,100%,100%,0%,100%,100%,0%,100%,100%,0%,100%,100%,0%,100%,100%,0%,100%,0%,0%,0%
SONORAN SCIENCE ADADEMY - BROADWAY,6880 E BROADWAY BLVD,TUCSON,PIMA,85710,NO,,CHARTER,26,100%,0%,100%,92%,0%,100%,92%,0%,100%,100%,0%,100%,100%,0%,100%,100%,0%,100%,100%,0%,100%,0%,0%,0%
SONORAN SKY ELEMENTARY SCHOOL,12990 N 75TH ST,SCOTTSDALE,MARICOPA,85260,YES,RN,PUBLIC,73,100%,0%,100%,96%,4%,100%,96%,4%,100%,100%,0%,100%,100%,0%,100%,99%,1%,100%,100%,0%,100%,4%,0%,1%
SONORAN SKY ELEMENTARY SCHOOL,10150 W MISSOURI AVE,GLENDALE,MARICOPA,85307,YES,LPN,PUBLIC,66,97%,3%,100%,95%,3%,100%,95%,3%,100%,95%,3%,98%,95%,3%,98%,97%,3%,100%,97%,3%,100%,3%,0%,3%
SOUSA ELEMENTARY SCHOOL,616 N MOUNTAIN RD,MESA,MARICOPA,85207,YES,RN,PUBLIC,78,97%,3%,100%,100%,0%,100%,95%,5%,100%,95%,5%,100%,96%,4%,100%,97%,3%,100%,100%,0%,100%,6%,0%,6%
SOUTH POINTE PUBLIC JUNIOR HIGH SCHOOL,217 E OLYMPIC DR,PHOENIX,MARICOPA,85020,NO,,CHARTER,49,92%,2%,94%,76%,4%,80%,76%,4%,80%,92%,2%,94%,96%,2%,98%,92%,2%,94%,96%,2%,98%,4%,4%,2%
SOUTH VALLEY PREP AND ARTS SCHOOL,7450 S 40TH ST,PHOENIX,MARICOPA,85042,NO,,CHARTER,59,97%,3%,100%,69%,2%,81%,64%,2%,76%,95%,3%,98%,97%,3%,100%,95%,3%,98%,98%,2%,100%,3%,0%,3%
SOUTHGATE ACADEMY,850 W VALENCIA RD,TUCSON,PIMA,85706,NO,,CHARTER,61,100%,0%,100%,93%,7%,100%,93%,7%,100%,100%,0%,100%,100%,0%,100%,100%,0%,100%,100%,0%,100%,7%,0%,0%
SOUTHSIDE COMMUNITY SCHOOL,2701 S CAMPBELL AVE,TUCSON,PIMA,85713,NO,,CHARTER,27,100%,0%,100%,96%,4%,100%,93%,4%,100%,100%,0%,100%,100%,0%,100%,100%,0%,100%,100%,0%,100%,4%,0%,0%
SOUTHWEST ELEMENTARY SCHOOL,1111 W DOBBINS RD,PHOENIX,MARICOPA,85041,YES,LPN,PUBLIC,65,100%,0%,100%,100%,0%,100%,100%,0%,100%,100%,0%,100%,100%,0%,100%,100%,0%,100%,100%,0%,100%,0%,0%,0%
SOUTHWESTERN CHRISTIAN SCHOOL,3261 S AVENUE 6 E,YUMA,YUMA,85365,NO,,PRIVATE,22,100%,0%,100%,27%,0%,27%,27%,0%,27%,100%,0%,100%,73%,0%,73%,100%,0%,100%,100%,0%,100%,0%,0%,0%
SPECTRUM ELEMENTARY,2846 S SPECTRUM WAY,GILBERT,MARICOPA,85295,YES,RN,PUBLIC,97,98%,2%,100%,92%,4%,99%,92%,5%,99%,97%,3%,100%,96%,4%,100%,98%,2%,100%,95%,4%,99%,4%,1%,4%
ST THERESA LITTLE FLOWER PRESCHOOL,5001 EAST THOMAS ROAD,PHOENIX,MARICOPA,85018,YES,RN,PUBLIC,42,100%,0%,100%,98%,2%,100%,98%,2%,100%,100%,0%,100%,100%,0%,100%,100%,0%,100%,100%,0%,100%,2%,0%,0%
ST. ANTHONY OF PADUA CATHOLIC PRESCHOOL,501 EAST 2ND STREET,CASA GRANDE,PINAL,85122,NO,,PRIVATE,< 20 ,N/A,N/A,N/A,N/A,N/A,N/A,N/A,N/A,N/A,N/A,N/A,N/A,N/A,N/A,N/A,N/A,N/A,N/A,N/A,N/A,N/A,N/A,N/A,N/A
ST. GREGORY CATHOLIC SCHOOL -  PRESCHOOL AND EXTENDED CARE,3440 NORTH 18TH AVENUE,PHOENIX,MARICOPA,85015,NO,,PRIVATE,37,100%,0%,100%,41%,0%,41%,8%,0%,8%,100%,0%,100%,100%,0%,100%,100%,0%,100%,100%,0%,100%,0%,0%,0%
ST. JEROME PRESCHOOL,10815 NORTH 35TH AVENUE,PHOENIX,MARICOPA,85029,NO,,PRIVATE,25,100%,0%,100%,96%,4%,100%,96%,4%,100%,100%,0%,100%,100%,0%,100%,100%,0%,100%,100%,0%,100%,4%,0%,0%
ST. LOUIS THE KING PRE - KINDERGARTEN AND EXTENDED DAY,4331 WEST MARYLAND AVENUE,GLENDALE,MARICOPA,85301,NO,,PRIVATE,26,96%,0%,100%,100%,0%,100%,100%,0%,100%,96%,0%,100%,100%,0%,100%,96%,0%,100%,100%,0%,100%,0%,0%,0%
ST. THOMAS AQUINAS PRESCHOOL,13720 WEST THOMAS ROAD,AVONDALE,MARICOPA,85392,YES,RN,PRIVATE,49,98%,2%,100%,98%,2%,100%,98%,2%,100%,98%,2%,100%,98%,2%,100%,98%,2%,100%,98%,2%,100%,4%,0%,2%
STANFIELD ELEMENTARY SCHOOL,515 S STANFIELD RD,STANFIELD,PINAL,85172,NO,,PUBLIC,55,100%,0%,100%,100%,0%,100%,100%,0%,100%,100%,0%,100%,100%,0%,100%,100%,0%,100%,100%,0%,100%,0%,0%,0%
STAR CHARTER SCHOOL,145 LEUPP RD,FLAGSTAFF,COCONINO,86004,NO,,CHARTER,< 20 ,N/A,N/A,N/A,N/A,N/A,N/A,N/A,N/A,N/A,N/A,N/A,N/A,N/A,N/A,N/A,N/A,N/A,N/A,N/A,N/A,N/A,N/A,N/A,N/A
STARLINE ELEMENTARY SCHOOL,3150 STARLINE DR,LAKE HAVASU CITY,MOHAVE,86406,NO,,PUBLIC,93,94%,6%,100%,91%,9%,100%,89%,10%,99%,96%,4%,100%,95%,5%,100%,95%,5%,100%,96%,4%,100%,12%,0%,4%
STEPPING STONES ACADEMY,35812 N 7TH ST,PHOENIX,MARICOPA,85086,NO,,CHARTER,28,82%,18%,100%,82%,18%,100%,82%,18%,100%,82%,18%,100%,82%,18%,100%,82%,18%,100%,82%,18%,100%,18%,0%,18%
STETSON HILLS ELEMENTARY,25475 N STETSON HILLS LOOP RD,GLENDALE,MARICOPA,85083,YES,RN,PUBLIC,127,98%,2%,100%,98%,2%,99%,94%,5%,99%,97%,3%,100%,97%,3%,100%,98%,2%,100%,98%,2%,100%,6%,0%,2%
STEVEN R JASINSKI ELEMENTARY SCHOOL,4280 S 246TH AVE,BUCKEYE,MARICOPA,85326,NO,,PUBLIC,54,96%,4%,100%,94%,4%,98%,94%,4%,98%,96%,4%,100%,94%,4%,100%,98%,2%,100%,96%,4%,100%,4%,0%,2%
STEVENSON ELEMENTARY SCHOOL,638 S 96TH ST,MESA,MARICOPA,85208,YES,RN,PUBLIC,112,98%,0%,100%,97%,1%,100%,97%,1%,100%,100%,0%,100%,99%,1%,100%,100%,0%,100%,99%,1%,100%,1%,1%,0%
SUMMIT ACADEMY,1560 W SUMMIT PL,CHANDLER,MARICOPA,85224,YES,RN,PUBLIC,79,100%,0%,100%,90%,1%,95%,87%,1%,92%,96%,4%,100%,96%,4%,100%,100%,0%,100%,100%,0%,100%,6%,0%,0%
SUMMIT SCHOOL OF AHWATUKEE,4515 E MUIRWOOD DR,PHOENIX,MARICOPA,85048,NO,,PRIVATE,25,96%,4%,100%,88%,4%,92%,88%,4%,92%,96%,4%,100%,96%,4%,100%,96%,4%,100%,96%,4%,100%,4%,0%,4%
SUMMIT VIEW ELEMENTARY,1900 E SUMMIT ST,TUCSON,PIMA,85756,YES,RN,PUBLIC,77,100%,0%,100%,100%,0%,100%,100%,0%,100%,100%,0%,100%,100%,0%,100%,100%,0%,100%,100%,0%,100%,0%,0%,0%
SUN VALLEY CHARTER SCHOOL,"5806 S 35TH AVE, BLDG E",PHOENIX,MARICOPA,85041,NO,,CHARTER,24,100%,0%,100%,38%,0%,100%,29%,0%,100%,100%,0%,100%,100%,0%,100%,100%,0%,100%,100%,0%,100%,0%,0%,0%
SUN VALLEY ELEMENTARY SCHOOL,8361 N 95TH AVE,PEORIA,MARICOPA,85345,YES,LPN,PUBLIC,109,98%,2%,100%,96%,2%,100%,96%,2%,100%,98%,2%,100%,98%,2%,100%,98%,2%,100%,98%,2%,100%,18%,0%,18%
SUNBURST ELEMENTARY SCHOOL,14218 N 47TH AVE,GLENDALE,MARICOPA,85306,NO,,PUBLIC,93,98%,1%,100%,97%,2%,100%,97%,2%,100%,99%,1%,100%,99%,1%,100%,100%,0%,100%,99%,1%,100%,2%,0%,1%
SUNDANCE ELEMENTARY SCHOOL,7051 W CHOLLA ST,PEORIA,MARICOPA,85345,YES,LPN,PUBLIC,82,99%,1%,100%,98%,0%,98%,98%,1%,99%,99%,1%,100%,99%,1%,100%,99%,0%,99%,99%,0%,99%,1%,0%,0%
SUNDANCE ELEMENTARY SCHOOL,23800 W HADLEY ST,BUCKEYE,MARICOPA,85326,NO,,PUBLIC,78,99%,1%,100%,96%,3%,100%,96%,3%,100%,97%,3%,100%,99%,1%,100%,99%,1%,100%,99%,1%,100%,1%,1%,1%
SUNLAND ELEMENTARY SCHOOL,5401 S 7TH AVE,PHOENIX,MARICOPA,85041,NO,,PUBLIC,57,100%,0%,100%,100%,0%,100%,100%,0%,100%,100%,0%,100%,100%,0%,100%,100%,0%,100%,100%,0%,100%,0%,0%,0%
SUNNYSLOPE ELEMENTARY SCHOOL,240 E VOGEL AVE,PHOENIX,MARICOPA,85020,NO,,PUBLIC,99,99%,0%,100%,99%,0%,100%,96%,3%,100%,98%,2%,100%,99%,1%,100%,99%,1%,100%,100%,0%,100%,3%,0%,0%
SUNRISE ELEMENTARY SCHOOL,17624 N 31ST AVE,PHOENIX,MARICOPA,85053,NO,,PUBLIC,67,96%,0%,100%,97%,3%,100%,94%,6%,100%,100%,0%,100%,100%,0%,100%,100%,0%,100%,99%,1%,100%,7%,0%,0%
SUNSET CANYON SCHOOL,2727 E SIESTA LN,PHOENIX,MARICOPA,85050,NO,,PUBLIC,72,99%,1%,100%,99%,1%,100%,99%,1%,100%,99%,1%,100%,99%,1%,100%,99%,1%,100%,99%,1%,100%,1%,0%,1%
SUNSET HEIGHTS ELEMENTARY SCHOOL,9687 W ADAM AVE,PEORIA,MARICOPA,85382,YES,RN,PUBLIC,121,100%,0%,100%,95%,4%,100%,94%,5%,100%,100%,0%,100%,99%,1%,100%,100%,0%,100%,100%,0%,100%,4%,4%,0%
SUNSET HILLS ELEMENTARY,17825 WEST SIERRA MONTANA LOOP,SURPRISE,MARICOPA,85388,NO,,PUBLIC,152,97%,3%,100%,91%,8%,100%,90%,9%,100%,96%,4%,100%,96%,4%,100%,96%,4%,100%,97%,3%,100%,4%,0%,2%
SUNSET RIDGE ELEMENTARY,8490 W MISSOURI AVE,GLENDALE,MARICOPA,85305,NO,,PUBLIC,87,99%,1%,100%,95%,2%,100%,95%,2%,100%,100%,0%,100%,100%,0%,100%,100%,0%,100%,100%,0%,100%,3%,0%,3%
SUNSET RIDGE ELEMENTARY,35707 N 33RD LN,PHOENIX,MARICOPA,85086,NO,,PUBLIC,85,87%,13%,100%,84%,13%,96%,84%,13%,96%,84%,13%,96%,85%,13%,98%,87%,13%,100%,87%,13%,100%,13%,0%,13%
SUNSET SCHOOL,4626 W MOUNTAIN VIEW RD,GLENDALE,MARICOPA,85302,YES,RN,PUBLIC,90,96%,0%,100%,99%,1%,100%,98%,2%,100%,100%,0%,100%,100%,0%,100%,100%,0%,100%,100%,0%,100%,2%,2%,0%
SUNSET VISTA ELEMENTARY,7775 W ORANGEWOOD AVE,GLENDALE,MARICOPA,85303,YES,LPN,PUBLIC,90,97%,0%,97%,90%,1%,91%,89%,1%,100%,99%,1%,100%,99%,1%,100%,99%,1%,100%,100%,0%,100%,1%,1%,0%
SUPERSTITION SPRINGS ELEMENTARY,7125 E MONTEREY AVE,MESA,MARICOPA,85209,YES,RN,PUBLIC,111,93%,7%,100%,86%,11%,100%,88%,10%,100%,94%,6%,100%,94%,6%,100%,95%,5%,100%,95%,5%,100%,14%,0%,5%
SURPRISE ELEMENTARY SCHOOL,12907 W GREENWAY RD,EL MIRAGE,MARICOPA,85335,YES,LPN,PUBLIC,104,98%,2%,100%,91%,3%,95%,91%,3%,95%,98%,2%,100%,98%,2%,100%,98%,2%,100%,98%,2%,100%,3%,0%,2%
SWEETWATER SCHOOL,4602 W SWEETWATER AVE,GLENDALE,MARICOPA,85304,YES,RN,PUBLIC,61,98%,2%,100%,98%,2%,100%,97%,3%,100%,100%,0%,100%,100%,0%,100%,100%,0%,100%,100%,0%,100%,5%,0%,0%
SYSTEM PHOENIX,1301 E ALMERIA RD,PHOENIX,MARICOPA,85006,NO,,CHARTER,26,96%,4%,100%,69%,27%,96%,69%,27%,96%,96%,4%,100%,96%,4%,100%,92%,8%,100%,88%,12%,100%,27%,0%,4%
T DALE HANCOCK ELEMENTARY,2425 S PLEASANT DR,CHANDLER,MARICOPA,85286,NO,,PUBLIC,111,95%,5%,100%,91%,6%,100%,89%,9%,100%,95%,5%,100%,95%,5%,100%,95%,5%,100%,96%,4%,100%,12%,0%,2%
T G BARR SCHOOL,2041 E VINEYARD RD,PHOENIX,MARICOPA,85042,NO,,PUBLIC,63,97%,3%,100%,95%,3%,100%,95%,3%,100%,97%,3%,100%,97%,3%,100%,97%,3%,100%,97%,3%,100%,3%,0%,3%
T.E.S.D.#17 - PORFIRIO H GONZALES,9401 WEST GARFIELD STREET,TOLLESON,MARICOPA,85353,YES,LPN,PUBLIC,97,85%,4%,89%,78%,4%,82%,78%,4%,82%,84%,4%,88%,84%,4%,88%,88%,4%,92%,89%,4%,93%,4%,0%,4%
T.U.S.D.#1 - C. E. ROSE PRESCHOOL PROGRAM,710 WEST MICHIGAN DRIVE,TUCSON,PIMA,85714,YES,RN,PUBLIC,86,100%,0%,100%,100%,0%,100%,83%,0%,83%,100%,0%,100%,100%,0%,100%,100%,0%,100%,100%,0%,100%,0%,0%,0%
TAFT ELEMENTARY SCHOOL,9800 E QUARTERLINE RD,MESA,MARICOPA,85207,YES,RN,PUBLIC,80,98%,3%,100%,94%,3%,100%,94%,3%,100%,99%,1%,100%,99%,1%,100%,100%,0%,100%,100%,0%,100%,3%,4%,0%
TANQUE VERDE ELEMENTARY SCHOOL,2600 N FENNIMORE AVE,TUCSON,PIMA,85749,YES,RN,PUBLIC,115,97%,3%,100%,96%,4%,100%,96%,4%,100%,97%,3%,100%,97%,3%,100%,97%,3%,100%,100%,0%,100%,5%,0%,3%
TARTESSO ELEMENTARY SCHOOL,29677 W INDIANOLA RD,BUCKEYE,MARICOPA,85322,NO,,PUBLIC,66,97%,3%,100%,94%,5%,100%,94%,5%,100%,97%,3%,100%,97%,3%,100%,97%,3%,100%,97%,3%,100%,5%,0%,3%
TAYLOR INTERMEDIATE SCHOOL,207 N 500 WEST,TAYLOR,NAVAJO,85939,NO,,PUBLIC,57,93%,5%,100%,89%,11%,100%,88%,12%,100%,93%,5%,100%,93%,5%,100%,93%,5%,100%,95%,5%,100%,12%,0%,5%
TELESIS PREPARATORY,2598 STARLITE LN,LAKE HAVASU CITY,MOHAVE,86403,NO,,CHARTER,60,95%,0%,95%,55%,0%,55%,57%,0%,57%,95%,0%,95%,95%,0%,95%,95%,0%,95%,97%,0%,97%,2%,2%,2%
TEMPE ACADEMY OF INTERNATIONAL STUDIES MCKEMY CAMPUS,2250 S COLLEGE AVE,TEMPE,MARICOPA,85282,NO,,PUBLIC,116,97%,3%,100%,86%,5%,96%,84%,5%,95%,97%,3%,100%,97%,3%,100%,98%,2%,100%,99%,1%,100%,4%,2%,4%
TEMPE PREPARATORY ACADEMY,1251 E SOUTHERN AVE,TEMPE,MARICOPA,85282,NO,,CHARTER,68,91%,3%,96%,91%,3%,96%,66%,3%,71%,90%,3%,94%,88%,3%,94%,90%,3%,96%,91%,3%,94%,3%,3%,3%
TERRAMAR ELEMENTARY,7000 W HAPPY VALLEY RD,PEORIA,MARICOPA,85383,YES,RN,PUBLIC,119,98%,2%,100%,93%,5%,99%,92%,5%,98%,98%,2%,100%,98%,2%,100%,99%,1%,100%,99%,1%,100%,4%,1%,3%
THATCHER ELEMENTARY SCHOOL,1350 N 4TH AVE,THATCHER,GRAHAM,85552,YES,RN,PUBLIC,149,93%,7%,100%,91%,8%,99%,91%,8%,99%,93%,7%,100%,93%,7%,100%,94%,6%,100%,100%,0%,100%,10%,1%,9%
THE BEREAN ACADEMY,4699 E HIGHWAY 90,SIERRA VISTA,COCHISE,85635,NO,,CHARTER,30,97%,0%,97%,100%,0%,100%,23%,0%,23%,90%,0%,90%,93%,0%,93%,90%,0%,90%,90%,0%,90%,0%,0%,0%
THE GREGORY SCHOOL,3231 N CRAYCROFT RD,TUCSON,PIMA,85712,NO,,PRIVATE,37,92%,3%,100%,89%,3%,97%,86%,5%,97%,89%,5%,100%,92%,3%,100%,89%,5%,100%,95%,5%,100%,5%,0%,3%
THE JONES GORDON SCHOOL,4800 E. DOUBLETREE RANCH RD,PARADISE VALLEY,MARICOPA,85253,NO,,PRIVATE,< 20 ,N/A,N/A,N/A,N/A,N/A,N/A,N/A,N/A,N/A,N/A,N/A,N/A,N/A,N/A,N/A,N/A,N/A,N/A,N/A,N/A,N/A,N/A,N/A,N/A
THE PAIDEIA ACADEMY OF SOUTH PHOENIX,7777 S 15TH TER,PHOENIX,MARICOPA,85042,YES,RN,CHARTER,57,100%,0%,100%,96%,4%,100%,96%,4%,100%,100%,0%,100%,100%,0%,100%,100%,0%,100%,100%,0%,100%,4%,0%,4%
THE PEAK SCHOOL,2229 E SPRUCE AVE,FLAGSTAFF,COCONINO,86004,NO,,CHARTER,< 20 ,N/A,N/A,N/A,N/A,N/A,N/A,N/A,N/A,N/A,N/A,N/A,N/A,N/A,N/A,N/A,N/A,N/A,N/A,N/A,N/A,N/A,N/A,N/A,N/A
THE RISING SCHOOL,7444 E BROADWAY BLVD,TUCSON,PIMA,85710,NO,,CHARTER,< 20 ,N/A,N/A,N/A,N/A,N/A,N/A,N/A,N/A,N/A,N/A,N/A,N/A,N/A,N/A,N/A,N/A,N/A,N/A,N/A,N/A,N/A,N/A,N/A,N/A
THOMAS A EDISON SCHOOL,804 N 18TH ST,PHOENIX,MARICOPA,85006,YES,RN,PUBLIC,64,97%,2%,100%,97%,2%,100%,95%,2%,98%,97%,2%,100%,98%,2%,100%,98%,2%,100%,98%,2%,100%,0%,2%,2%
THOMPSON RANCH ELEMENTARY,11800 W THOMPSON RANCH RD,EL MIRAGE,MARICOPA,85335,YES,RN,PUBLIC,94,98%,1%,99%,98%,0%,98%,98%,2%,100%,100%,0%,100%,100%,0%,100%,100%,0%,100%,100%,0%,100%,1%,0%,0%
THORNYDALE ELEMENTARY SCHOOL,7751 N OLDFATHER RD,TUCSON,PIMA,85741,NO,,PUBLIC,51,100%,0%,100%,96%,2%,98%,96%,2%,98%,100%,0%,100%,100%,0%,100%,98%,0%,98%,100%,0%,100%,4%,0%,4%
TONALEA ELEMENTARY SCHOOL,6720 E CONTINENTAL DR,SCOTTSDALE,MARICOPA,85257,YES,RN,PRIVATE,154,99%,1%,100%,97%,1%,100%,97%,1%,100%,99%,1%,100%,99%,1%,100%,99%,1%,100%,99%,1%,100%,1%,0%,1%
TOWN & COUNTRY ELEMENTARY SCHOOL,1313 S LENZNER AVE,SIERRA VISTA,COCHISE,85635,YES,RN,PUBLIC,58,100%,0%,100%,95%,3%,100%,93%,3%,98%,100%,0%,100%,100%,0%,100%,100%,0%,100%,97%,3%,100%,3%,0%,3%
TRAILSIDE POINT ELEMENTARY,7272 W VINEYARD RD,LAVEEN,MARICOPA,85339,NO,,PUBLIC,98,97%,2%,100%,93%,3%,98%,90%,3%,97%,98%,2%,100%,96%,3%,100%,98%,2%,100%,98%,2%,100%,3%,0%,2%
TRES RIOS ELEMENTARY SCHOOL,5025 S 103RD AVE,TOLLESON,MARICOPA,85353,YES,LPN,PUBLIC,95,98%,1%,100%,98%,2%,100%,98%,2%,100%,99%,1%,100%,99%,1%,100%,98%,1%,100%,99%,1%,100%,2%,0%,1%
TRI-CITY CHRISTIAN ACADEMY,2211 W GERMANN RD,CHANDLER,MARICOPA,85286,NO,,PRIVATE,< 20 ,N/A,N/A,N/A,N/A,N/A,N/A,N/A,N/A,N/A,N/A,N/A,N/A,N/A,N/A,N/A,N/A,N/A,N/A,N/A,N/A,N/A,N/A,N/A,N/A
TRINITY CHRISTIAN SCHOOL,1071 MOGOLLON RD,PRESCOTT,YAVAPAI,86301,NO,,PRIVATE,21,67%,33%,100%,71%,29%,100%,57%,43%,100%,62%,38%,100%,67%,33%,100%,67%,33%,100%,71%,29%,100%,43%,0%,29%
TRINITY LUTHERAN ELEMENTARY SCHOOL,830 PLAZA CIR,LITCHFIELD PARK,MARICOPA,85340,NO,,PRIVATE,< 20 ,N/A,N/A,N/A,N/A,N/A,N/A,N/A,N/A,N/A,N/A,N/A,N/A,N/A,N/A,N/A,N/A,N/A,N/A,N/A,N/A,N/A,N/A,N/A,N/A
TRINITY LUTHERAN SCHOOL,830 EAST PLAZA CIRCLE EAST,LITCHFIELD PARK,MARICOPA,85340,NO,,PRIVATE,< 20 ,N/A,N/A,N/A,N/A,N/A,N/A,N/A,N/A,N/A,N/A,N/A,N/A,N/A,N/A,N/A,N/A,N/A,N/A,N/A,N/A,N/A,N/A,N/A,N/A
TRIUMPHANT LEARNING CENTER,201 E MAIN ST,SAFFORD,GRAHAM,85546,NO,,CHARTER,< 20 ,N/A,N/A,N/A,N/A,N/A,N/A,N/A,N/A,N/A,N/A,N/A,N/A,N/A,N/A,N/A,N/A,N/A,N/A,N/A,N/A,N/A,N/A,N/A,N/A
TRIVIUM PREPARATORY ACADEMY,925 N SARIVAL AVE,GOODYEAR,MARICOPA,,YES,RN,CHARTER,152,99%,1%,100%,94%,6%,100%,94%,6%,100%,98%,2%,100%,97%,3%,100%,99%,1%,100%,99%,1%,100%,7%,1%,1%
TSAILE ELEMENTARY SCHOOL,RTE 12,TSAILE,APACHE,86556,NO,,PUBLIC,32,100%,0%,100%,97%,0%,100%,97%,0%,100%,100%,0%,100%,100%,0%,100%,100%,0%,100%,100%,0%,100%,0%,0%,0%
TSEHOOTSOOI DINE BI'OLTA' (NAVAJO IMMERSION),NAVAJO ROUTE 12,FORT DEFIANCE,APACHE,86504,NO,,PUBLIC,< 20 ,N/A,N/A,N/A,N/A,N/A,N/A,N/A,N/A,N/A,N/A,N/A,N/A,N/A,N/A,N/A,N/A,N/A,N/A,N/A,N/A,N/A,N/A,N/A,N/A
TSEHOOTSOOI INTERMEDIATE LEARNING CENTER,NAVAJO ROUTE 7,FORT DEFIANCE,APACHE,86504,NO,,PUBLIC,156,100%,0%,100%,99%,0%,100%,99%,0%,100%,100%,0%,100%,100%,0%,100%,100%,0%,100%,100%,0%,100%,0%,0%,0%
TUBA CITY JUNIOR HIGH SCHOOL,EAST FIR STREET,TUBA CITY,COCONINO,86045,YES,LPN,PUBLIC,96,100%,0%,100%,80%,0%,80%,77%,0%,77%,100%,0%,100%,100%,0%,100%,100%,0%,100%,99%,0%,99%,0%,0%,0%
TUCSON COUNTRY DAY SCHOOL,9239 E WRIGHTSTOWN RD,TUCSON,PIMA,85715,NO,,CHARTER,80,100%,0%,100%,98%,1%,100%,98%,1%,100%,100%,0%,100%,100%,0%,100%,100%,0%,100%,100%,0%,100%,1%,0%,0%
TUCSON HEBREW ACADEMY,3888 E RIVER RD,TUCSON,PIMA,85718,NO,,PRIVATE,< 20 ,N/A,N/A,N/A,N/A,N/A,N/A,N/A,N/A,N/A,N/A,N/A,N/A,N/A,N/A,N/A,N/A,N/A,N/A,N/A,N/A,N/A,N/A,N/A,N/A
TUCSON INTERNATIONAL ACADEMY - WEST,2700 W BROADWAY BLVD,TUCSON,PIMA,85745,NO,,CHARTER,< 20 ,N/A,N/A,N/A,N/A,N/A,N/A,N/A,N/A,N/A,N/A,N/A,N/A,N/A,N/A,N/A,N/A,N/A,N/A,N/A,N/A,N/A,N/A,N/A,N/A
TUCSON INTERNATIONAL ACADEMY MIDVALE,1625 W VALENCIA RD #109,TUCSON,PIMA,85746,NO,,CHARTER,23,100%,0%,100%,100%,0%,100%,100%,0%,100%,100%,0%,100%,100%,0%,100%,100%,0%,100%,100%,0%,100%,0%,0%,0%
TUCSON WALDORF SCHOOL,3605 E RIVER RD,TUCSON,PIMA,85718,NO,,PRIVATE,< 20 ,N/A,N/A,N/A,N/A,N/A,N/A,N/A,N/A,N/A,N/A,N/A,N/A,N/A,N/A,N/A,N/A,N/A,N/A,N/A,N/A,N/A,N/A,N/A,N/A
TUMBLEWEED ELEMENTARY SCHOOL,4001 W LAUREL LN,PHOENIX,MARICOPA,85029,NO,,PUBLIC,65,100%,0%,100%,98%,2%,100%,98%,2%,100%,100%,0%,100%,100%,0%,100%,98%,2%,100%,100%,0%,100%,3%,0%,0%
TWIN PEAKS ELEMENTARY SCHOOL,7995 W TWIN PEAKS RD,TUCSON,PIMA,85743,YES,RN,PUBLIC,77,99%,0%,99%,78%,5%,83%,73%,9%,82%,99%,0%,99%,99%,0%,99%,99%,0%,99%,100%,0%,100%,6%,3%,4%
UNITED CHRISTIAN SCHOOL,903 WEST FINNIE FLAT ROAD,CAMP VERDE,YAVAPAI,86322,NO,,PRIVATE,< 20 ,N/A,N/A,N/A,N/A,N/A,N/A,N/A,N/A,N/A,N/A,N/A,N/A,N/A,N/A,N/A,N/A,N/A,N/A,N/A,N/A,N/A,N/A,N/A,N/A
UTTERBACK MIDDLE SCHOOL,3233 S PINAL VISTA,TUCSON,PIMA,85713,YES,RN,PUBLIC,123,100%,0%,100%,100%,0%,100%,98%,0%,100%,100%,0%,100%,100%,0%,100%,100%,0%,100%,100%,0%,100%,0%,0%,0%
V H LASSEN ELEMENTARY SCHOOL,909 W VINEYARD RD,PHOENIX,MARICOPA,85041,NO,,PUBLIC,49,96%,2%,100%,96%,2%,100%,65%,2%,100%,92%,2%,100%,94%,2%,100%,98%,2%,100%,94%,2%,96%,0%,0%,0%
VAIL ACADEMY & HIGH SCHOOL,7762 E SCIENCE PARK DR,TUCSON,PIMA,85747,NO,,CHARTER,51,100%,0%,100%,94%,6%,100%,94%,6%,100%,100%,0%,100%,100%,0%,100%,100%,0%,100%,100%,0%,100%,6%,0%,0%
VAIL INNOVATION CENTER,10775 E MARY ANN CLEVELAND WAY,TUCSON,PIMA,85747,NO,,PUBLIC,29,97%,3%,100%,93%,3%,100%,93%,3%,100%,97%,3%,100%,97%,3%,100%,97%,3%,100%,97%,3%,100%,7%,0%,3%
VAL VISTA ACADEMY - A BALL CHARTER SCHOOL,4120 S VAL VISTA DR,GILBERT,MARICOPA,85297,NO,,CHARTER,23,100%,0%,100%,74%,22%,96%,74%,22%,96%,100%,0%,100%,100%,0%,100%,100%,0%,100%,100%,0%,100%,22%,0%,22%
VAL VISTA LAKES ELEMENTARY SCHOOL,1030 N BLUE GROTTO DR,GILBERT,MARICOPA,85234,YES,RN,PUBLIC,82,100%,0%,100%,94%,1%,98%,94%,1%,98%,100%,0%,100%,100%,0%,100%,99%,1%,100%,100%,0%,100%,2%,0%,0%
VALENCIA MIDDLE SCHOOL,4400 W IRVINGTON RD,TUCSON,PIMA,85746,YES,RN,PUBLIC,323,99%,1%,100%,97%,1%,99%,97%,1%,99%,99%,0%,100%,100%,0%,100%,99%,0%,100%,100%,0%,100%,1%,0%,0%
VALLEY ACADEMY,1520 WEST ROSE GARDEN LANE,PHOENIX,MARICOPA,85027,YES,RN,PUBLIC,76,97%,3%,100%,95%,5%,100%,95%,5%,100%,97%,3%,100%,96%,4%,100%,95%,5%,100%,96%,4%,100%,9%,0%,3%
VALLEY HORIZON ELEMENTARY SCHOOL,4501 W 20TH ST,YUMA,YUMA,85364,NO,,PUBLIC,92,99%,1%,100%,93%,1%,95%,93%,1%,95%,99%,1%,100%,99%,1%,100%,99%,1%,100%,97%,1%,98%,1%,0%,1%
VALLEY VIEW SCHOOL,8220 S 7TH AVE,PHOENIX,MARICOPA,85041,YES,RN,PUBLIC,79,100%,0%,100%,99%,1%,100%,99%,0%,99%,100%,0%,100%,99%,0%,99%,100%,0%,100%,100%,0%,100%,1%,0%,1%
VERITAS PREPARATORY ACADEMY,3102 N 56TH ST,PHOENIX,MARICOPA,85018,NO,,CHARTER,123,95%,5%,100%,92%,5%,97%,89%,7%,97%,95%,5%,100%,97%,3%,100%,93%,7%,100%,97%,3%,100%,3%,3%,3%
VERNON ELEMENTARY SCHOOL,10 E MAIN ST,VERNON,APACHE,85940,NO,,PUBLIC,< 20 ,N/A,N/A,N/A,N/A,N/A,N/A,N/A,N/A,N/A,N/A,N/A,N/A,N/A,N/A,N/A,N/A,N/A,N/A,N/A,N/A,N/A,N/A,N/A,N/A
VERRADO HERITAGE ELEMENTARY SCHOOL,20895 W HAMILTON ST,BUCKEYE,MARICOPA,85396,NO,,PUBLIC,122,93%,7%,100%,47%,4%,51%,48%,4%,52%,87%,7%,100%,91%,7%,100%,93%,6%,100%,93%,6%,99%,7%,0%,4%
VERRADO MIDDLE SCHOOL,20880 W MAIN ST,BUCKEYE,MARICOPA,85396,YES,RN,PUBLIC,289,96%,4%,100%,92%,4%,96%,92%,4%,96%,94%,4%,98%,94%,4%,98%,95%,4%,99%,97%,3%,100%,4%,0%,3%
VILLA DE PAZ ELEMENTARY SCHOOL,4940 N 103RD AVE,PHOENIX,MARICOPA,85037,NO,,PUBLIC,81,100%,0%,100%,94%,2%,100%,94%,2%,100%,99%,0%,100%,100%,0%,100%,100%,0%,100%,100%,0%,100%,2%,0%,2%
VILLA MONTESSORI - MAIN CAMPUS WA,4535 N 28TH ST,PHOENIX,MARICOPA,,NO,,CHARTER,55,93%,5%,98%,31%,31%,62%,20%,5%,25%,95%,5%,100%,89%,5%,95%,89%,5%,95%,89%,0%,89%,5%,0%,5%
VILLAGE MEADOWS ELEMENTARY SCHOOL,905 EL CAMINO REAL,SIERRA VISTA,COCHISE,85635,YES,RN,PUBLIC,63,98%,2%,100%,98%,2%,100%,97%,3%,100%,97%,3%,100%,98%,2%,100%,98%,2%,100%,98%,2%,100%,3%,0%,2%
VILLAGE MEADOWS ELEMENTARY SCHOOL,2020 W MORNINGSIDE DR,PHOENIX,MARICOPA,85023,YES,RN,PUBLIC,65,95%,5%,100%,95%,5%,100%,95%,5%,100%,97%,3%,100%,97%,3%,100%,97%,3%,100%,97%,3%,100%,6%,0%,3%
VILLAGO MIDDLE SCHOOL,574 E LAKESIDE PKWY,CASA GRANDE,PINAL,85222,YES,RN,PUBLIC,305,100%,0%,100%,95%,1%,96%,95%,1%,96%,99%,1%,100%,99%,1%,100%,99%,1%,100%,100%,0%,100%,0%,0%,0%
VISTA DEL SUR TRADITIONAL SCHOOL,3908 W SOUTH MOUNTAIN AVE,LAVEEN,MARICOPA,85339,NO,,PUBLIC,92,99%,1%,100%,90%,4%,100%,90%,4%,100%,100%,0%,100%,99%,1%,100%,100%,0%,100%,100%,0%,100%,4%,0%,0%
VISTA GROVE PREPARATORY ACADEMY - ELEMENTARY,2929 E MCKELLIPS RD,MESA,MARICOPA,,NO,,CHARTER,40,88%,8%,100%,88%,8%,98%,78%,8%,88%,93%,5%,100%,88%,5%,98%,90%,5%,100%,95%,5%,100%,5%,3%,5%
VISTANCIA ELEMENTARY SCHOOL,30009 N SUNSET POINT,PEORIA,MARICOPA,85383,YES,RN,PUBLIC,122,98%,2%,100%,90%,10%,100%,89%,11%,100%,98%,2%,100%,99%,1%,100%,98%,2%,100%,100%,0%,100%,13%,0%,0%
VULTURE PEAK MIDDLE SCHOOL,920 S VULTURE MINE RD,WICKENBURG,MARICOPA,85390,NO,,PUBLIC,73,100%,0%,100%,95%,5%,100%,95%,4%,99%,100%,0%,100%,99%,0%,99%,99%,0%,99%,99%,0%,99%,0%,4%,0%
WADE CARPENTER MIDDLE SCHOOL,595 W KINO ST,NOGALES,SANTA CRUZ,85621,YES,RN,PUBLIC,201,100%,0%,100%,100%,0%,100%,100%,0%,100%,100%,0%,100%,100%,0%,100%,100%,0%,100%,100%,0%,100%,0%,0%,0%
WALKER BUTTE K-8,29897 N DESERT WILLOW BLVD,QUEEN CREEK,PINAL,85143,NO,,PUBLIC,55,100%,0%,100%,91%,9%,100%,91%,9%,100%,100%,0%,100%,100%,0%,100%,100%,0%,100%,100%,0%,100%,9%,0%,0%
WALLACE JR HIGH SCHOOL,1320 18TH ST,PARKER,LA PAZ,85344,NO,,PUBLIC,136,99%,1%,100%,96%,2%,99%,94%,2%,97%,97%,2%,99%,98%,2%,100%,99%,1%,100%,97%,2%,99%,0%,0%,2%
WALTER DOUGLAS ELEMENTARY SCHOOL,3302 N FLOWING WELLS RD,TUCSON,PIMA,85705,NO,,PUBLIC,87,99%,1%,100%,100%,0%,100%,99%,1%,100%,99%,1%,100%,99%,1%,100%,99%,1%,100%,99%,1%,100%,1%,0%,1%
WALTER J MEYER SCHOOL,411 N 9TH ST,TOMBSTONE,COCHISE,85638,YES,LPN,PUBLIC,< 20 ,N/A,N/A,N/A,N/A,N/A,N/A,N/A,N/A,N/A,N/A,N/A,N/A,N/A,N/A,N/A,N/A,N/A,N/A,N/A,N/A,N/A,N/A,N/A,N/A
WARD TRADITIONAL ACADEMY,1965 E HERMOSA DR,TEMPE,MARICOPA,85282,YES,RN,PUBLIC,46,96%,4%,100%,89%,11%,100%,87%,13%,100%,93%,7%,100%,93%,7%,100%,93%,7%,100%,93%,7%,100%,17%,0%,4%
WASHINGTON ELEMENTARY SCHOOL,2260 W ISABELLA AVE,MESA,MARICOPA,85202,YES,RN,PUBLIC,76,96%,4%,100%,88%,7%,97%,88%,8%,99%,97%,3%,100%,97%,3%,100%,100%,0%,100%,96%,4%,100%,8%,0%,7%
WASHINGTON ELEMENTARY SCHOOL,8033 N 27TH AVE,PHOENIX,MARICOPA,85051,YES,LPN,PUBLIC,109,100%,0%,100%,98%,1%,100%,98%,1%,100%,100%,0%,100%,100%,0%,100%,99%,1%,100%,100%,0%,100%,1%,0%,0%
WASHINGTON SCHOOL,300 W OAK ST,WINSLOW,NAVAJO,86047,NO,,PUBLIC,156,100%,0%,100%,97%,2%,100%,97%,2%,100%,100%,0%,100%,100%,0%,100%,100%,0%,100%,100%,0%,100%,3%,0%,0%
WEBSTER ELEMENTARY SCHOOL,202 N SYCAMORE,MESA,MARICOPA,85201,YES,RN,PUBLIC,96,98%,2%,100%,98%,2%,100%,96%,2%,98%,98%,2%,100%,98%,2%,100%,97%,3%,100%,98%,2%,100%,3%,1%,2%
WEINBERG ELEMENTARY SCHOOL,21221 S VAL VISTA RD,CHANDLER,MARICOPA,85298,NO,,PUBLIC,124,95%,5%,100%,89%,8%,100%,89%,8%,100%,94%,6%,100%,94%,6%,100%,94%,6%,100%,97%,3%,100%,7%,0%,2%
WELLTON ELEMENTARY SCHOOL,29126 SAN JOSE AVE,WELLTON,YUMA,85356,NO,,PUBLIC,25,68%,0%,76%,0%,0%,76%,0%,0%,0%,60%,0%,76%,56%,0%,76%,68%,0%,76%,64%,0%,64%,0%,0%,0%
WENDEN ELEMENTARY SCHOOL,71001 SANTA FE AVE,WENDEN,LA PAZ,85357,NO,,PUBLIC,< 20 ,N/A,N/A,N/A,N/A,N/A,N/A,N/A,N/A,N/A,N/A,N/A,N/A,N/A,N/A,N/A,N/A,N/A,N/A,N/A,N/A,N/A,N/A,N/A,N/A
WEST ELEMENTARY SCHOOL,460 S 7TH ST,COOLIDGE,PINAL,85228,YES,RN,PUBLIC,117,100%,0%,100%,98%,1%,100%,98%,1%,100%,100%,0%,100%,100%,0%,100%,100%,0%,100%,100%,0%,100%,1%,0%,0%
WEST POINT ELEMENTARY,13700 W GREENWAY RD,SURPRISE,MARICOPA,85374,YES,LPN,PUBLIC,80,99%,1%,100%,89%,5%,94%,89%,5%,94%,99%,1%,100%,99%,1%,100%,99%,1%,100%,99%,1%,100%,5%,0%,1%
WEST VALLEY CHRISTIAN SCHOOL,16260 W VAN BUREN ST,GOODYEAR,MARICOPA,85338,NO,,PRIVATE,23,96%,4%,100%,83%,13%,96%,74%,13%,91%,87%,13%,100%,87%,13%,100%,87%,13%,100%,87%,13%,100%,0%,0%,13%
WEST WING SCHOOL,26716 NORTH HIGH DESERT DRIVE,PEORIA,MARICOPA,85383,YES,RN,PUBLIC,135,93%,7%,100%,87%,8%,98%,84%,8%,96%,96%,4%,100%,97%,3%,100%,93%,7%,100%,100%,0%,100%,8%,1%,4%
WESTAR ELEMENTARY SCHOOL,17777 W WESTAR DR,GOODYEAR,MARICOPA,85338,NO,,PUBLIC,62,87%,13%,100%,94%,0%,100%,85%,0%,100%,87%,13%,100%,87%,13%,100%,84%,16%,100%,94%,6%,100%,23%,0%,0%
WESTERN PEAKS ELEMENTARY,18063 W SURPRISE FARMS LOOP SOUTH,SURPRISE,MARICOPA,85388,YES,RN,PUBLIC,117,94%,6%,100%,85%,10%,99%,86%,13%,99%,94%,6%,100%,94%,6%,100%,94%,6%,100%,94%,6%,100%,13%,0%,6%
WESTERN SKY MIDDLE SCHOOL,4095 N 144TH AVE,GOODYEAR,MARICOPA,85395,YES,LPN,PUBLIC,348,96%,3%,99%,66%,2%,70%,61%,3%,66%,95%,3%,98%,96%,3%,99%,95%,3%,98%,96%,3%,99%,3%,0%,2%
WESTLAND SCHOOL,4141 N 67TH AVE,PHOENIX,MARICOPA,85033,NO,,CHARTER,< 20 ,N/A,N/A,N/A,N/A,N/A,N/A,N/A,N/A,N/A,N/A,N/A,N/A,N/A,N/A,N/A,N/A,N/A,N/A,N/A,N/A,N/A,N/A,N/A,N/A
WESTLAND SCHOOL BRIGHTON CAMPUS,8632 W NORTHERN AVE,GLENDALE,MARICOPA,85305,NO,,CHARTER,25,96%,0%,96%,80%,4%,84%,68%,4%,72%,92%,0%,92%,92%,0%,92%,96%,0%,96%,96%,0%,96%,4%,0%,4%
WESTPARK ELEMENTARY SCHOOL,2700 S 257TH DR,BUCKEYE,MARICOPA,85326,YES,LPN,PUBLIC,80,100%,0%,100%,95%,3%,98%,94%,3%,96%,100%,0%,100%,100%,0%,100%,100%,0%,100%,100%,0%,100%,3%,0%,0%
WESTWIND PRIMARY,9040 W CAMPBELL AVE,PHOENIX,MARICOPA,85037,NO,,PUBLIC,127,99%,1%,100%,97%,1%,99%,96%,1%,98%,98%,1%,99%,99%,1%,100%,99%,1%,100%,99%,1%,100%,1%,0%,1%
WHISPERING WIND ACADEMY,15844 N 43RD ST,PHOENIX,MARICOPA,85032,YES,RN,PUBLIC,89,97%,3%,100%,88%,12%,100%,88%,12%,100%,97%,3%,100%,96%,4%,100%,99%,1%,100%,98%,2%,100%,13%,0%,2%
WHITMAN ELEMENTARY SCHOOL,1829 N GRAND,MESA,MARICOPA,85201,YES,RN,PUBLIC,84,98%,2%,100%,98%,2%,100%,99%,0%,100%,99%,0%,99%,99%,0%,99%,98%,0%,98%,99%,0%,99%,1%,1%,1%
WHITTIER ELEMENTARY SCHOOL,733 N LONGMORE,MESA,MARICOPA,85201,YES,RN,PUBLIC,69,99%,1%,100%,99%,1%,100%,97%,3%,100%,99%,1%,100%,99%,1%,100%,99%,1%,100%,99%,1%,100%,3%,1%,1%
WHITTIER ELEMENTARY SCHOOL,2000 N 16TH ST,PHOENIX,MARICOPA,85006,YES,RN,PUBLIC,43,100%,0%,100%,98%,0%,100%,95%,0%,95%,100%,0%,100%,100%,0%,100%,100%,0%,100%,100%,0%,100%,0%,0%,0%
WIGWAM CREEK MIDDLE SCHOOL,4510 N 127TH AVE,LITCHFIELD PARK,MARICOPA,85340,YES,LPN,PUBLIC,351,97%,3%,100%,91%,5%,99%,91%,5%,98%,97%,3%,100%,97%,3%,100%,98%,2%,100%,97%,3%,100%,6%,0%,2%
WILDFIRE ELEMENTARY,3997 E LOCKWOOD DR,PHOENIX,MARICOPA,85050,YES,RN,PUBLIC,124,91%,9%,100%,87%,13%,100%,87%,13%,100%,94%,6%,100%,94%,6%,100%,94%,6%,100%,94%,6%,100%,13%,0%,13%
WILDFLOWER SCHOOL,325 S WILDFLOWER DR,GOODYEAR,MARICOPA,85338,YES,RN,PUBLIC,41,98%,2%,100%,93%,7%,100%,93%,7%,100%,98%,2%,100%,98%,2%,100%,98%,2%,100%,93%,7%,100%,7%,0%,2%
WILLCOX ELEMENTARY SCHOOL,501 W DELOS ST,WILLCOX,COCHISE,85643,YES,RN,PUBLIC,74,99%,1%,100%,97%,1%,100%,97%,1%,100%,99%,1%,100%,99%,1%,100%,99%,1%,100%,100%,0%,100%,1%,0%,1%
WILLIAM R SULLIVAN ELEMENTARY SCHOOL,2 N 31ST AVE,PHOENIX,MARICOPA,85009,NO,,PUBLIC,72,100%,0%,100%,96%,0%,99%,96%,0%,99%,100%,0%,100%,100%,0%,100%,100%,0%,100%,99%,1%,100%,0%,0%,0%
WILLIAM T MACHAN ELEMENTARY SCHOOL,2140 E VIRGINIA AVE,PHOENIX,MARICOPA,85006,YES,RN,PUBLIC,54,100%,0%,100%,100%,0%,100%,100%,0%,100%,100%,0%,100%,100%,0%,100%,100%,0%,100%,100%,0%,100%,0%,0%,0%
WILLIAMS ELEMENTARY/MIDDLE SCHOOL,601 N 7TH ST,WILLIAMS,COCONINO,86046,NO,,PUBLIC,54,96%,2%,98%,89%,2%,91%,93%,2%,94%,100%,0%,100%,100%,0%,100%,100%,0%,100%,100%,0%,100%,2%,0%,0%
WILLOW CREEK CHARTER SCHOOL,2100 WILLOW CREEK RD,PRESCOTT,YAVAPAI,86301,NO,,CHARTER,< 20 ,N/A,N/A,N/A,N/A,N/A,N/A,N/A,N/A,N/A,N/A,N/A,N/A,N/A,N/A,N/A,N/A,N/A,N/A,N/A,N/A,N/A,N/A,N/A,N/A
WILSON ELEMENTARY SCHOOL,2929 E FILLMORE ST,PHOENIX,MARICOPA,85008,NO,,PUBLIC,139,99%,0%,99%,94%,0%,99%,95%,0%,98%,99%,0%,99%,99%,0%,99%,99%,0%,99%,99%,0%,99%,0%,0%,0%
WINIFRED HARELSON ELEMENTARY SCHOOL,826 W CHAPALA DR,TUCSON,PIMA,85704,NO,,PUBLIC,62,95%,5%,100%,95%,5%,100%,94%,6%,100%,94%,6%,100%,95%,5%,100%,97%,3%,100%,97%,3%,100%,97%,6%,3%
YOUNG SCHOLARS ACADEMY,1501 E VALENCIA RD,BULLHEAD CITY,MOHAVE,86426,NO,,CHARTER,47,96%,4%,100%,85%,0%,85%,85%,0%,85%,96%,4%,100%,98%,2%,100%,98%,2%,100%,96%,4%,100%,6%,0%,0%
YUMA LUTHERAN SCHOOL,2555 ENGLER AVE,YUMA,YUMA,85365,YES,LPN,PRIVATE,48,100%,0%,100%,58%,0%,58%,58%,0%,58%,98%,0%,100%,100%,0%,100%,100%,0%,100%,100%,0%,100%,0%,0%,0%
ZUNI HILLS ELEMENTARY SCHOOL,10851 W WILLIAMS RD,PEORIA,MARICOPA,85373,YES,RN,PUBLIC,131,98%,2%,100%,93%,6%,99%,93%,6%,99%,98%,2%,100%,98%,2%,100%,99%,1%,100%,99%,1%,100%,8%,0%,1%